name,lat,lon,address,type
Central Co-op,47.61547934,-122.3110575,1600 East Madison Street 98122,Supermarkets
Fred Meyer,47.69192389,-122.3590442,100 Northwest 87th Street;Northwest 85th Street 98117,Supermarkets
PCC,47.6835377,-122.3440942,7504 Aurora Avenue North 98103,Supermarkets
Thriftway,47.54447738,-122.3862101,4205 Southwest Morgan Street 98136,Supermarkets
Albertsons,47.64247225,-122.3979239,,Supermarkets
Metropolitan Market,47.65528015,-122.4004521,3830 34th Avenue West 98199,Supermarkets
QFC,47.64947282,-122.3778591,1600 West Dravus Street 98119,Supermarkets
Fred Meyer,47.66025346,-122.3683997,915 Northwest 45th Street 98107,Supermarkets
QFC,47.70939606,-122.3172654,11100 Roosevelt Way Northeast 98125,Supermarkets
Safeway,47.69020556,-122.3761123,8340 15th Avenue Northwest 98117,Supermarkets
Metropolitan Market,47.58198631,-122.3848064,2320 42nd Avenue Southwest 98116,Supermarkets
Safeway,47.53747211,-122.2830397,3900 South Othello Street 98118,Supermarkets
Safeway,47.66208947,-122.2951087,3020 Northeast 45th Street 98105,Supermarkets
Safeway,47.68260884,-122.2893868,7340 35th Avenue Northeast 98115,Supermarkets
Safeway,47.57984068,-122.3860331,2622 California Avenue Southwest 98116,Supermarkets
Safeway,47.51666566,-122.366718,9620 28th Avenue Southwest 98126,Supermarkets
Safeway,47.61801642,-122.3035139,2201 East Madison Street 98122,Supermarkets
Safeway,47.52101225,-122.2680428,9262 Rainer Avenue South 98118,Supermarkets
Safeway,47.62356756,-122.3577138,516 1st Avenue West 98119,Supermarkets
Safeway,47.7180099,-122.3119714,12318 15th Avenue Northeast 98125,Supermarkets
Safeway,47.62046757,-122.3131384,1410 East John Street 98112,Supermarkets
Safeway,47.68194302,-122.3169679,7300 Roosevelt Way Northeast 98115,Supermarkets
Safeway,47.56927015,-122.2879322,3820 Rainier Avenue South 98118,Supermarkets
Safeway,47.66828529,-122.3742636,1423 Northwest Market Street 98107,Supermarkets
Safeway,47.5596032,-122.3849212,4754 42nd Avenue Southwest 98116,Supermarkets
Safeway,47.74096753,-122.3435947,15332 Aurora Avenue North 98133,Supermarkets
Metropolitan Market,47.66822809,-122.2836379,5250 40th Avenue Northeast 98105,Supermarkets
Town & Country,47.66985416,-122.374174,1400 Northwest 56th Street 98107,Supermarkets
Hilltop Red Apple Grocery Store,47.57898156,-122.3129113,2701 Beacon Avenue South 98144,Supermarkets
QFC,47.6618392,-122.335946,4500 Wallingford Avenue North 98103,Supermarkets
Leschi Market,47.60187738,-122.2856677,,Supermarkets
Marketime,47.66049648,-122.3496415,4416 Fremont Avenue North 98103,Supermarkets
Grocery Outlet,47.69292085,-122.3759076,8700 15th Avenue Northwest 98117,Supermarkets
Fred Meyer,47.72400852,-122.2917766,13000 Lake City Way Northeast 98125,Supermarkets
Bert's Red Apple Market,47.63481753,-122.2799767,1801 41st Avenue East 98112,Supermarkets
QFC,47.70193372,-122.3636646,9999 Holman Road Northwest 98117,Supermarkets
Grocery Outlet,47.61233813,-122.2955065,1126 Martin Luther King Junior Way 98122,Supermarkets
Trader Joe's,47.56191999,-122.3810582,4545 Fauntleroy Way Southwest 98126,Supermarkets
Sprouts Farmers Market,47.72354512,-122.3429996,13010 Aurora Avenue North 98133,Supermarkets
QFC,47.52205218,-122.3659312,2500 Southwest Barton Street 98126,Supermarkets
Dominic's Red Apple Market,47.51572615,-122.3147791,9627 Des Moines Memorial Drive South 98108,Supermarkets
Grocery Outlet,47.49633842,-122.2484301,11656 68th Avenue South 98178,Supermarkets
PCC,47.66186407,-122.3756287,1451 Northwest 46th Street,Supermarkets
PCC,47.57752326,-122.3870798,2749 California Avenue Southwest 98116,Supermarkets
Grocery Outlet,47.7216444,-122.2952057,3020 Northeast 127th Street 98125,Supermarkets
Whole Foods Market,47.6751275,-122.316204,1026 Northeast 64th Street 98115,Supermarkets
Town & Country,47.7426683,-122.349859,15505 Westminster Way North 98133,Supermarkets
QFC,47.5612845,-122.3850454,,Supermarkets
QFC,47.6246921,-122.3472754,500 Mercer Street 98109,Supermarkets
PCC,47.6499533,-122.3508881,600 North 34th Street 98103,Supermarkets
Trader Joe's,47.6626473,-122.317644,4555 Roosevelt Way Northeast 98105,Supermarkets
QFC,47.6622402,-122.296441,2746 Northeast 45th Street 98105,Supermarkets
QFC,47.6224273,-122.3214738,417 Broadway East 98102,Supermarkets
Uwajimaya,47.596843,-122.327043,,Supermarkets
View Ridge PCC,47.6761289,-122.284355,6514 40th Avenue Northeast 98115,Supermarkets
Trader Joe's,47.6157986,-122.3100354,,Supermarkets
Whole Foods Market,47.6183162,-122.3381763,2200 Westlake Avenue 98121,Supermarkets
Metropolitan Market,47.6247135,-122.3551326,100 Mercer Street 98109,Supermarkets
Island Pacific,47.547142,-122.2847855,,Supermarkets
QFC,47.5792192,-122.2998444,,Supermarkets
Whole Foods Market,47.6369803,-122.3769082,2001 15th Avenue West 98119,Supermarkets
H Mart,47.6588997,-122.313035,4216 University Way Northeast 98105,Supermarkets
Beacon Hill Market,47.580873,-122.3132425,2500 15th Avenue South 98144,Supermarkets
Oriental Mart,47.6089213,-122.3407486,1506 Pike Place 98101,Supermarkets
PCC Community Markets,47.6090875,-122.3352648,1320 4th Avenue 98101,Supermarkets
Golden Hong Market,47.5978028,-122.3235839,518 7th Avenue South 98104,Supermarkets
Dong Hing Market,47.5990041,-122.3194034,1001 South Jackson Street 98104,Supermarkets
Cash & Carry,47.7247284,-122.3417772,13102 Stone Avenue North 98133,Supermarkets
Asian Family Market,47.7248044,-122.3433535,13200 Aurora Avenue North 98133,Supermarkets
QFC,47.7333469,-122.310498,1531 Northeast 145th Street 98155,Supermarkets
QFC,47.6706609,-122.387274,,Supermarkets
Trader Joe's,47.6365319,-122.3567138,1916 Queen Anne Avenue North 98109,Supermarkets
PCC,47.6803721,-122.3235175,450 Northeast 71st Street 98115,Supermarkets
Mekong Rainier Supermarket,47.5728293,-122.2934131,,Supermarkets
Hau Hau Market,47.5986055,-122.3168144,,Supermarkets
Lam's Seafood Market,47.5980864,-122.316335,1221 South King Street 98144,Supermarkets
Ba Miền Seafood Market,47.5391664,-122.283133,6951 Martin Luther King Junior Way South 98118,Supermarkets
Hung Long Asian Market,47.5142643,-122.3534665,,Supermarkets
Phnom Khiev Supermarket,47.5142703,-122.3553378,9841 16th Avenue Southwest 98106,Supermarkets
QFC,47.6138791,-122.3210828,1401 Broadway 98122,Supermarkets
District Market,47.6558026,-122.313542,1315 Northeast Campus Parkway 98105,Supermarkets
PCC,47.5589369,-122.2868536,3610 South Edmunds Street 98118,Supermarkets
Stockbox First Hill Grocery,47.6055194,-122.3244163,901 James Street,Supermarkets
Amazon Fresh,47.5800166,-122.335337,,Supermarkets
Trader Joe's,47.6625657,-122.3742266,4609 14th Avenue Northwest 98107,Supermarkets
Whole Foods Market,47.6113428,-122.3210619,1001 Broadway 98122,Supermarkets
H Mart,47.6103391,-122.3401939,1601 2nd Avenue 98101,Supermarkets
Whole Foods Market,47.5608948,-122.3819456,,Supermarkets
Amazon Go Grocery,47.6142939,-122.3239636,610 East Pike Street 98122,Supermarkets
PCC,47.6131191,-122.3029763,2230 East Union Street 98122,Supermarkets
M2M Mart,47.6196604,-122.320645,,Supermarkets
Amazon Fresh,47.5989972,-122.3019607,2301 South Jackson Street 98144,Supermarkets
Amazon Fresh,47.725371,-122.3466737,13201 Aurora Avenue North 98133,Supermarkets
Ken's Market,47.6397975,-122.36455,2400 6th Avenue West Seattle 98119,Supermarkets
Ken's Market,47.6815945,-122.3555196,7231 Phinney Avenue North Seattle 98103,Supermarkets
QFC,47.7289297,-122.243214,,Supermarkets
Metropolitan Market,47.5853463,-122.2357604,,Supermarkets
QFC,47.5850259,-122.2329051,7823 Southeast 28th Street 98040,Supermarkets
QFC,47.5410702,-122.2260527,,Supermarkets
Safeway,47.4890662,-122.3357947,12725 1st Avenue South Burien 98168,Supermarkets
Market Guadalupe,47.4878416,-122.3488751,1111 Southwest 128th Street Burien 98146-3128,Supermarkets
Super Saver Foods,47.508047,-122.3542446,10616 16th Avenue Southwest Seattle 98146,Supermarkets
Safeway,47.66430851,-122.3139677,"4732 Brooklyn Ave NE, Seattle, WA 98105",Supermarkets
Basil Viet Kitchen,-122.313141,47.6554532,4002 University Way Northeast Seattle 98105,Restaurants
Beth's Cafe,-122.344708,47.6821453,7311 Aurora Avenue North Seattle 98103,Restaurants
Luna Park Cafe,-122.3710361,47.5706768,2918 Southwest Avalon Way Seattle 98126,Restaurants
Bonjour Việt Nam,-122.3869793,47.5626236,4509 California Avenue Southwest ,Restaurants
Maharaja Cuisine of India,-122.3865536,47.5616219,4542 California Avenue Southwest Seattle 98116,Restaurants
Easy Street Cafe,-122.3869904,47.5613144,4557 California Avenue Southwest Seattle 98116,Restaurants
Matador,-122.3865474,47.5615325,4546 California Avenue Southwest Seattle 98116,Restaurants
Alki Cafe,-122.4104377,47.5790228,2726 Alki Avenue Southwest Seattle ,Restaurants
New Luck Toy,-122.3873209,47.550119,5905 California Avenue Southwest Seattle 98136,Restaurants
Pink Salt,-122.4006017,47.6394257,3321 West McGraw Street Seattle 98199,Restaurants
Nikos Gyros,-122.3985109,47.6392646,2231 32nd Avenue West Seattle 98199,Restaurants
Kinnaree,-122.4001996,47.639426,3311 West McGraw Street Seattle 98199,Restaurants
El Ranchon,-122.4019686,47.6396937,3416 West McGraw Street Seattle 98199,Restaurants
Gim Wah,-122.4020842,47.6396968,3418 West McGraw Street Seattle 98199,Restaurants
Slice Box Pizza,-122.399035,47.6394209,3213 West McGraw Street Seattle 98199,Restaurants
Queen Margherita,-122.3976471,47.639223,3111 West McGraw Street Seattle 98199,Restaurants
Soprano's Pizza,-122.398783,47.639709,3208 West McGraw Street Seattle 98199,Restaurants
Ichiro Sushi & Teriyaki,-122.3981604,47.640667,2434 32nd Avenue West Seattle 98199,Restaurants
Mondello Ristorante,-122.399799,47.6402279,2425 33rd Avenue West Seattle 98199,Restaurants
Snappy Dragon,-122.3177709,47.6936176,8917 Roosevelt Way Northeast Seattle 98115,Restaurants
Flying Squirrel Pizza,-122.3228006,47.6892671,98115,Restaurants
Himitsu Teriyaki,-122.3124639,47.6869038,8014 Lake City Way Northeast Seattle 98115,Restaurants
Mojito,-122.3160344,47.6843961,7545 Lake City Way Northeast Seattle 98115,Restaurants
Anita's Mexican Food,-122.3453216,47.7189205,12245 Aurora Avenue North Seattle 98133,Restaurants
Smile Thai Cuisine,-122.3256061,47.6755809,6411 Latona Avenue Northeast Seattle 98115,Restaurants
Red Mill Burgers,-122.3546696,47.6778315,312 North 67th Street Seattle 98103,Restaurants
Kisaku Sushi,-122.3331798,47.668582,2101 North 55th Street Seattle 98103,Restaurants
Restaurant Christine,-122.3318278,47.6688385,2227 North 56th Street ,Restaurants
El Sombrero,-122.2247588,47.5409723,,Restaurants
Vatsana Thai Restaurant,-122.3655616,47.5226736,9025 25th Avenue Southwest Seattle 98106,Restaurants
Noodle Bar,-122.3302536,47.6224942,422 Yale Avenue North ,Restaurants
Sunny Hill,-122.3979721,47.6903909,3127 Northwest 85th Street Seattle 98117,Restaurants
Dick's Drive-In - Holman Road,-122.371682,47.6964379,9208 Holman Road Northwest ,Restaurants
Tacos and Beer,-122.3722309,47.6968423,,Restaurants
Brimmer & Heeltap,-122.3631168,47.6685259,,Restaurants
Super China Buffet,-122.3493107,47.7409021,15323 Westminster Way North ,Restaurants
Italio,-122.361061,47.6903568,305 Northwest 85th Street Seattle 98117,Restaurants
Georgia's Greek Restaurant & Deli,-122.3128724,47.6871861,8007 Lake City Way Northeast Seattle 98115,Restaurants
Taqueria Tequila,-122.3608285,47.6903392,301 Northwest 85th Street Seattle 98117,Restaurants
Las Margaritas,-122.3445722,47.7339391,,Restaurants
Pagliacci Pizza,-122.319895,47.6414613,,Restaurants
Manna Teriyaki,-122.3002582,47.7099298,,Restaurants
Luciano's Pizza,-122.3001777,47.7100327,,Restaurants
Maggie Bluffs,-122.3911337,47.6302742,2601 West Marina Place Seattle 98199,Restaurants
Nori Presto,-122.3121619,47.7191381,,Restaurants
Secret Fort,-122.3344526,47.6612712,1911 North 45th Street Seattle 98103,Restaurants
Palisade,-122.3915164,47.6303796,2601 West Marina Place Seattle 98199,Restaurants
Chef King,-122.357756,47.6904007,101 North 85th Street Seattle 98103,Restaurants
Sailfish,-122.385856,47.6685144,2221 Northwest Market Street Seattle 98107,Restaurants
Tasty Pot,-122.3133074,47.6616178,4509 University Way Northeast Seattle 98105,Restaurants
Taste of Xi'an,-122.3133017,47.6619742,4523 University Way Northeast Seattle 98105,Restaurants
Cafe Piccolo,-122.3173709,47.6968584,,Restaurants
Via Tribunali - Capitol Hill,-122.319989,47.6139546,913 East Pike Street Seattle 98122,Restaurants
Bengal Tiger,-122.3175071,47.6761594,6509 Roosevelt Way Northeast Seattle 98115,Restaurants
Costa's,-122.3132817,47.6629735,4559 University Way Northeast Seattle 98105,Restaurants
,-122.3132694,47.6627283,4549 University Way Northeast Seattle 98105,Restaurants
Red Pepper,-122.3132864,47.662607,4545 University Way Northeast Seattle 98105,Restaurants
Thai Tom,-122.3132911,47.6625207,4543 University Way Northeast Seattle 98105,Restaurants
Aladdin Falafel,-122.3132934,47.6624595,4541 University Way Northeast Seattle 98105,Restaurants
Garam Masala,-122.3132972,47.6624056,4537b University Way Northeast Seattle 98105,Restaurants
Just Burgers,-122.3129247,47.6616455,4510 University Way Northeast Seattle 98105,Restaurants
Pandas Noodle Bar,-122.312966,47.661549,4508 University Way Northeast Seattle 98105,Restaurants
Marination Ma Kai,-122.3805678,47.5894296,1660 Harbor Avenue Southwest Seattle 98126,Restaurants
Salty's,-122.3763922,47.586573,,Restaurants
Royal India Grill,-122.3863302,47.5817204,,Restaurants
Arthur's,-122.3866909,47.5825553,2311 California Avenue Southwest Seattle 98116,Restaurants
Mission,-122.386715,47.5822532,,Restaurants
Yen Wor Village,-122.3862617,47.5828828,,Restaurants
Cactus - Alki Beach,-122.4130535,47.5782717,2820 Alki Avenue Southwest ,Restaurants
Big Mario's Pizza,-122.318823,47.6139817,1009 East Pike Street Seattle 98122,Restaurants
In Bocca al Lupo,-122.350174,47.6591419,4303 Fremont Avenue North Seattle 98103,Restaurants
Thai Taste,-122.332846,47.6023199,601 2nd Avenue Seattle 98104,Restaurants
Chuck's Hole in the Wall Barbecue,-122.331723,47.6025012,215 James Street Seattle 98104,Restaurants
Pho Than Brothers,-122.3211171,47.6238838,527 Broadway East Seattle 98102,Restaurants
Poquitos,-122.319201,47.6142354,1000 East Pike Street Seattle 98122,Restaurants
J&M Cafe,-122.3344084,47.6007703,201 1st Avenue South Seattle 98104,Restaurants
Zapverr,-122.3495767,47.6499101,3410 Fremont Avenue North Seattle 98103,Restaurants
Pho Than Brothers,-122.3501408,47.649881,626 North 34th Street Seattle 98103,Restaurants
Kaosamai,-122.3540934,47.6523605,404 North 36th Street Seattle 98103,Restaurants
Roxy's Diner,-122.3527429,47.6520205,462 North 36th Street 98103,Restaurants
Dragster,-122.353006,47.6521396,456 North 36th Street Seattle 98103,Restaurants
Almanqal Mediterranean Grill,-122.3369848,47.6614949,1712 North 45th Street Seattle 98103,Restaurants
45th Vegetarian Thai,-122.3367749,47.6615191,1718 North 45th Street Seattle 98103,Restaurants
Pam's Kitchen,-122.3366054,47.6612777,1715 North 45th Street Seattle 98103,Restaurants
Harvest Beat,-122.3368004,47.6612786,1711 North 45th Street Seattle 98103,Restaurants
Eve,-122.3493242,47.6496345,704 North 34th Street 98103,Restaurants
Chinook's at Salmon Bay,-122.3811821,47.6555838,1900 West Nickerson Street Seattle 98119,Restaurants
China Harbor,-122.3399752,47.6374143,2040 Westlake Avenue North 98109,Restaurants
Sushi Tokyo,-122.3175688,47.6745277,6311 Roosevelt Way Northeast Seattle 98115,Restaurants
Olympic Pizza & Pasta,-122.3175098,47.6754261,6413 Roosevelt Way Northeast ,Restaurants
Royal Palm,-122.3175045,47.6756157,6417 Roosevelt Way Northeast Seattle 98115,Restaurants
Dreamland,-122.351523,47.6500149,3401 Evanston Avenue North Seattle 98103,Restaurants
Made in House,-122.35025,47.6508415,3508 Fremont Place North Seattle 98103,Restaurants
Local Tide,-122.3538952,47.6519456,403 North 36th Street Seattle 98103,Restaurants
Alstadt,-122.3343914,47.600512,209 1st Avenue South Seattle 98104,Restaurants
HSun,-122.3344018,47.600165,221 1st Avenue South Seattle 98104,Restaurants
Aladdin Gyro-cery & Deli,-122.3133866,47.6579925,4139 University Way Northeast Seattle 98105,Restaurants
Saigon Deli,-122.3142098,47.6581295,4142 Brooklyn Avenue Northeast Seattle 98105,Restaurants
Pho Shizzle Too!,-122.3133401,47.6593411,4235 University Way Northeast Seattle 98105,Restaurants
Call A Chicken,-122.313348,47.6594156,4237 University Way Northeast Seattle 98105,Restaurants
Bugi's,-122.3133282,47.6595358,4241 University Way Northeast Seattle 98105,Restaurants
Samurai Noodle,-122.3130645,47.6579661,4138 University Way Northeast Seattle 98105,Restaurants
Núodle Express,-122.3133326,47.6596112,4245 University Way Northeast Seattle 98105,Restaurants
Pho Than Brothers,-122.3133668,47.6586007,4207 University Way Northeast Seattle 98105,Restaurants
BB's Teriyaki Grill,-122.313368,47.6589856,4221 University Way Northeast Seattle 98105,Restaurants
Mama's Viet Kitchen,-122.3133633,47.658756,4213 University Way Northeast Seattle 98105,Restaurants
University Teriyaki and Bakery,-122.313075,47.6571914,4108 University Way Northeast Seattle 98105,Restaurants
Henry's Taiwan Kitchen,-122.31417,47.6569986,4106 Brooklyn Avenue Northeast Seattle 98105,Restaurants
Guanaco's Tacos & Pupuseria,-122.3141689,47.6571228,4106 Brooklyn Avenue Northeast Seattle 98105,Restaurants
Green House,-122.3141679,47.6572231,4106 Brooklyn Avenue Northeast Seattle 98105,Restaurants
Shultzy's Bar And Grill,-122.3130587,47.6573018,4114 University Way Northeast Seattle 98105,Restaurants
Thai65,-122.3130382,47.6587941,4214 University Way Northeast Seattle 98105,Restaurants
GuǒC100,-122.313987,47.6569977,4106 Brooklyn Avenue Northeast Seattle 98105,Restaurants
Moonlight Cafe,-122.3067239,47.5989882,1919 South Jackson Street Seattle 98144,Restaurants
Bryant Corner Cafe and Bakery,-122.2931958,47.6759094,3118 Northeast 65th Street 98115,Restaurants
Jamjuree,-122.3128279,47.6234297,509 15th Avenue East Seattle 98112,Restaurants
Coastal Kitchen,-122.312814,47.6227783,429 15th Avenue East Seattle 98112,Restaurants
Rapport,-122.3210851,47.6253026,700 Broadway East Seattle 98102,Restaurants
OddFellows Cafe,-122.31965,47.6149543,1525 10th Avenue Seattle 98122,Restaurants
Wedgwood Broiler,-122.2902166,47.6893214,,Restaurants
Fremont Bowl,-122.3498788,47.659079,4262 Fremont Avenue North Seattle 98103,Restaurants
Kamakura Japanese Cuisine,-122.349716,47.6511647,3520 Fremont Avenue North Seattle 98103,Restaurants
Ian’s Pizza,-122.3497063,47.6509565,3510 Fremont Avenue North Seattle 98103,Restaurants
Esters Enoteca,-122.3496228,47.6501282,3416 Fremont Avenue North Seattle 98103,Restaurants
Sizzling Pot King,-122.32452,47.5984672,660 South King Street Seattle 98104,Restaurants
Maximilien,-122.3408538,47.6083167,81 A Pike Street Seattle 98101,Restaurants
Beyond The Bowl,-122.2946574,47.7197764,12518 Lake City Way Northeast Seattle 98125,Restaurants
Lucy's Corner,-122.3452442,47.6148308,,Restaurants
Sinbad Express,-122.3507589,47.6512525,3526 Fremont Place North Seattle 98103,Restaurants
Kwanjai Thai,-122.3526101,47.6516655,469 North 36th Street Seattle 98103,Restaurants
Rasai,-122.3525145,47.6516224,473 North 36th Street Seattle 98103,Restaurants
Nuna Ramen,-122.3522739,47.6515915,501 North 36th Street Seattle 98103,Restaurants
Regent Bakery and Café,-122.3140811,47.615416,1404 East Pine Street Seattle 98122,Restaurants
Cantinetta,-122.3361496,47.6518718,3650 Wallingford Avenue North 98103,Restaurants
Lazy Susan,-122.3477368,47.6270447,823 5th Avenue North Seattle 98109,Restaurants
Genki Sushi Inc,-122.347276,47.6248892,500 Mercer Street Seattle 98109,Restaurants
Wayward Vegan Café,-122.319878,47.6757068,801 Northeast 65th Street ,Restaurants
Piatti Ristorante & Bar,-122.2979545,47.6621695,2695 Northeast Village Lane Seattle 98105,Restaurants
Voula's Offshore Cafe,-122.321519,47.6546633,658 Northeast Northlake Way Seattle 98105,Restaurants
How To Cook A Wolf - Madison Park,-122.2782742,47.6358827,4200 East Madison Street Seattle 98112,Restaurants
Taurus Ox,-122.307517,47.6270436,903 19th Avenue East Seattle 98112,Restaurants
Bennetts,-122.2360398,47.5869343,,Restaurants
BluWater Bistro,-122.2849774,47.6017581,102 Lakeside Avenue Seattle 98122,Restaurants
Daniel's Broiler,-122.2842541,47.6029635,200 Lake Washington Boulevard Seattle 98122,Restaurants
Sano Cafe,-122.2366848,47.5865745,7605 Southeast 27th Street ,Restaurants
Tutta Bella Neapolitan Pizzeria,-122.2845232,47.5572106,4918 Rainier Avenue South Seattle 98118,Restaurants
Geraldine's Counter,-122.2849069,47.557967,4872 Rainier Avenue South Seattle 98118,Restaurants
That's Amore Italian Cafe,-122.292667,47.5895405,1425 31st Avenue South Seattle 98144,Restaurants
Pazzo's Pizza & Bar,-122.3260795,47.6400585,2307 Eastlake Avenue East ,Restaurants
Sushi Nori,-122.325667,47.641428,2366 Eastlake Avenue East Seattle 98102,Restaurants
14 Carrot Cafe,-122.3260931,47.6399433,2305 Eastlake Avenue East Seattle 98102,Restaurants
Circa,-122.3868229,47.5809008,,Restaurants
Good Guys Pizza,-122.3443954,47.7041271,,Restaurants
IHOP,-122.344387,47.7023384,10002 Aurora Avenue North Seattle 98133,Restaurants
Amante Pizza & Pasta,-122.3184611,47.7184179,,Restaurants
Razzi's Pizzeria,-122.355518,47.6911513,8523 Greenwood Avenue North Seattle 98103,Restaurants
Serafina,-122.326077,47.6380666,2043 Eastlake Avenue East Seattle 98102,Restaurants
Son of a Butcher,-122.325512,47.6393506,2236 Eastlake Avenue East 98102,Restaurants
I Love Sushi,-122.331801,47.6287722,,Restaurants
Mioposto,-122.2880998,47.5782015,,Restaurants
Skillet Diner,-122.314003,47.6130697,1400 East Union Street Seattle 98122,Restaurants
Cascina Spinasse,-122.3143994,47.6150591,1531 14th Avenue Seattle 98122,Restaurants
Plenty of Clouds,-122.3126,47.6150995,1550 15th Avenue Seattle 98122,Restaurants
Hot Cakes,-122.3857166,47.6680496,5427 Ballard Avenue Northwest ,Restaurants
Sai Sushi & Sake,-122.3576839,47.624485,25 West Mercer Street Seattle 98119,Restaurants
Great American Diner & Bar,-122.3866085,47.5594825,4752 California Avenue Southwest Seattle 98116,Restaurants
Kati Vegan Thai,-122.3332743,47.6209307,1190 Thomas Street 98109,Restaurants
LunchBox Laboratory,-122.331442,47.6206366,,Restaurants
The Blue Glass,-122.3647966,47.6761007,704 Northwest 65th Street Seattle 98117,Restaurants
Bandol,-122.331839,47.6019354,506 2nd Avenue Seattle 98104,Restaurants
Palmi,-122.3496403,47.6503638,3424 Fremont Avenue North Seattle 98103,Restaurants
Pel'Meni Dumpling Tzar,-122.3505961,47.6511373,3516 Fremont Place North Seattle 98103,Restaurants
El Moose,-122.3817902,47.6665862,5242 Leary Avenue Northwest Seattle 98107,Restaurants
Joule,-122.3424,47.6497249,3506 Stone Way North Seattle 98103,Restaurants
Dur Dur Cafe,-122.3031681,47.6081198,,Restaurants
Little Coney's,-122.4031837,47.686607,,Restaurants
La Rustica,-122.4093461,47.5674149,,Restaurants
Windy City Pie,-122.3541759,47.672328,5918 Phinney Avenue North Seattle 98103,Restaurants
Jai Thai,-122.3500891,47.6503182,3423 Fremont Avenue North Seattle 98103,Restaurants
Delicatus,-122.3343745,47.6015299,103 1st Avenue South Seattle 98104,Restaurants
Tenth West,-122.370557,47.636137,1903C 10th Avenue West Seattle 98119,Restaurants
Malena's Taco Shop,-122.3659746,47.6397012,620 West McGraw Street Seattle 98119,Restaurants
Via Tribunali - Queen Anne,-122.361327,47.6322046,317 West Galer Street Seattle 98119,Restaurants
Seattle Pizza and Bar,-122.3533168,47.616037,2801 Western Avenue 98121,Restaurants
Rione XIII,-122.31283,47.6220796,401 15th Avenue East Seattle 98112,Restaurants
Alki Phở & Bar,-122.412365,47.5784426,2808 Alki Avenue Southwest Seattle 98116,Restaurants
Christo's,-122.4057616,47.5808405,2508 Alki Avenue Southwest ,Restaurants
Duke's,-122.405959,47.5807773,2516 Alki Avenue Southwest ,Restaurants
El Chupacabra,-122.4073049,47.5801305,2620 Alki Avenue Southwest ,Restaurants
West Seattle Brewing Co.,-122.4068141,47.5803814,2356 Alki Avenue Southwest Seattle 98116,Restaurants
Harry’s Beach House,-122.4091509,47.5793974,2676 Alki Avenue Southwest Seattle 98116,Restaurants
Tsui Sushi Bar,-122.3256094,47.6757104,6421 Latona Avenue Northeast Seattle 98115,Restaurants
Homegrown,-122.3571055,47.6385089,2201 Queen Anne Avenue North Seattle 98109,Restaurants
Vera Pizza,-122.3174654,47.5489326,,Restaurants
Le Pichet,-122.342558,47.6108072, 1st Avenue ,Restaurants
Virginia Inn,-122.34263,47.6108583,,Restaurants
Betty,-122.3572116,47.6326914,1507 Queen Anne Avenue North Seattle 98109,Restaurants
Domani,-122.3572204,47.6327965,1515 Queen Anne Avenue North Seattle 98109,Restaurants
El Mezcalito,-122.3571128,47.6379208,2123 Queen Anne Avenue North Seattle 98109,Restaurants
Isarn Thai Soul Kitchen,-122.3571118,47.6379528,2125 Queen Anne Avenue North ,Restaurants
Queen Anne Cafe,-122.3571242,47.6378377,2121 Queen Anne Avenue North Seattle 98109,Restaurants
Ikiiki,-122.3563471,47.6385159,12 Boston Street Seattle 98109,Restaurants
Bounty Kitchen,-122.356528,47.638259,7 Boston Street Seattle 98109,Restaurants
How to Cook a Wolf,-122.3567358,47.6387102,2208 Queen Anne Avenue North Seattle 98109,Restaurants
Grappa,-122.3567302,47.6385016,2 Boston Street Seattle 98109,Restaurants
Orrapin,-122.3564728,47.6385109,10 Boston Street Seattle 98109,Restaurants
Eden Hill,-122.3571003,47.6387141,2209 Queen Anne Avenue North Seattle 98109,Restaurants
Ada’s Restaurant & Bar,-122.3541824,47.6721718,5910 Phinney Avenue North Seattle 98103,Restaurants
Joy Palace,-122.284937,47.5475586,6030 Martin Luther King Junior Way South Seattle 98118,Restaurants
Cookie's Country Chicken,-122.3809989,47.6688365,1744 Northwest Market Street Seattle 98107,Restaurants
Mae Phim Thai,-122.3353113,47.6032314,94 Columbia Street Seattle 98104,Restaurants
Silver Tray,-122.333602,47.6612769,2101 North 45th Street 98103,Restaurants
Yoroshiku,-122.3344151,47.6612734,1913 North 45th Street Seattle 98103,Restaurants
TNT Taqueria,-122.3329383,47.6614974,2114 North 45th Street 98103,Restaurants
Aoki Sushi & Grill,-122.3211244,47.6249184,621 Broadway East Seattle 98102,Restaurants
Altura,-122.3211555,47.6248147,617 Broadway East Seattle 98102,Restaurants
Rom Mai Thai,-122.32115,47.6247346,613 Broadway East Seattle 98102,Restaurants
Local Bigger Burger,-122.321114,47.62365,515 Broadway East Seattle 98102,Restaurants
Albacha Restaurant,-122.3210407,47.6186509,1833 Broadway Seattle 98122,Restaurants
Annapurna Cafe,-122.3210789,47.6185778,1831 Broadway Seattle 98122,Restaurants
Nacho Borracho,-122.32104,47.6201245,209 Broadway East Seattle 98102,Restaurants
Mirch Masala,-122.3210914,47.6202975,213 Broadway East Seattle 98102,Restaurants
The Cheesecake Factory,-122.3333104,47.6119029,700 Pike Street Seattle 98101,Restaurants
Pink Bee,-122.3827367,47.6695677,2010 Northwest 56th Street Seattle 98107,Restaurants
Endolyne Joe's,-122.3905567,47.5205624,9261 45th Avenue Southwest Seattle 98136,Restaurants
Yum Yum,-122.3477873,47.7452242,,Restaurants
The Whale Wins,-122.342404,47.6496447,3506 Stone Way North Seattle 98103,Restaurants
Ha!,-122.349878,47.6589451,4256 Fremont Avenue North Seattle 98103,Restaurants
Cedar's,-122.3144998,47.6647206,4759 Brooklyn Avenue Northeast Seattle 98105,Restaurants
Anthony's Fish Bar,-122.347917,47.6107103,2201 Alaskan Way Seattle ,Restaurants
Anthony's Pier 66,-122.3482522,47.6108242,2201 Alaskan Way Seattle ,Restaurants
The Yard Cafe,-122.3556196,47.6895803,8313 Greenwood Avenue North Seattle 98103,Restaurants
Hummus Café,-122.355089,47.6904693,8420 Greenwood Avenue North Seattle 98103,Restaurants
Pete's Eggnest,-122.3555105,47.6852992,7717 Greenwood Avenue North Seattle 98103,Restaurants
El Farol Mexican,-122.3129329,47.6229898,1467 East Republican Street Seattle 98112,Restaurants
Bar Vacilando,-122.312829,47.6221817,405 15th Avenue East Seattle 98112,Restaurants
Teriyaki & Wok,-122.320517,47.6218518,324 Broadway East Seattle 98102,Restaurants
Bamboo Restaurant,-122.3128721,47.6217831,345 15th Avenue East Seattle 98112,Restaurants
Seoul Tofu & Jjim,-122.3207127,47.6222063,406 Broadway East Seattle 98102,Restaurants
Pinto Bistro Thai & Sushi Bar,-122.3207061,47.6222936,408 Broadway East Seattle 98102,Restaurants
Dué Cucina Italiana,-122.3207132,47.6224488,412 Broadway East Seattle 98102,Restaurants
Boca Restobar and Grill,-122.320704,47.622546,416 Broadway East Seattle 98102,Restaurants
Broadway Wok,-122.3206951,47.6226482,420 Broadway East Seattle 98102,Restaurants
Boca Argentine Pizzeria and Bakery,-122.3207093,47.622812,426 Broadway East Seattle 98102,Restaurants
La Cocina y Cantina,-122.3207259,47.6229474,432 Broadway East Seattle 98102,Restaurants
Lionhead,-122.3206979,47.6249235,618 Broadway East Seattle 98102,Restaurants
Carrello,-122.3205321,47.6249602,622 Broadway East Seattle 98102,Restaurants
Herb & Bitter Public House,-122.3207297,47.623614,516 Broadway East Seattle 98102,Restaurants
Star Fusion & Bar,-122.320723,47.6241188,538 Broadway East Seattle 98102,Restaurants
Gorgeous George,-122.3555121,47.6853487,7719 Greenwood Avenue North Seattle 98103,Restaurants
Kabul Afghan Cuisine,-122.3312033,47.6612625,2301 North 45th Street Seattle 98103,Restaurants
Sea Thai,-122.3307489,47.6612672,2313 North 45th Street Seattle 98103,Restaurants
Paju,-122.3561344,47.6244759,11 Mercer Street Seattle 98109,Restaurants
Dumpling the Noodle,-122.3363529,47.661278,1723 North 45th Street Seattle 98103,Restaurants
Julia's in Wallingford,-122.3363818,47.6604268,4401 Wallingford Avenue North Seattle 98103,Restaurants
Ooink Ramen,-122.3423662,47.6515796,3630 Stone Way North Seattle 98103,Restaurants
Fiasco,-122.3424759,47.6491869,3400 Stone Way North Seattle 98103,Restaurants
Al-Uruba Restaurant,-122.2761785,47.5235132,8824 Renton Avenue South Seattle 98118,Restaurants
Serious Takeout,-122.3732053,47.6662851,5118 14th Avenue Northwest Seattle 98107,Restaurants
Ballard Mandarin,-122.3659727,47.6688162,5500 8th Avenue Northwest Seattle 98107,Restaurants
NoLIta,-122.376429,47.6720507,5909 15th Avenue Northwest Seattle 98107,Restaurants
Monkey Bridge,-122.3799661,47.6685022,1723 Northwest Market Street Seattle 98107,Restaurants
Staple & Fancy,-122.3800456,47.6635494,4739 Ballard Avenue Northwest Seattle 98107,Restaurants
The Walrus and the Carpenter,-122.3801366,47.6636067,4743 Ballard Avenue Northwest Seattle 98107,Restaurants
Ballard Pizza Company,-122.3812745,47.6645689,5107 Ballard Avenue Northwest Seattle 98107,Restaurants
Thai Thani Kitchen,-122.38391,47.6684912,2021 Northwest Market Street Seattle 98107,Restaurants
MacLeod's Fish & Chips,-122.3824241,47.6659423,5206 Ballard Avenue Northwest Seattle 98107,Restaurants
Wero,-122.382522,47.6660224,5210 Ballard Avenue Northwest Seattle 98107,Restaurants
Stoneburner,-122.3826226,47.6661106,5214 Ballard Avenue Northwest Seattle 98107,Restaurants
Percy's and Co.,-122.3831591,47.6661902,5233 Ballard Avenue Northwest Seattle 98107,Restaurants
Bitterroot,-122.3832191,47.6662498,5239 Ballard Avenue Northwest Seattle 98107,Restaurants
Shiku,-122.3833786,47.666768,5310 Ballard Avenue Northwest Seattle 98107,Restaurants
The Ballard Cut,-122.3836666,47.6665934,5313 Ballard Avenue Northwest Seattle 98107,Restaurants
The Other Coast Cafe,-122.3837668,47.6666694,5315 Ballard Avenue Northwest Seattle 98107,Restaurants
Patxi's Pizza,-122.3839783,47.6668363,5323 Ballard Avenue Northwest Seattle 98107,Restaurants
Moshi Moshi,-122.3837615,47.6670796,5324 Ballard Avenue Northwest Seattle 98107,Restaurants
Parish Northwest,-122.384168,47.6670338,5327 Ballard Avenue Northwest Seattle 98107,Restaurants
San Fermo,-122.3844573,47.6672496,5341 Ballard Avenue Northwest Seattle 98107,Restaurants
Station 18,-122.383065,47.6683616,5425 Russell Avenue Northwest Seattle 98107,Restaurants
Rachel's Bagels & Burritos,-122.3838136,47.6678544,5451 Leary Avenue Northwest Seattle 98107,Restaurants
Sunny Teriyaki,-122.383698,47.6682627,5460 Leary Avenue Northwest Seattle 98107,Restaurants
Billy Beach Sushi & Bar,-122.384243,47.6681849,5463 Leary Avenue Northwest Seattle 98107,Restaurants
Spice Waala,-122.382638,47.6695656,2008 Northwest 56th Street Seattle 98107,Restaurants
Katsu Burger,-122.3836631,47.6695718,2034 Northwest 56th Street Seattle 98107,Restaurants
Lil Woody's,-122.3839532,47.6688555,2040 Northwest Market Street Seattle 98107,Restaurants
Sam's Sushi,-122.3845935,47.6689814,5506 22nd Avenue Northwest Seattle 98107,Restaurants
Crackle Mi,-122.3850508,47.6696258,5605 22nd Avenue Northwest Seattle 98107,Restaurants
Watson's Counter,-122.387334,47.6755791,6420 24th Avenue Northwest Seattle 98107,Restaurants
8oz. Burger & Co.,-122.3882109,47.668514,2409 Northwest Market Street Seattle 98107,Restaurants
Kimchi House,-122.3878288,47.6713279,5809 24th Avenue Northwest Seattle 98107,Restaurants
Kiss Cafe,-122.3937385,47.6684721,2817 Northwest Market Street Seattle 98107,Restaurants
Samara,-122.3982206,47.675759,6414 32nd Avenue Northwest Seattle 98107,Restaurants
Ray's Boathouse and Café,-122.4075723,47.6733773,6049 Seaview Avenue Northwest Seattle 98107,Restaurants
Picolinos,-122.398565,47.6755287,6415 32nd Avenue Northwest Seattle 98107,Restaurants
El Legendario Mexican Restaurant,-122.3475748,47.6630224,4705 Aurora Avenue North Seattle 98103,Restaurants
Wing Dome,-122.351216,47.6216974,,Restaurants
Manolin,-122.3432573,47.6509977,3621 Stone Way North Seattle 98103,Restaurants
Big Mario's Pizza,-122.365615,47.6601299,4350 Leary Way Northwest Seattle 98107,Restaurants
Alberona's Da Vinci Pizza,-122.3596631,47.6540138,3624 Leary Way Northwest Seattle 98107,Restaurants
Cafe Munir,-122.3879616,47.6869194,2408 Northwest 80th Street Seattle 98117,Restaurants
Soprano's Pizza & Pasta,-122.3878316,47.6858525,7729 24th Avenue Northwest Seattle 98117,Restaurants
RockCreek,-122.34962,47.6594549,4300 Fremont Avenue North Seattle 98103,Restaurants
Uneeda Burger,-122.3497646,47.6595001,4302 Fremont Avenue North Seattle 98103,Restaurants
Le Coin,-122.3502149,47.6578304,4201 Fremont Avenue North Seattle 98103,Restaurants
Paseo,-122.3501692,47.6585026,4225 Fremont Avenue North Seattle 98103,Restaurants
Red Star Taco Bar,-122.351597,47.6513877,513 North 36th Street Seattle 98103,Restaurants
Art of the Table,-122.3428009,47.6528588,3801 Stone Way North Seattle 98103,Restaurants
Zeeks Pizza - Queen Anne,-122.3572078,47.6365164,1915 Queen Anne Avenue North Seattle 98109,Restaurants
Sushi Samurai,-122.3571407,47.6352961,1817 Queen Anne Avenue North Seattle 98109,Restaurants
2C Thai,-122.2947756,47.7195575,12506 Lake City Way Northeast Seattle 98125,Restaurants
Pho An,-122.2944944,47.7200437,12526 Lake City Way Northeast Seattle 98125,Restaurants
Toyoda Sushi,-122.294759,47.7205203,12543 Lake City Way Northeast Seattle 98125,Restaurants
B~side Foods,-122.325587,47.6207302,421 East Thomas Street Seattle 98102,Restaurants
Ishoni Yakiniku,-122.3211449,47.6246337,611 Broadway East Seattle 98102,Restaurants
Bimbos Cantina,-122.3187513,47.6139805,1013 East Pike Street Seattle 98122,Restaurants
SOI,-122.3192334,47.6131229,1400 10th Avenue Seattle 98122,Restaurants
Katsu Burger,-122.316617,47.6134133,1410 12th Avenue 98122,Restaurants
Barrio,-122.3166222,47.6136973,1420 12th Avenue Seattle 98122,Restaurants
Pho Huy,-122.3133759,47.614401,1420 East Madison Street Seattle 98122,Restaurants
Plum Bistro,-122.3171044,47.6138154,1429 12th Avenue Seattle 98122,Restaurants
Lost Lake Cafe & Lounge,-122.319628,47.614393,1505 10th Avenue Seattle 98122,Restaurants
Korn Dog,-122.3223714,47.6153948,1601 Harvard Avenue Seattle 98122,Restaurants
Rondo,-122.3206369,47.6207375,224 Broadway East Seattle 98102,Restaurants
Capitol Cider,-122.3210992,47.6142084,818 East Pike Street Seattle 98122,Restaurants
The Tin Table,-122.3198707,47.6151211,915 East Pine Street Seattle 98122,Restaurants
Iki Na,-122.3198375,47.6142164,918 East Pike Street Seattle 98122,Restaurants
Dao Tai House,-122.3171739,47.6156632,1621 12th Avenue Seattle 98122,Restaurants
Blotto,-122.3167369,47.6185976,1830 12th Avenue Seattle 98122,Restaurants
Zaika,-122.3288633,47.6136753,1100 Pike Street Seattle 98101,Restaurants
Rumba,-122.3285566,47.6138049,1112 Pike Street Seattle 98101,Restaurants
Wasabi Sushi SEA,-122.328613,47.6151531,1202 Pine Street 98101,Restaurants
Ristorante Machiavelli,-122.3280674,47.6150274,1215 Pine Street Seattle 98101,Restaurants
La Cocina Oaxaquena,-122.3281345,47.6153901,1216 Pine Street Seattle 98101,Restaurants
Terra Plata,-122.3280798,47.6143873,1501 Melrose Avenue Seattle 98122,Restaurants
Yalla,-122.3261573,47.6180814,1510 East Olive Way Seattle 98122,Restaurants
Dino's Tomato Pie,-122.3259287,47.6183874,1524 East Olive Way Seattle 98122,Restaurants
Mercado Luna,-122.3257733,47.6153484,422 East Pine Street Seattle 98122,Restaurants
Meet Korean BBQ,-122.3253244,47.6142556,500 East Pike Street Seattle 98122,Restaurants
Tamari Bar,-122.3253103,47.6154268,514 East Pine Street Seattle 98122,Restaurants
Fogón Cocina Mexicana,-122.3242827,47.6153475,600 East Pine Street Seattle 98122,Restaurants
Single Shot,-122.325476,47.624673,611 Summit Avenue East Seattle 98102,Restaurants
Cook Weaver,-122.321767,47.6252241,806 East Roy Street Seattle 98102,Restaurants
206 Burger Company,-122.3261909,47.6090339,1000 Madison Street Seattle 98104,Restaurants
Thai Star Restaurant,-122.3254959,47.609488,1007 Boren Avenue Seattle 98104,Restaurants
Zaki Mediterranean Grill,-122.325541,47.6095393,1009 Boren Avenue Seattle 98104,Restaurants
Pho Saigon,-122.32571,47.6092429,1016 Madison Street Seattle 98104,Restaurants
Italian Family Pizza,-122.3253994,47.6093645,1028 Madison Street Seattle 98104,Restaurants
8oz Burger & Co.,-122.3209687,47.6131116,1401 Broadway Seattle 98122,Restaurants
Tangerine Tree,-122.3218598,47.6138108,1430 Harvard Avenue Seattle 98122,Restaurants
Pagliacci Pizza,-122.3260488,47.6139305,415 East Pike Street Seattle 98122,Restaurants
Tavolata,-122.3253177,47.6139607,501 East Pike Street Seattle 98122,Restaurants
Biang Biang,-122.3242522,47.6139534,601 East Pike Street Seattle 98122,Restaurants
HoneyHole,-122.3232008,47.613932,703 East Pike Street Seattle 98122,Restaurants
Saint John's Bar & Eatery,-122.3225652,47.6139519,719 East Pike Street Seattle 98122,Restaurants
Ayutthaya Thai Cuisine,-122.3222885,47.6139466,727 East Pike Street Seattle 98122,Restaurants
Vito's,-122.327444,47.6082093,927 9th Avenue Seattle 98104,Restaurants
El Camino,-122.3509101,47.6505296,607 North 35th Street Seattle 98103,Restaurants
Kin Len Thai Night Bites,-122.3501319,47.651241,3517 Fremont Avenue North Seattle 98103,Restaurants
Café Turko,-122.347834,47.6494266,750 North 34th Street Seattle 98103,Restaurants
Miss Cafe,-122.340759,47.60938,1523 1st Avenue Seattle 98101,Restaurants
Hard Rock Cafe,-122.339425,47.6092244,116 Pike Street Seattle 98101,Restaurants
Michou Deli,-122.342338,47.6098611,1904 Pike Place Seattle 98101,Restaurants
Piroshky Piroshky,-122.3424581,47.6099319,1908 Pike Place Seattle 98101,Restaurants
Etta's,-122.3438151,47.6107983,,Restaurants
Seatown Seabar and Rotisserie,-122.3434739,47.6105857,,Restaurants
Katsu Burger,-122.3291739,47.5441534,,Restaurants
Orient Express,-122.3293103,47.5757148,,Restaurants
Rocking Wok,-122.3408887,47.659315,98103,Restaurants
Thai Fusion,-122.3567925,47.6491931,15 Nickerson Street Seattle 98109,Restaurants
Pecado Bueno,-122.3256284,47.6412896,2356 Eastlake Avenue East Seattle 98102,Restaurants
Otter Bar and Burger,-122.3261004,47.6419326,2379 Eastlake Avenue East Seattle 98102,Restaurants
D’ La Santa,-122.3202059,47.6412335,2359 10th Avenue East Seattle 98102,Restaurants
La Carta de Oaxaca,-122.3859378,47.6682176,5431 Ballard Avenue Northwest 98107,Restaurants
Pho Than Brothers,-122.383741,47.6684948,2021 Northwest Market Street 98107,Restaurants
Chada Thai,-122.3548275,47.7198737,308 North 125th Street Seattle 98133,Restaurants
Chef at Wok,-122.3557875,47.7193863,12427 Greenwood Avenue North Seattle 98133,Restaurants
Kuan Zhai Alley,-122.3560251,47.7335143,14409 Greenwood Avenue North Seattle 98133,Restaurants
Raiz,-122.362656,47.6760761,500 Northwest 65th Street Seattle 98117,Restaurants
Ti22,-122.3464629,47.6170766,2510 4th Avenue Seattle 98121,Restaurants
Sushi Kappo Tamura,-122.3233581,47.6485754,2968 Eastlake Avenue East Seattle 98102,Restaurants
Tutta Bella Neapolitan Pizzeria,-122.3380315,47.6182872,2200 Westlake Avenue ,Restaurants
Portage Bay Cafe,-122.3374338,47.6218203,,Restaurants
LOCAL Public Eatery,-122.3369381,47.6221919,404 Terry Avenue North Seattle 98109,Restaurants
Re:Public,-122.3386938,47.6228842,429 Westlake Avenue North Seattle 98109,Restaurants
Cactus - South Lake Union,-122.336935,47.6217286,350 Terry Avenue North Seattle 98109,Restaurants
Eight Row,-122.32447,47.6801008,7102 Woodlawn Avenue Northeast Seattle 98115,Restaurants
Collections Café,-122.3503413,47.6208727,305 Harrison Street Seattle 98109,Restaurants
Luosifen,-122.3269016,47.5984637,514-516 South King Street 98104,Restaurants
Ohana Belltown,-122.3456842,47.6126767,2207 1st Avenue Seattle 98121,Restaurants
Petra Mediterranean Bistro,-122.346485,47.6166621,2501 4th Avenue Seattle 98121,Restaurants
Purple Cafe and Wine Bar - Seattle,-122.3349071,47.6079644,1225 4th Avenue Seattle 98121,Restaurants
The Alley Korean Restaurant,-122.313397,47.6577128,4129 University Way Northeast Seattle 98105,Restaurants
The BoB,-122.313395,47.657773,4131 University Way Northeast Seattle 98105,Restaurants
IJ Sushi Burrito,-122.31338,47.658038,4139 University Way Northeast Seattle 98105,Restaurants
U Dupbop,-122.3127908,47.6575019,4124 University Way Northeast Seattle 98105,Restaurants
Chili's South Indian Cousine,-122.313007,47.6589834,4220 University Way Northeast Seattle 98105,Restaurants
Sultan Gyro Grill,-122.3130072,47.6590377,4222 University Way Northeast Seattle 98105,Restaurants
Thanh Vi,-122.3130437,47.6591332,4226 University Way Northeast Seattle 98105,Restaurants
Thai-ger Place,-122.3130233,47.6591998,4228 University Way Northeast Seattle 98105,Restaurants
Noodle Nation,-122.3129962,47.6592487,4232 University Way Northeast Seattle 98105,Restaurants
A Burger Place,-122.313034,47.6592986,4234 University Way Northeast Seattle 98105,Restaurants
Little Water Cantina,-122.3249051,47.6471891,2865 Eastlake Avenue East 98102,Restaurants
Cicchetti,-122.3261136,47.6381408,121 East Boston Street 98102,Restaurants
Texians BBQ,-122.3129432,47.6620217,4520 University Way Northeast Seattle 98105,Restaurants
Chi Mac,-122.3133049,47.6620626,4525 University Way Northeast Seattle 98105,Restaurants
Palmi Korean BBQ,-122.3129273,47.6624429,4538 University Way Northeast Seattle 98105,Restaurants
Arepa Venezuelan Kitchen,-122.3126845,47.6648014,1405 Northeast 50th Street Seattle 98105,Restaurants
Maggi Point,-122.3129333,47.6641925,4736 University Way Northeast Seattle 98105,Restaurants
Mr Lu’s Burgers And Seafood,-122.3129392,47.664635,4752 University Way Northeast Seattle 98105,Restaurants
Ku Sushi and Izakaya,-122.3128292,47.6667674,5210 University Way Northeast Seattle 98105,Restaurants
Village Sushi,-122.3132577,47.6668432,5211 University Way Northeast Seattle 98105,Restaurants
Shawarma King,-122.3132962,47.6676256,5241 University Way Northeast Seattle 98105,Restaurants
Xi'an Noodles,-122.3132099,47.6681582,5259 University Way Northeast Seattle 98105,Restaurants
Pizza Pi Vegan Pizzeria,-122.317558,47.6672295,5301 Roosevelt Way Northeast Seattle 98105,Restaurants
Stone Korean,-122.342096,47.6272954,900 Dexter Avenue North Seattle 98109,Restaurants
Thai On 1,-122.3526703,47.6171976,2904 1st Avenue Seattle 98121,Restaurants
Tandoori Hut,-122.349176,47.6163355,2616 2nd Avenue Seattle 98121,Restaurants
Pho Viet Anh,-122.3471212,47.6181982,2621 5th Avenue Seattle 98121,Restaurants
Bambino's,-122.3477283,47.6178325,401 Cedar Street Seattle 98121,Restaurants
Wa'z,-122.3475193,47.6179973,411 Cedar Street Seattle 98121,Restaurants
Golden Singha,-122.3471963,47.6182373,425 Cedar Street Seattle 98121,Restaurants
Black Bottle,-122.3497037,47.6154608,2600 1st Avenue Seattle 98121,Restaurants
Imperial Lounge,-122.3477997,47.6143664,2400 1st Avenue Seattle 98121,Restaurants
Shiro's Sushi,-122.3472959,47.6147974,2401 2nd Avenue Seattle 98121,Restaurants
Doner Box,-122.3476204,47.6149743,2421 2nd Avenue Seattle 98121,Restaurants
Karaage Setsuna,-122.3478678,47.6151228,2429 2nd Avenue Seattle 98121,Restaurants
A-Pizza Mart,-122.3453892,47.6183709,2525 6th Avenue Seattle 98121,Restaurants
Marrakesh,-122.3466632,47.6148335,2334 2nd Avenue Seattle 98121,Restaurants
Al Basha,-122.3466219,47.6136323,2302 1st Avenue Seattle 98121,Restaurants
The Grill from Ipanema,-122.3470224,47.6134778,2313 1st Avenue Seattle 98121,Restaurants
Bangrak Market,-122.3465048,47.6143274,2319 2nd Avenue Seattle 98121,Restaurants
Buckley's,-122.3469171,47.6145851,2331 2nd Avenue Seattle 98121,Restaurants
La Fontana,-122.3447495,47.6131456,120 Blanchard Street Seattle 98121,Restaurants
Pineapple Bistro and Bar,-122.3417675,47.6154838,2200 5th Avenue Seattle 98121,Restaurants
Boca Restaurant at Queen City Grill,-122.3454935,47.6125785,2201 1st Avenue Seattle 98121,Restaurants
Villa Escondida,-122.3456185,47.6126388,2203 1st Avenue Seattle 98121,Restaurants
Kanak,-122.3432264,47.6147395,2211 4th Avenue Seattle 98121,Restaurants
List,-122.345985,47.613259,2226 1st Avenue Seattle 98121,Restaurants
Umi Sake House,-122.346055,47.613295,2230 1st Avenue Seattle 98121,Restaurants
Local Pho,-122.344391,47.6146748,2230 3rd Avenue Seattle 98121,Restaurants
Korean Bamboo,-122.344501,47.6147308,2236 3rd Avenue Seattle 98121,Restaurants
Spiceup Szechuan Cuisine,-122.3443824,47.6148403,305 Bell Street Seattle 98121,Restaurants
Palace Ballroom,-122.3404884,47.6147075,2100 5th Avenue Seattle 98121,Restaurants
Willmott’s Ghost,-122.3396249,47.6153914,2100 6th Avenue 98121,Restaurants
2120,-122.3403323,47.6158005,2120 6th Avenue Seattle 98121,Restaurants
The Butcher's Table,-122.3385311,47.6175425,2121 Westlake Avenue Seattle 98121,Restaurants
Lady Yum - Amazon Seattle Campus,-122.3406162,47.6159552,2130 6th Avenue Seattle 98121,Restaurants
Bento World Sushi & Teryaki,-122.342044,47.6134829,306 Lenora Street Seattle 98121,Restaurants
Assaggio Ristorante,-122.3403218,47.6134273,2010 4th Avenue Seattle 98121,Restaurants
Palace Kitchen,-122.340174,47.6145241,2030 5th Avenue Seattle 98121,Restaurants
Serious Pie,-122.3404945,47.612903,316 Virginia Street Seattle 98101,Restaurants
Phở Bắc,-122.3372433,47.6147655,1923 7th Avenue Seattle 98101,Restaurants
Barolo Ristorante,-122.3374592,47.6145988,1940 Westlake Avenue Seattle 98101,Restaurants
Miller's Guild,-122.3366353,47.6141226,612 Stewart Street Seattle 98101,Restaurants
Midori Teriyaki,-122.3309196,47.6167589,1120 Howell Street Seattle 98101,Restaurants
Pho Bac,-122.3310274,47.6169641,1809 Minor Avenue Seattle 98101,Restaurants
Zane+Wylie's Seattle Steakhouse,-122.3354441,47.6136139,624 Olive Way Seattle 98101,Restaurants
A Pizza Mart - Stewart,-122.333539,47.6160673,925 Stewart Street Seattle 98101,Restaurants
Mi Fondita Del Itsmo,-122.3150838,47.5266049,8525 14th Avenue South Seattle 98108,Restaurants
Uncle Eddie’s South Park,-122.315113,47.5263167,8601 14th Avenue South Seattle 98108,Restaurants
South Town Pie,-122.3151064,47.5260598,8611 14th Avenue South Seattle 98108,Restaurants
Loretta’s Northwesterner,-122.3151259,47.5258713,8617 14th Avenue South Seattle 98108,Restaurants
Miss Phở,-122.3627109,47.7022928,10023 Holman Road Northwest Seattle 98177,Restaurants
Texas Style Smoked BBQ,-122.3559668,47.7044174,10410 Holman Road North Seattle 98133,Restaurants
pik-n-move,-122.3446906,47.6845936,7617 Aurora Avenue North Seattle 98103,Restaurants
Hangry Panda,-122.3447158,47.6859691,7815 Aurora Avenue North Seattle 98103,Restaurants
Corner 79 Thai Cuisine,-122.3447261,47.6861192,7821 Aurora Avenue North Seattle 98103,Restaurants
Patty's Eggnest,-122.3645264,47.7013776,9749 Holman Road Northwest Seattle 98117,Restaurants
,-122.3450845,47.7007163,9801 Aurora Avenue North Seattle 98103,Restaurants
Manna Teriyaki,-122.3450912,47.7007994,9831 Aurora Avenue North Seattle 98103,Restaurants
Issian,-122.3382597,47.6615057,1618 North 45th Street Seattle 98103,Restaurants
Cactus - Madison Park,-122.2777312,47.6361701,4220 East Madison Street Seattle 98112,Restaurants
The Independent,-122.2773323,47.636046,4235 East Madison Street ,Restaurants
Nishino,-122.2917651,47.6268447,,Restaurants
Voila Bistrot,-122.2958876,47.6235381,2805 East Madison Street Seattle 98112,Restaurants
Cafe Flora,-122.2952091,47.6239702,2901 East Madison Street Seattle 98112,Restaurants
Bamboo Thai Cuisine,-122.2786721,47.6358478,1841 42nd Avenue East Seattle 98112,Restaurants
Hanok,-122.280351,47.6338856,4021 East Madison Street Seattle 98112,Restaurants
Madison Kitchen,-122.278868,47.635405,4122 East Madison Street Seattle 98112,Restaurants
Peel & Press,-122.38742,47.5446407,6503 California Avenue Southwest Seattle 98136,Restaurants
Bistro Turkuaz,-122.289151,47.6121496,1114 34th Avenue Seattle 98122,Restaurants
Café Soleil,-122.289161,47.6129956,1400 34th Avenue Seattle 98122,Restaurants
Naam Thai,-122.289161,47.6130953,1404 34th Avenue Seattle 98122,Restaurants
Jackalope Tex-Mex & Cantina,-122.2849482,47.5580652,4868 Rainier Avenue South Seattle 98118,Restaurants
La Medusa,-122.2855677,47.5584666,4857 Rainier Avenue South Seattle 98118,Restaurants
Island Soul,-122.2854077,47.5581234,4869 Rainier Avenue South Seattle 98118,Restaurants
Seattle Fish Company,-122.3870018,47.5636937,4435 California Avenue Southwest 98116,Restaurants
Dué Cucina,-122.3870027,47.5636165,4437 California Avenue Southwest Seattle 98116,Restaurants
Frank's Oyster House,-122.2987591,47.6686382,2616 Northeast 55th Street Seattle 98105,Restaurants
The Melting Pot,-122.3561265,47.624952,14 Mercer Street Seattle 98109,Restaurants
Hudson,-122.33857,47.5572665,5000 East Marginal Way South Seattle 98134,Restaurants
Nine Pies Pizzeria,-122.335205,47.5679519,3861 1st Avenue South Seattle 98134,Restaurants
Teriyaki Plus,-122.3228984,47.5679203,4001 Airport Way South Seattle 98108,Restaurants
Sodo Pizza,-122.323188,47.5728531,3429 Airport Way South Seattle 98134,Restaurants
Cafe Con Leche,-122.334467,47.577551,2901 1st Avenue South Seattle 98134,Restaurants
SoDo Poké,-122.333959,47.5811287,2420 1st Avenue South Seattle 98134,Restaurants
Hatback Bar & Grille,-122.33477,47.5920086,1201 1st Avenue South Seattle 98134,Restaurants
Pizza Professionals,-122.3326507,47.6014065,108 Occidental Avenue South Seattle 98104,Restaurants
I Heart Sushi,-122.3332514,47.6015963,111 Yesler Way Seattle 98104,Restaurants
Casco Antiguo,-122.333102,47.6011844,115 Occidental Avenue South Seattle 98104,Restaurants
Box House Saloon,-122.3331484,47.6010034,124 South Washington Street Seattle 98104,Restaurants
Tats Delicatessen,-122.332352,47.601597,159 Yesler Way Seattle 98104,Restaurants
Asia Ginger Teriyaki,-122.331795,47.6005131,209 2nd Avenue South Seattle 98104,Restaurants
Luigi’s,-122.3343967,47.6004013,211 1st Avenue South Seattle 98104,Restaurants
Planet Java Diner,-122.3353248,47.6009985,72 South Washington Street Seattle 98104,Restaurants
Julie's Garden,-122.3351252,47.6016153,81 Yesler Way Seattle 98104,Restaurants
Bisato,-122.3350847,47.6018664,84 Yesler Way Seattle 98104,Restaurants
Commissary Korean Kitchen,-122.3314135,47.602498,521 3rd Avenue Seattle 98104,Restaurants
The Bistro,-122.3328959,47.6029946,626 2nd Avenue Seattle 98104,Restaurants
Carmine Intermezzo,-122.334414,47.598848,409 1st Avenue South Seattle 98104,Restaurants
Sea Crab House,-122.3319039,47.598428,166 South King Street Seattle 98104,Restaurants
Elysian Fields,-122.333929,47.5969985,542 1st Avenue South Seattle 98104,Restaurants
Elliott's Oyster House,-122.3402739,47.6053456,1201 Alaskan Way Seattle ,Restaurants
Allure/Ibiza,-122.332192,47.6022402,528 2nd Avenue South Seattle 98104,Restaurants
Cashew,-122.3568463,47.6238412,517 Queen Anne Avenue North Seattle 98109,Restaurants
Al Boccalino,-122.3357382,47.6015874,1 Yesler Way Seattle 98104,Restaurants
Flying Squirrel Pizza,-122.2710127,47.5642671,4920 South Genesee Street Seattle 98118,Restaurants
Mama Sambusa Kitchen,-122.269769,47.528966,8300 Rainier Avenue South Seattle 98118,Restaurants
Mama Sambusa Kitchen,-122.269342,47.529321,8306 1/2;8306 Wabash Avenue South Seattle 98118,Restaurants
Rainier Restaurant,-122.284665,47.5451583,6400 Martin Luther King Junior Way South Seattle 98118,Restaurants
Corte Fino,-122.2839755,47.5418934,6721 Martin Luther King Junior Way South Seattle 98118,Restaurants
Bún Bò Huế - Hoàng Lan,-122.282079,47.5383769,7119 Martin Luther King Junior Way South Seattle 98118,Restaurants
Dim Sum House,-122.303972,47.5590892,4860 Beacon Avenue South Seattle 98108,Restaurants
Buddha Bruddah,-122.3023483,47.5835291,2201 Rainier Avenue South Seattle 98144,Restaurants
Baja Bistro,-122.3141258,47.5815997,2414 Beacon Avenue South Seattle 98144,Restaurants
Bar del Corso,-122.3095482,47.5754307,3057 Beacon Avenue South Seattle 98144,Restaurants
El Quetzal,-122.3093282,47.5746781,3209 Beacon Avenue South Seattle 98144,Restaurants
Loving Hut,-122.315919,47.5993908,1226 South Jackson Street Seattle 98144,Restaurants
Med Mix,-122.302905,47.5994084,2204 South Jackson Street Seattle 98144,Restaurants
Wood Shop BBQ,-122.29925,47.5991362,2513 South Jackson Street Seattle 98144,Restaurants
Reckless Noodle House,-122.299028,47.5991314,2519 South Jackson Street Seattle 98144,Restaurants
Northwest Tofu,-122.3070658,47.5991437,1911 South Jackson Street Seattle 98144,Restaurants
Cafe Flag,-122.3098111,47.5950665,831 Hiawatha Place South Seattle 98144,Restaurants
The Harvest Vine,-122.297239,47.6225707,2701 East Madison Street Seattle 98112,Restaurants
Azuki,-122.2970133,47.6227273,2711 East Madison Street Seattle 98112,Restaurants
Zagol Ethiopian Restaurant,-122.2966719,47.6081172,2722 East Cherry Street Seattle 98122,Restaurants
Cherry Street Thai,-122.296551,47.6081179,2724 East Cherry Street Seattle 98122,Restaurants
Fat's Chicken and Waffles,-122.296447,47.6081548,2726 East Cherry Street Seattle 98122,Restaurants
Zobel,-122.3159174,47.6060688,1219 East Jefferson Street Seattle 98122,Restaurants
Soulful Dishes,-122.3087429,47.6018074,1800 East Yesler Way Seattle 98122,Restaurants
Tamarind Tree,-122.317824,47.5998449,1036 South Jackson Street Seattle 98104,Restaurants
Vietnam House,-122.3178152,47.5997653,1038 South Jackson Street Seattle 98104,Restaurants
Than Vi,-122.3176014,47.5994844,1046 South Jackson Street Seattle 98104,Restaurants
,-122.3175089,47.5994789,1048 South Jackson Street Seattle 98104,Restaurants
Dong Thap Noodles,-122.3174138,47.599906,303 12th Avenue South Seattle 98144,Restaurants
Djan's,-122.3254124,47.6614956,264 Northeast 45th Street Seattle 98105,Restaurants
Olympia Pizza III,-122.3124224,47.6238096,516 15th Avenue East Seattle 98112,Restaurants
Meliora,-122.312446,47.6242936,534 15th Avenue East Seattle 98112,Restaurants
Rocket Taco,-122.3071281,47.6245784,602 19th Avenue East Seattle 98112,Restaurants
Kamp Social House,-122.296192,47.6236568,2800 East Madison Street Seattle 98112,Restaurants
Araya's Place,-122.29634,47.6239993,2808 East Madison Street Seattle 98112,Restaurants
Smith,-122.312523,47.6215351,332 15th Avenue East Seattle 98112,Restaurants
Palermo,-122.312477,47.6219772,350 15th Avenue East Seattle 98112,Restaurants
2 Doors Down,-122.301488,47.6200605,2332 East Madison Street Seattle 98112,Restaurants
Iconiq,-122.2926214,47.5897058,1421 31st Avenue South Seattle 98144,Restaurants
Zeeks Pizza - West Seattle,-122.3874243,47.5450433,6459 California Avenue Southwest Seattle 98136,Restaurants
Pho Than Brothers,-122.3865443,47.5586399,4822 California Avenue Southwest Seattle 98116,Restaurants
Stellar Pizza & Ale,-122.3208225,47.5529619,5513 Airport Way South Seattle 98108,Restaurants
Conscious Eatery,-122.3264304,47.5519833,5620 6th Avenue South Seattle 98108,Restaurants
Bop Box,-122.3191286,47.551301,5633 Airport Way South Seattle 98108,Restaurants
Flying Squirrel Pizza,-122.3190232,47.5511915,5701 Airport Way South Seattle 98108,Restaurants
Fonda La Cantrina,-122.31781,47.5499198,5905 Airport Way South Seattle 98108,Restaurants
Via Tribunali - Georgetown,-122.3175073,47.548827,6009 12th Avenue South Seattle 98108,Restaurants
Calozzi's Cheesesteaks,-122.3225897,47.540312,7016 East Marginal Way South Seattle 98108,Restaurants
Jones Barbecue,-122.3777046,47.5642988,4417 Fauntleroy Way Southwest Seattle 98126,Restaurants
Pizzeria Credo,-122.3865638,47.5622444,4520 California Avenue Southwest Seattle 98116,Restaurants
Jak's Grill,-122.3865512,47.5614499,4548 California Avenue Southwest Seattle 98116,Restaurants
Kizuki Ramen & Izakaya - West Seattle,-122.3856953,47.5609297,4203 Southwest Alaska Street Seattle 98116,Restaurants
The Lodge Sports Grille,-122.3859111,47.5609303,4209 Southwest Alaska Street Seattle 98116,Restaurants
Haymaker,-122.3865727,47.5607275,4706 California Avenue Southwest Seattle 98116,Restaurants
Talarico's Pizzeria,-122.3865915,47.5605097,4718 California Avenue Southwest Seattle 98116,Restaurants
Falafel Salam,-122.3866107,47.5596819,4746 California Avenue Southwest Seattle 98116,Restaurants
Bang Bar,-122.3866131,47.5595706,4750 California Avenue Southwest Seattle 98116,Restaurants
Supreme,-122.387028,47.5622789,4521 California Avenue Southwest Seattle 98116,Restaurants
Lady Jaye,-122.3870295,47.5622186,4523 California Avenue Southwest Seattle 98116,Restaurants
Azuma Sushi,-122.3870027,47.5619928,4533 California Avenue Southwest Seattle 98116,Restaurants
Mashiko,-122.387012,47.5603756,4725 California Avenue Southwest Seattle 98116,Restaurants
Puerto Vallarta,-122.3869958,47.5603337,4727 California Avenue Southwest Seattle 98116,Restaurants
Lowell's,-122.3413154,47.6088303,1519 Pike Place Seattle 98101,Restaurants
Maíz,-122.342636,47.6100437,1914 Pike Place Seattle 98101,Restaurants
Cantina de San Patricio,-122.3422197,47.6103021,1914 Post Alley Seattle 98101,Restaurants
Emmett Watson's Oyster Bar,-122.342496,47.6103175,1916 Pike Place Seattle 98101,Restaurants
Kells Irish Restaurant & Bar,-122.3422879,47.6103448,1916 Post Alley Seattle 98101,Restaurants
Urara,-122.3420255,47.6099229,82 Stewart Street Seattle 98101,Restaurants
Long,-122.3407517,47.6109433,1901 2nd Avenue Seattle 98101,Restaurants
Café Campagne,-122.3415286,47.6097117,1600 Post Alley Seattle 98101,Restaurants
Chan Seattle,-122.3413973,47.6098861,86 Pine Street Seattle 98101,Restaurants
The Hart and the Hunter,-122.3405005,47.6098441,101 Pine Street Seattle 98101,Restaurants
Japonessa,-122.339037,47.6080515,1400 1st Avenue Seattle 98101,Restaurants
Genghis Khan Chinese Restaurant,-122.3394193,47.6084544,1422 1st Avenue Seattle 98101,Restaurants
Bottega Italiana,-122.339914,47.6084639,1425 1st Avenue Seattle 98101,Restaurants
La Vaca,-122.3399912,47.6085532,1429 1st Avenue Seattle 98101,Restaurants
Saffron Spice,-122.3402705,47.6085956,93 Pike Street Seattle 98101,Restaurants
Falafel King,-122.3404972,47.6090915,1509 1st Avenue Seattle 98101,Restaurants
Mr. D's Greek Delicacies,-122.3412217,47.6092152,1518 Pike Place Seattle 98101,Restaurants
El Borracho,-122.340694,47.6093089,1521 1st Avenue Seattle 98101,Restaurants
Pike Place Bar & Grill,-122.3407242,47.6089486,90 Pike Street Seattle 98101,Restaurants
Sam's Tavern,-122.3393993,47.6222986,400 9th Avenue North Seattle 98109,Restaurants
Plantiful Superfoods,-122.338192,47.6214897,340 Westlake Avenue North Seattle 98109,Restaurants
Homegrown,-122.3382595,47.620118,208 Westlake Avenue North Seattle 98109,Restaurants
Sushi Katsu-ya,-122.338233,47.6193834,122 Westlake Avenue North Seattle 98109,Restaurants
Sal Y Limón,-122.3562533,47.624695,10 Mercer Street Seattle 98109,Restaurants
Racha Thai,-122.3561364,47.624696,12 Mercer Street Seattle 98109,Restaurants
Maroun Mediterranean Grill,-122.349233,47.6255426,366 Roy Street Seattle 98109,Restaurants
Pho Viet Anh,-122.3491266,47.6255883,372 Roy Street Seattle 98109,Restaurants
Shiki,-122.357142,47.6258103,4 West Roy Street Seattle 98119,Restaurants
Laredo's,-122.3460417,47.6270173,555 Aloha Street Seattle 98109,Restaurants
Toulouse Petit,-122.3568682,47.6247045,601 Queen Anne Avenue North Seattle 98109,Restaurants
Plaza Garibaldi,-122.3556461,47.6194873,129 1st Avenue North Seattle 98109,Restaurants
The Golden Olive,-122.3568452,47.6239597,521 Queen Anne Avenue North Seattle 98109,Restaurants
Athina Grill,-122.356588,47.6241617,528 Queen Anne Avenue North Seattle 98109,Restaurants
Roti,-122.356591,47.6242677,530 Queen Anne Avenue North Seattle 98109,Restaurants
,-122.35659,47.624301,532 Queen Anne Avenue North Seattle 98109,Restaurants
Dos Chamucos,-122.356572,47.6244656,550 Queen Anne Avenue North Seattle 98109,Restaurants
Agave Cocina & Tequilas - Seattle,-122.3552244,47.6233699,100 Republican Street Seattle 98109,Restaurants
Tyger Tyger,-122.3546806,47.6233635,114 Republican Street Seattle 98109,Restaurants
Taylor Shellfish Farms,-122.3544054,47.6234367,124 Republican Street Seattle 98109,Restaurants
Moontree Sushi and Tapas,-122.3552544,47.6238464,516 1st Avenue North Seattle 98109,Restaurants
Côba,-122.3552673,47.6241318,530 1st Avenue North Seattle 98109,Restaurants
mkt.,-122.333408,47.6688088,2108 North 55th Street Seattle 98103,Restaurants
Ruth's Chris Steak House,-122.333169,47.612817,727 Pine Street Seattle 98101,Restaurants
Daawat Grill & Bar,-122.33146,47.6125994,820 Pike Street Seattle 98101,Restaurants
Cortina,-122.3327365,47.6103382,621 Union Street Seattle 98101,Restaurants
The Capital Grille,-122.3351896,47.6082635,1301 4th Avenue Seattle 98101,Restaurants
Harbor Cafe,-122.3361863,47.6093694,1411 4th Avenue Seattle 98101,Restaurants
Bourbon Steak,-122.3367766,47.609997,1433 4th Avenue Seattle 98101,Restaurants
Miki Yaki,-122.3386589,47.6103545,1525 3rd Avenue Seattle 98101,Restaurants
Noi Thai Cuisine,-122.338986,47.6066383,1303 1st Avenue Seattle 98101,Restaurants
Poke Lover,-122.3386482,47.6070516,1307 1st Avenue Seattle 98101,Restaurants
Wild Ginger - Seattle,-122.3371955,47.6087816,1401 3rd Avenue Seattle 98101,Restaurants
Spice King,-122.3381675,47.6094359,213 Pike Street Seattle 98101,Restaurants
The Lodge Sports Grille,-122.3335699,47.6070851,1102 4th Avenue Seattle 98101,Restaurants
Skalka,-122.337683,47.604934,77 Spring Street Seattle 98104,Restaurants
Nijo Sushi Bar & Grill,-122.3375401,47.6049876,83 Spring Street Seattle 98104,Restaurants
Metropolitan Grill,-122.3341892,47.6044256,820 2nd Avenue Seattle 98104,Restaurants
Ferry Noodle House,-122.3358755,47.6037242,93 Marion Street Seattle 98104,Restaurants
Bibim Bap,-122.3358006,47.6037539,95 Marion Street Seattle 98104,Restaurants
Mandarin Gate,-122.343802,47.7016442,10000 Aurora Avenue North Seattle 98133,Restaurants
Vieng Thong,-122.295895,47.5776968,2820 Martin Luther King Junior Way South Seattle 98144,Restaurants
Magic Dragon,-122.288067,47.5682093,3820 Rainier Avenue South Seattle 98118,Restaurants
Lola,-122.3400327,47.6132567,2000 4th Avenue Seattle 98121,Restaurants
Serious Pie,-122.340342,47.6130272,2001 4th Avenue Seattle 98101,Restaurants
Gordito's Healthy Mexican Food,-122.355918,47.6904868,213 North 85th Street Seattle 98103,Restaurants
Pizzeria La Rocca,-122.355105,47.6901039,8404 Greenwood Avenue North Seattle 98103,Restaurants
Flintcreek Cattle Co.,-122.3555215,47.6904561,8421 Greenwood Avenue North Seattle 98103,Restaurants
The Olive and Grape,-122.3551243,47.6908745,8516 Greenwood Avenue North Seattle 98103,Restaurants
Baranof,-122.3555689,47.6918029,8549 Greenwood Avenue North Seattle 98103,Restaurants
Palermo,-122.382439,47.6685045,2005 Northwest Market Street 98107,Restaurants
Secret Savory,-122.385403,47.6685077,2213 Northwest Market Street Seattle 98107,Restaurants
India Bistro,-122.3864174,47.6685284,2301 Northwest Market Street Seattle 98107,Restaurants
Pestle Rock,-122.3865089,47.6685289,2305 Northwest Market Street Seattle 98107,Restaurants
Matador,-122.3851867,47.6680399,5410 Ballard Avenue Northwest Seattle 98107,Restaurants
Vera's Pizza & Bar,-122.3849118,47.6683926,5417 22nd Avenue Northwest Seattle 98107,Restaurants
Ballard Smokeshop Restaurant & Lounge,-122.3861758,47.6683592,5439 Ballard Avenue Northwest Seattle 98107,Restaurants
Cornelly,-122.325473,47.6244717,601 Summit Avenue East Seattle 98102,Restaurants
Shawarma Time,-122.3823124,47.6683596,5407 20th Avenue Northwest Seattle 98107,Restaurants
Cafe Ibex,-122.297452,47.5742572,3219 Martin Luther King Junior Way South Seattle 98144,Restaurants
Lil Red's Takeout & Catering,-122.2886978,47.5648964,4225 Rainier Avenue South Seattle 98118,Restaurants
Tagla Cafe,-122.2882528,47.56356,4423 Rainier Avenue South Seattle 98118,Restaurants
Off Alley,-122.2851411,47.5576611,4903 1/2 Rainier Avenue South Seattle 98118,Restaurants
Kezira Eritrean & Ethiopian Restaurant,-122.2833254,47.5561339,5100 Rainier Avenue South Seattle 98118,Restaurants
Emma's BBQ,-122.2804642,47.5535399,5303 Rainier Avenue South Seattle 98118,Restaurants
Archipelago,-122.2782189,47.5516932,5607 Rainier Avenue South Seattle 98118,Restaurants
Dini Halal Restaurant,-122.2773388,47.5496208,5901 Rainier Avenue South Seattle 98118,Restaurants
Canton Noodle House,-122.285967,47.5475922,6008 Martin Luther King Junior Way South Seattle 98118,Restaurants
Thanh Thảo,-122.285768,47.547584,6012 Martin Luther King Junior Way South Seattle 98118,Restaurants
Pinkaew,-122.300839,47.6677654,5101 25th Avenue Northeast 98105,Restaurants
Mamma Melina,-122.3008401,47.6664704,5101 25th Avenue Northeast 98105,Restaurants
Tian Fu,-122.32564,47.7088126,300 Northeast Northgate Way Seattle 98125,Restaurants
Don Lucho’s,-122.317727,47.6866278,7919 Roosevelt Way Northeast Seattle 98115,Restaurants
Yes Siam Thai Cafe & Bar,-122.3119945,47.6871381,8014 15th Avenue Northeast Seattle 98115,Restaurants
Señor Villa,-122.311524,47.6877924,8064 Lake City Way Northeast Seattle 98115,Restaurants
Due Cucina,-122.3155089,47.6756922,1201 Northeast 65th Street Seattle 98115,Restaurants
An Nam Pho,-122.3171837,47.676234,6510 Roosevelt Way Northeast Seattle 98115,Restaurants
Tenoch Mexican Grill,-122.3274864,47.6005698,208 5th Avenue South Seattle 98104,Restaurants
Maneki,-122.3261385,47.5997484,304 6th Avenue South Seattle 98104,Restaurants
Chengdu Memory,-122.3267361,47.5994006,520 South Jackson Street Seattle 98104,Restaurants
Izakaya Shocho Bar,-122.3258497,47.599351,610 South Jackson Street Seattle 98104,Restaurants
Thai Curry Simple,-122.3275047,47.5988932,406 5th Avenue South Seattle 98104,Restaurants
Phó Ba,-122.323968,47.5987405,415 7th Avenue South Seattle 98104,Restaurants
Pacific Cafe Hong Kong Kitchen,-122.3275099,47.5986465,416 5th Avenue South Seattle 98104,Restaurants
Green Leaf,-122.3222896,47.5985994,418 8th Avenue South Seattle 98104,Restaurants
Mike's Noodle House,-122.3248721,47.5985938,418 Maynard Avenue South Seattle 98104,Restaurants
A+ Kitchen,-122.3265321,47.5985406,419 6th Avenue South Seattle 98104,Restaurants
Szechuan Noodle Bowl,-122.3222888,47.5985173,420 8th Avenue South Seattle 98104,Restaurants
Jade Garden Restaurant,-122.323587,47.5984709,424 7th Avenue South Seattle 98104,Restaurants
Fortune Garden,-122.324883,47.5984903,424 Maynard Avenue South Seattle 98104,Restaurants
Joe's Bar And Grill,-122.3275111,47.5984737,500 South King Street Seattle 98104,Restaurants
Chung Chun Rice Dog,-122.327443,47.5984743,502 South King Street Seattle 98104,Restaurants
Dough Zone Dumpling House,-122.327514,47.5981613,504 5th Avenue South Seattle 98104,Restaurants
Ping's Dumpling House & Market,-122.3272008,47.5984754,510 South King Street Seattle 98104,Restaurants
Hong Kong Bistro,-122.325236,47.5979742,511 Maynard Avenue South Seattle 98104,Restaurants
Musashi's,-122.3271514,47.5984734,512 South King Street Seattle 98104,Restaurants
Purple Dot Cafe,-122.325228,47.5978218,515 Maynard Avenue South Seattle 98104,Restaurants
Gangnam Korean Restaurant & Catering,-122.326193,47.5978357,516 6th Avenue South Seattle 98104,Restaurants
Bun,-122.3235819,47.5978531,516 7th Avenue South Seattle 98104,Restaurants
Honey Court Seafood Restaurant,-122.324854,47.5978114,516 Maynard Avenue South Seattle 98104,Restaurants
Henry's Taiwan Kitchen,-122.3266587,47.5984632,522 South King Street Seattle 98104,Restaurants
Shanghai Garden Restaurant,-122.3261863,47.5976364,524 6th Avenue South Seattle 98104,Restaurants
H Bistro,-122.3260295,47.5976335,606 South Weller Street Seattle 98104,Restaurants
Canton Wonton House,-122.3259031,47.5976332,608 South Weller Street Seattle 98104,Restaurants
King Noodle,-122.325641,47.598251,615 South King Street Seattle 98104,Restaurants
Dim Sum King,-122.3255837,47.599033,617 South Jackson Street Seattle 98104,Restaurants
Phở Hòa,-122.3255237,47.5976337,618 South Weller Street Seattle 98104,Restaurants
goPoké,-122.3252572,47.5982459,625 South King Street Seattle 98104,Restaurants
À Châu,-122.324689,47.5990209,655 South Jackson Street Seattle 98104,Restaurants
Tai Tung Restaurant,-122.3247951,47.5982365,655 South King Street Seattle 98104,Restaurants
Kau Kau Barbecue,-122.3247102,47.5984793,656 South King Street Seattle 98104,Restaurants
Homestyle Dim Sum,-122.324324,47.5976282,664 South Weller Street Seattle 98104,Restaurants
Ton Kiang BBQ Noodle House,-122.324158,47.5976273,668 South Weller Street Seattle 98104,Restaurants
Gan Bei,-122.3240809,47.5976268,670 South Weller Street Seattle 98104,Restaurants
World Pizza,-122.3241645,47.5984892,672 South King Street Seattle 98104,Restaurants
J Sushi,-122.3239265,47.597626,674 South Weller Street Seattle 98104,Restaurants
Harbor City,-122.3233488,47.5982363,707 South King Street Seattle 98104,Restaurants
Fortuna Cafe,-122.3231892,47.598235,711 South King Street Seattle 98104,Restaurants
Ocean Star Seafood Restaurant,-122.3242035,47.5973447,605 7th Avenue South Seattle 98104,Restaurants
Bush Garden,-122.3248941,47.5970239,614 Maynard Avenue South Seattle 98104,Restaurants
Ho Ho Seafood,-122.324824,47.5973974,653 South Weller Street Seattle 98104,Restaurants
663 Bistro,-122.3244966,47.5974028,663 South Weller Street Seattle 98104,Restaurants
Gourmet Noodle Bowl,-122.3226676,47.5963306,707 8th Avenue South Seattle 98104,Restaurants
Happy Times Bistro,-122.3222686,47.5964772,710 8th Avenue South Seattle 98104,Restaurants
Crawfish King,-122.3226836,47.5965098,725 South Lane Street Seattle 98104,Restaurants
HardWok Café,-122.3167956,47.5990143,1209 South Jackson Street Seattle 98144,Restaurants
Bun & Oc,-122.3139293,47.5984764,1306 South King Street Seattle 98144,Restaurants
One Pot Korean Stew,-122.3170592,47.5980586,506 12th Avenue South Seattle 98144,Restaurants
Humble Pie,-122.313155,47.5976307,525 Rainier Avenue South Seattle 98144,Restaurants
Ivar's Acres of Clams,-122.339058,47.6039951,1001 Alaskan Way Seattle ,Restaurants
Copper Coin,-122.3867171,47.5821486,2329 California Avenue Southwest Seattle 98116,Restaurants
New Leaf Bistro,-122.3862081,47.5817289,2342 California Avenue Southwest Seattle 98116,Restaurants
Soprano Antico,-122.3862169,47.58154,2348 California Avenue Southwest Seattle 98116,Restaurants
Irashai Japanese Restaurant,-122.3862323,47.5814601,2352 California Avenue Southwest Seattle 98116,Restaurants
Pizzeria 22,-122.3858917,47.5828825,4213 Southwest College Street Seattle 98116,Restaurants
Drae's Lake Route,-122.2617922,47.5198013,9261 57th Avenue South Seattle 98118,Restaurants
Rainier Crawfish,-122.263217,47.5199213,9447 Rainier Avenue South Seattle 98118,Restaurants
Toshi's Teriyaki,-122.3655581,47.5225279,9029 25th Avenue Southwest Seattle 98106,Restaurants
Young's Restaurant,-122.3553714,47.5187113,9413 16th Avenue Southwest Seattle 98106,Restaurants
Tengu Sushi,-122.325146,47.7022635,311 Northeast Thornton Place Seattle 98125,Restaurants
Kizuki Ramen & Izakaya - Northgate,-122.3247288,47.702336,319 Northeast Thornton Place Seattle 98125,Restaurants
Thai Fusion Bistro,-122.324434,47.7025685,323 Northeast Thornton Place Seattle 98125,Restaurants
Great State Burger - Laurelhurst,-122.2886113,47.6613226,3600 Northeast 45th Street Seattle 98105,Restaurants
Yummy Café,-122.2842261,47.6686794,4008 Northeast 55th Street Seattle 98105,Restaurants
El Camión Laurelhurst Truck,-122.287362,47.6615573,4529 Sand Point Way Northeast Seattle 98105,Restaurants
Cafe Banh Mi,-122.3328964,47.7073151,10700 Meridian Avenue North Seattle 98133,Restaurants
El Patio,-122.344342,47.6999979,9710 Aurora Avenue North Seattle 98103,Restaurants
Enat Ethiopian Restaurant,-122.3121628,47.7134864,11546 15th Avenue Northeast Seattle 98125,Restaurants
El Parche Colombiano,-122.3121815,47.7153541,11740 15th Avenue Northeast Seattle 98125,Restaurants
Thai One On,-122.29588,47.7186757,12343 Lake City Way Northeast Seattle 98125,Restaurants
The Counter,-122.3116352,47.6756629,1505 Northeast 65th Street Seattle 98115,Restaurants
Zeeks Pizza - Ravenna,-122.3047966,47.6759104,2108 Northeast 65th Street Seattle 98115,Restaurants
JuneBaby,-122.304101,47.6759086,2122 Northeast 65th Street Seattle 98115,Restaurants
Cafe da Pino,-122.3040237,47.6756743,2207 Northeast 65th Street Seattle 98115,Restaurants
Harissa,-122.30341,47.6756728,2255 Northeast 65th Street Seattle 98115,Restaurants
Wataru,-122.3014961,47.6759647,2400 Northeast 65th Street Seattle 98115,Restaurants
Kricket Club,-122.3013838,47.6758846,2404 Northeast 65th Street Seattle 98115,Restaurants
Eureka!,-122.2990851,47.6618823,2614 Northeast 46th Street Seattle 98105,Restaurants
Delfino's Pizza,-122.298823,47.662684,2631 Northeast University Village Street Seattle 98105,Restaurants
Bamboo Sushi,-122.298453,47.6620735,2675 Northeast Village Lane Seattle 98105,Restaurants
Queen Mary Tea Room,-122.2955921,47.6686231,2912 Northeast 55th Street Seattle 98105,Restaurants
Burgermaster,-122.293932,47.661579,3040 Northeast 45th Street Seattle 98105,Restaurants
La Villa,-122.2909064,47.6686247,3410 Northeast 55th Street Seattle 98105,Restaurants
Pair,-122.295215,47.6686357,5501 30th Avenue Northeast Seattle 98105,Restaurants
Delancey,-122.3748134,47.6794479,1415 Northwest 70th Street Seattle 98117,Restaurants
Tarasco,-122.3748337,47.6796524,7001 Alonzo Avenue Northwest Seattle 98117,Restaurants
The Breakfast Club,-122.2957943,47.7177483,12306 Lake City Way Northeast Seattle 98125,Restaurants
Diamond Bar & Restaurant,-122.295695,47.7180587,12322 Lake City Way Northeast Seattle 98125,Restaurants
Chawlas 2,-122.29355,47.7216637,12716 Lake City Way Northeast Seattle 98125,Restaurants
Senait Restaurant,-122.2943606,47.7194189,3114 Northeast 125th Street Seattle 98125,Restaurants
Mura Asian Eatery,-122.3991767,47.6401131,3216 West Wheeler Street Seattle 98199,Restaurants
Yume Sushi,-122.3991557,47.6394165,3217 West McGraw Street Seattle 98199,Restaurants
Time 4 Pho,-122.3823871,47.6454149,2812 Thorndyke Avenue West Seattle 98199,Restaurants
Americano,-122.3826051,47.6452134,2818 Thorndyke Avenue West Seattle 98199,Restaurants
Tangerine Thai,-122.3541849,47.6722132,5914 Phinney Avenue North Seattle 98103,Restaurants
Chef Liao,-122.3541709,47.6729217,6012 Phinney Avenue North Seattle 98103,Restaurants
Arc Restaurant & Lounge,-122.3541714,47.6736166,6114 Phinney Avenue North Seattle 98103,Restaurants
Joli,-122.3643836,47.6760971,618 Northwest 65th Street Seattle 98117,Restaurants
El Chupacabra,-122.3555686,47.6781419,6711 Greenwood Avenue North Seattle 98103,Restaurants
Barking Dog Alehouse,-122.364783,47.6794438,705 Northwest 70th Street Seattle 98117,Restaurants
Ridge,-122.3554885,47.6812828,7217 Greenwood Avenue North Seattle 98103,Restaurants
Cornuto,-122.3551089,47.6827682,7404 Greenwood Avenue North Seattle 98103,Restaurants
The Chicken Supply,-122.3551054,47.6828712,7410 Greenwood Avenue North Seattle 98103,Restaurants
Yanni's Greek Cuisine,-122.3554868,47.683085,7419 Greenwood Avenue North Seattle 98103,Restaurants
65th Street Café & Restaurant,-122.3252848,47.6757995,301 Northeast 65th Street Seattle 98115,Restaurants
Mykonos Greek Grill,-122.3252926,47.6805121,310 Northeast 72nd Street Seattle 98115,Restaurants
Nell's,-122.3278828,47.6781419,6804 East Green Lake Way North Seattle 98115,Restaurants
Da Long Yi Hot Pot,-122.3248304,47.6803423,7119 Woodlawn Avenue Northeast Seattle 98115,Restaurants
Greenlake Grill,-122.3256882,47.6804464,7200 East Green Lake Drive North Seattle 98115,Restaurants
Rosita's Mexican Grill,-122.3246992,47.6808177,7210 Woodlawn Avenue Northeast Seattle 98115,Restaurants
Chuan BBQ,-122.3442855,47.6853042,7714 Aurora Avenue North Seattle 98103,Restaurants
Pho Than Brothers,-122.3442802,47.6856506,7800 Aurora Avenue North Seattle 98103,Restaurants
Damoori Kitchen,-122.397739,47.659881,3101 West Jameson Street Seattle 98199,Restaurants
Teriyaki Bowl,-122.3892433,47.6577752,4207 Gilman Avenue West Seattle 98199,Restaurants
Katina's Kitchen,-122.3894123,47.6579198,4215 Gilman Avenue West Seattle 98199,Restaurants
Kona Kitchen,-122.323192,47.6905365,8501 5th Avenue Northeast Seattle 98115,Restaurants
Varlamos Pizzeria,-122.2884327,47.6609824,3617 Northeast 45th Street Seattle 98105,Restaurants
Marlai Fine Thai Cuisine,-122.287366,47.6611288,3719 Northeast 45th Street Seattle 98105,Restaurants
Uncle Lee’s Kitchen,-122.27708,47.6682194,5408 Sand Point Way Northeast Seattle 98105,Restaurants
Sand Point Grill,-122.2768993,47.6682093,5412 Sand Point Way Northeast Seattle 98105,Restaurants
Happy Boy,-122.3133016,47.6615613,4507 University Way Northeast Seattle 98105,Restaurants
U:Don,-122.3132816,47.6617615,4515 University Way Northeast Seattle 98105,Restaurants
Memo's,-122.3132533,47.664331,4743 University Way Northeast Seattle 98105,Restaurants
Persepolis Grill,-122.313247,47.6690921,5517 University Way Northeast Seattle 98105,Restaurants
High Strike Grill,-122.3817243,47.5626365,,Restaurants
Big Max Burger Co.,-122.3571369,47.6370237,1935 Queen Anne Avenue North Seattle 98119,Restaurants
Brasserie Margaux,-122.340962,47.6139379,401 Lenora Street Seattle 98121,Restaurants
Vinason,-122.3381114,47.6176069,2134 Westlake Avenue Seattle 98121,Restaurants
BB's Teriyaki Grill,-122.338261,47.620245,210 Westlake Avenue North Seattle 98121,Restaurants
The Stables,-122.3179959,47.5497242,980 South Nebraska Street Seattle 98108,Restaurants
Arashi Ramen - Ballard,-122.382312,47.668248,5401 20th Avenue Northwest Seattle 98107,Restaurants
Local Bigger Burger,-122.326292,47.6786757,6900 East Green Lake Way North Seattle 98115,Restaurants
Shay's Restaurant & Lounge,-122.3449894,47.7448176,,Restaurants
Skillet Counter,-122.3505537,47.6211985,,Restaurants
Vista Café,-122.3132664,47.6517371,,Restaurants
Raygun Lounge,-122.3251342,47.615072,501 East Pine Street Seattle 98122,Restaurants
Tacos Chukis,-122.3214782,47.6205379,219 Broadway East Seattle 98102,Restaurants
Mee Kong Bar,-122.3470664,47.6170126,2525 4th Avenue Seattle 98121,Restaurants
Gracia,-122.3837173,47.6666366,5313 Ballard Avenue Northwest 98107,Restaurants
Joey,-122.299772,47.6616138,2603 Northeast 46th Street Seattle 98105,Restaurants
Din Tai Fung,-122.299554,47.6615873,2621 Northeast 46th Street Seattle 98105,Restaurants
Sunflower Garden,-122.3549905,47.7049603,,Restaurants
Greenwood Flame Burger,-122.3549905,47.7048953,10410 Greenwood Avenue North Seattle 98133,Restaurants
Ichi Roll Wok & Teriyaki,-122.3549008,47.7198747,306 North 125th Street Seattle 98133,Restaurants
Zeeks Pizza - Belltown,-122.3478284,47.6184647,419 Denny Way ,Restaurants
Seattle Magnolia Pizza & Pasta,-122.3845191,47.6563156,2122 West Emerson Place Seattle 98199,Restaurants
Magic Dragon,-122.301648,47.5999346,306 23rd Avenue South Seattle 98144,Restaurants
East African Imports & Restaurant,-122.3014432,47.5999303,306 23rd Avenue South Seattle 98144,Restaurants
206 Burger Company,-122.3552781,47.6483632,,Restaurants
Thaprachan,-122.3195,47.6757117,805 Northeast 65th Street 98115,Restaurants
ChuMinh Tofu & Vegan Deli,-122.317458,47.5988089,1043 South Jackson Street Seattle 98104,Restaurants
19 Gold,-122.3504629,47.6515391,3601 Fremont Avenue North Seattle 98103,Restaurants
Andaluca,-122.337685,47.612359,407 Olive Way Seattle ,Restaurants
Red Robin,-122.325154,47.7041354,401 Northeast Northgate Way ,Restaurants
Azteca,-122.3257854,47.7079996,,Restaurants
Noi Thai Cuisine,-122.336932,47.685773,7900 East Green Lake Drive North Seattle 98103,Restaurants
Seattle Wood Fired Pizza,-122.3727963,47.6303614,1300 Elliott Avenue West Seattle 98119,Restaurants
Hua Sai,-122.3020897,47.6758953,,Restaurants
Ravenna's Varsity Restaurant,-122.3025835,47.6758974,2300 Northeast 65th Street Seattle 98115,Restaurants
Yo! Zushi,-122.3205997,47.6157038,1620 Broadway Seattle 98122,Restaurants
Happy Lamb Hot Pot,-122.326107,47.597408,609 South Weller Street ,Restaurants
Sunny Teriyaki,-122.2727263,47.4857018,,Restaurants
Edgar's Cantina,-122.3326577,47.5920772,,Restaurants
Casa del Mariachi,-122.3184767,47.7185876,12327 Roosevelt Way Northeast Seattle 98125,Restaurants
Santorini Pizza & Pasta,-122.2912673,47.7085644,11001 35th Avenue Northeast Seattle 98125,Restaurants
Toast Mi,-122.324486,47.6802556,7130 Woodlawn Avenue Northeast Seattle 98115,Restaurants
Frelard Tamales,-122.3252868,47.6757088,6412 Latona Avenue Northeast Seattle 98115,Restaurants
Ba Bar,-122.2979979,47.6616353,2685 Northeast 46th Street Seattle 98105,Restaurants
Plaza Cafe,-122.3077192,47.649378,1959 Northeast Pacific Street Seattle 98195,Restaurants
Portage Bay Cafe,-122.3175829,47.6575638,4130 Roosevelt Way Northeast Seattle 98105,Restaurants
Krungthep Thai Cuisine,-122.3334125,47.4832317,,Restaurants
On the Fly,-122.3380652,47.6210216,950 Thomas Street Seattle 98109,Restaurants
Aviv Hummus Bar,-122.312901,47.6188119,107;109 15th Avenue East Seattle 98112,Restaurants
Mai's Kitchen,-122.317964,47.6126016,1150 11th Avenue Seattle 98122,Restaurants
Manao Thai,-122.3157792,47.6154249,1222 East Pine Street 98122,Restaurants
Rachel’s Ginger Beer - 12th Avenue,-122.3166654,47.6156209,1610 12th Avenue Seattle 98122,Restaurants
Pel Meni Dumpling Tzar,-122.3166744,47.6158071,1630 12th Avenue Seattle 98122,Restaurants
U:Don Fresh,-122.3166793,47.6158903,1640 12th Avenue Seattle 98122,Restaurants
Violet,-122.3167044,47.6172944,1734 12th Avenue Seattle 98122,Restaurants
Marination,-122.3383718,47.6146391,2000 6th Avenue Seattle 98121,Restaurants
Cinque Terre,-122.3380756,47.615083,2001 Westlake Avenue Seattle 98121,Restaurants
Wann Japanese Izakaya,-122.342411,47.612333,2020 2nd Avenue Seattle 98121,Restaurants
Great State Burger - Downtown,-122.338481,47.6154099,2041 7th Avenue Seattle 98121,Restaurants
King Leroy,-122.338632,47.6155601,2051 7th Avenue Seattle 98121,Restaurants
Burbs Burgers,-122.332913,47.5980979,121 South King Street Seattle 98104,Restaurants
Hiroshi's,-122.3136133,47.5804338,2521 15th Avenue South Seattle 98144,Restaurants
Chutneys Bistro,-122.3358541,47.6606304,1815 North 45th Street Seattle 98103,Restaurants
Aqua by El Gaucho,-122.3564789,47.6148444,,Restaurants
Thirsty Fish,-122.3751774,47.6951783,,Restaurants
The Rock,-122.3512854,47.6255571,,Restaurants
Zeeks Pizza - Greenlake,-122.3372901,47.6858802,7900 Green Lake Drive North ,Restaurants
Soup Daddy Soups,-122.3293495,47.5751981,3201 4th Avenue South Seattle 98134,Restaurants
Mioposto,-122.2904648,47.6686413,3426 Northeast 55th Street Seattle 98105,Restaurants
Rainier Teriyaki,-122.2936881,47.573188,,Restaurants
Thien Phat,-122.2937698,47.573288,,Restaurants
Little Chengdu,-122.2957123,47.5747549,2815 South Hanford Street ,Restaurants
Pho Hai Yen,-122.3109094,47.595436,810 Rainier Avenue South Seattle 98144,Restaurants
Taste of India,-122.3175783,47.6690385,5517 Roosevelt Way Northeast Seattle 98105,Restaurants
Bistro on Yale,-122.3297798,47.6177373,,Restaurants
Santa Fe Mexican Grill,-122.3628041,47.7009621,9747 4th Avenue Northwest Seattle 98117,Restaurants
Giddy Up,-122.3675518,47.6624234,4600 Leary Way Northwest 98107,Restaurants
The Shelter Lounge,-122.379132,47.664422, Seattle 98107,Restaurants
La Cabaña,-122.3508712,47.705176,606 North 105th Street Seattle 98133,Restaurants
Chopsticks Cuisine,-122.290682,47.6826859,7347 35th Avenue Northeast ,Restaurants
Gyro & More,-122.342511,47.6299626,1205 Dexter Avenue North Seattle 98109,Restaurants
Thai Ocean,-122.3251274,47.678306,401 Northeast Ravenna Boulevard Seattle 98115,Restaurants
O' Ginger Bistro,-122.3257462,47.6789172,6900 East Green Lake Way North Seattle 98115,Restaurants
Spice Waala,-122.312486,47.6217008,340 15th Avenue East Seattle 98112,Restaurants
L'Forno,-122.3478919,47.7233725,13000 Linden Avenue North Seattle 98133,Restaurants
Pagliacci Pizza,-122.3547441,47.7338982,,Restaurants
Thai Greenwood,-122.3560663,47.733747,,Restaurants
Teriyaki Time,-122.3560638,47.7337111,,Restaurants
Thai Golden Bowl,-122.24348,47.7295995,14130 Juanita Drive Northeast Kirkland 98034,Restaurants
Teinei,-122.3316105,47.6232572,1256 Republican Street Seattle 98109,Restaurants
Matsu,-122.3318513,47.598071,500 Stadium Place South Seattle 98104,Restaurants
Portage Bay Cafe and Catering,-122.3941224,47.6684739,2821 Northwest Market Street Seattle ,Restaurants
Olympia Pizza & Spaghetti House II,-122.3408364,47.661518,4501 Interlake Avenue North Seattle 98103,Restaurants
Bol,-122.3177624,47.675097,918 Northeast 64th Street ,Restaurants
Cultivate,-122.3148405,47.6566177,1218 Northeast Campus Parkway Seattle 98105,Restaurants
Red Cow,-122.289455,47.613643,1423 34th Avenue Seattle 98122,Restaurants
SWel,-122.3516953,47.6506782,3417 Evanston Avenue North Seattle 98103,Restaurants
Masala of India,-122.3227586,47.7084114,507 Northeast Northgate Way ,Restaurants
Osteria Rigoletto,-122.3307669,47.6226724,420 Pontius Avenue North Seattle 98109,Restaurants
Golden Daisy,-122.3131255,47.5805139,2518 Beacon Avenue South ,Restaurants
Niko's Gyros,-122.3111519,47.5787592,1636 South McClellan Street ,Restaurants
Juno,-122.3319932,47.6036544,,Restaurants
Seven Stars Pepper Szechuan Restaurant,-122.3167902,47.5989211,,Restaurants
The Cajun Crawfish,-122.2827049,47.5392949,6951 Martin Luther King Junior Way South Seattle 98118,Restaurants
Ironsteak,-122.325256,47.5976314,628 South Weller Street Seattle 98104,Restaurants
Redtrees,-122.3329473,47.6091945,,Restaurants
The Carlile Room,-122.3323964,47.6135477,820 Pine Street Seattle 98101,Restaurants
Saltoro,-122.355848,47.7321595,,Restaurants
Little Ting's Dumplings,-122.3560173,47.7335752,,Restaurants
Beijing Chinese Cuisine,-122.3560272,47.7334892,,Restaurants
Matt's in the Market,-122.3405657,47.608856,94 Pike Street Seattle 98101,Restaurants
Radiator Whiskey,-122.3403961,47.608922,94 Pike Street Seattle 98101,Restaurants
Taqueria Los Potrillos,-122.3549672,47.5172444,9600 Southwest Roxbury Street Seattle 98106,Restaurants
Salvadorean Bakery,-122.3572825,47.5172166,1719 Southwest Roxbury Street Seattle 98106,Restaurants
Huong Xua Vietnamese Deli,-122.3554046,47.5163885,9629 16th Avenue Southwest Seattle 98106,Restaurants
Yum Yum Teriyaki,-122.3556137,47.5075214,10641 16th Avenue Southwest Seattle 98146,Restaurants
El Mezon,-122.3542508,47.515988,9641 15th Avenue Southwest Seattle 98106,Restaurants
Crawfish House,-122.3549374,47.5147733,9826 16th Avenue Southwest Seattle 98106,Restaurants
Pho My Loi,-122.3555654,47.5088077,,Restaurants
Proletariat Pizza,-122.3549701,47.5166832,9622 16th Avenue Southwest Seattle 98106,Restaurants
Pho 99,-122.3530857,47.5146132,,Restaurants
Gõ Seattle Grab and Go,-122.3536309,47.5140168, Seattle ,Restaurants
El Paisano Rosticeria y Cocina,-122.3542335,47.5166381,9615 15th Avenue Southwest Seattle ,Restaurants
Southside Pizza,-122.3553727,47.5152554,9809 16th Avenue Southwest Seattle 98106,Restaurants
Hey Day,-122.2921385,47.5904939,1372 31st Avenue South Seattle 98144,Restaurants
NYC Deli,-122.3351213,47.6158077,818 Stewart Street Seattle 98101,Restaurants
Mint and Olives,-122.3572241,47.6247011,8 West Mercer Street Seattle 98119,Restaurants
Market Fresh,-122.3347325,47.6141811,720 Olive Way Seattle 98101,Restaurants
Outlier,-122.3339089,47.6068323,1101 4th Avenue ,Restaurants
Chaco Canyon Organic Café,-122.379943,47.5611661,3770 Southwest Alaska Street Seattle ,Restaurants
Bites of Bangkok,-122.312495,47.6216137,340 15th Avenue East Seattle 98112,Restaurants
Papa poy-yo,-122.3400352,47.6211919,,Restaurants
Kizuki Ramen & Izakaya - Capitol Hill,-122.3270507,47.615375,320 East Pine Street Seattle 98122,Restaurants
Jasmine,-122.3412579,47.6094863,,Restaurants
Sound View Cafe,-122.341126,47.608515,1501 1st Avenue Seattle 98101,Restaurants
Spicy Style of Sichuan,-122.34377,47.7246873,13200 Aurora Avenue North Seattle 98133,Restaurants
Poke Alice 2,-122.3388944,47.6144909,2001 6th Avenue Seattle 98121,Restaurants
Tanoor,-122.3425442,47.6269357,803 Dexter Avenue North Seattle 98109,Restaurants
Sushi Kashiba,-122.341426,47.6097739,86 Pine Street Seattle 98101,Restaurants
Ramen Danbo,-122.316094,47.6154236,1222 East Pine Street Seattle 98144,Restaurants
Central Pizza,-122.294865,47.5990966,2901 South Jackson Street Seattle 98144,Restaurants
Portage Bay Cafe and Catering,-122.3183843,47.6759626,900 Northeast 65th Street Seattle ,Restaurants
Pow Bao,-122.3381863,47.6147319,,Restaurants
Paninoteca,-122.3382361,47.6147491,,Restaurants
Buca di Beppo,-122.3389449,47.6258467,,Restaurants
Bernard's on Seneca,-122.3345296,47.6072526,,Restaurants
Kanpai Sushi & Wine Bar,-122.3277954,47.6074075,900 8th Avenue Seattle 98104,Restaurants
Post Alley Pizza,-122.3381018,47.6057527,,Restaurants
Cutters Crabhouse,-122.3441593,47.6105539,2001 Western Avenue Seattle 98121,Restaurants
Hong Kong Dim Sum,-122.3438461,47.7245197,13200 Aurora Avenue North Seattle 98133,Restaurants
Pho Than Brothers,-122.3309344,47.6612607,2309 North 45th Street 98103,Restaurants
Mamnoon Street,-122.3386104,47.6147849,2020 6th Avenue Seattle 98121,Restaurants
Ooink Ramen,-122.3212698,47.6139225,1416 Harvard Avenue Seattle 98122,Restaurants
Me Dor,-122.357283,47.6182777,3131 Western Avenue Seattle 98121,Restaurants
Goldfinch Tavern,-122.3392726,47.6076048,99 Union Street Seattle ,Restaurants
Bacco Cafe,-122.3413869,47.6100512,86 Pine Street Seattle 98101,Restaurants
Kastoori Grill,-122.3416411,47.6102184,94 Stewart Street Seattle 98101,Restaurants
Shama,-122.3408476,47.6084969,1501 Pike Place Seattle 98101,Restaurants
Shuckers Seafood,-122.3341491,47.607669,,Restaurants
Pizzuto's Italian Cafe,-122.2701089,47.5559338,5032 Wilson Avenue South Seattle ,Restaurants
Chew Chews,-122.3297705,47.6046747,603 6th Avenue ,Restaurants
Bebas & Amigos,-122.3298814,47.6047794,,Restaurants
Relish Burger Bistro,-122.3378302,47.6133299,,Restaurants
Adey Abeba,-122.3038368,47.6127907,2123 East Union Street Seattle 98122,Restaurants
Giannoni’s Pizza,-122.3669826,47.5213711,,Restaurants
Bateau,-122.3185364,47.6130765,1040 East Union Street Seattle 98122,Restaurants
Jimmy's on Broadway,-122.32052,47.6114544,,Restaurants
Bounty Kitchen,-122.307163,47.6242811,550 19th Avenue East Seattle 98112,Restaurants
Copine,-122.3873419,47.6757286,6460 24th Avenue Northwest Seattle 98107,Restaurants
Ras Dashen,-122.2956877,47.6078487,,Restaurants
Agelgil,-122.2957725,47.6081591,,Restaurants
Stateside,-122.3275366,47.6142009,300 East Pike Street Seattle 98122,Restaurants
Lark,-122.3196651,47.6123013,952 East Seneca Street Seattle 98122,Restaurants
Slab,-122.3195744,47.6124066,1201 10th Avenue Seattle 98122,Restaurants
Elemental Pizza - U-Village,-122.2991877,47.6634434,,Restaurants
Mexico Cantina,-122.3350659,47.612597,600 Pine Street Seattle 98101,Restaurants
Thai Ginger,-122.3354984,47.6128009,600 Pine Street ,Restaurants
Johnny Rockets,-122.3355884,47.6129041,,Restaurants
Hurry Curry of Tokyo,-122.3401477,47.6219248,825 Harrison Street Seattle 98109,Restaurants
Joyale Seafood Restaurant,-122.320798,47.5993506,900 South Jackson Street Seattle 98104,Restaurants
Blue Water Taco Grill,-122.323489,47.6098055,1213 Madison Street ,Restaurants
Los Tinos Mexican Restaurant,-122.2699048,47.5367291,,Restaurants
Aburiya Bento House,-122.344868,47.6113723,2100 Western Avenue Seattle 98121,Restaurants
Shaker & Spear,-122.341612,47.6119853,2000 2nd Avenue 98121,Restaurants
Asadero - Ballard,-122.382668,47.6669218,5405 Leary Avenue Northwest ,Restaurants
Taqueria El Rincon,-122.3150757,47.5252161,,Restaurants
Honor Mexico,-122.3151123,47.5267218,,Restaurants
Ambakity,-122.3151136,47.5268047,,Restaurants
Green Leaf,-122.351871,47.6167734,,Restaurants
Next Level Burger,-122.3158949,47.6751186,1026 Northeast 64th Street Seattle 98115,Restaurants
New Saigon,-122.3353312,47.6118732,1529 6th Avenue Seattle 98101,Restaurants
Red Bowls,-122.3329182,47.6046896,,Restaurants
Pho,-122.3223488,47.5476816,,Restaurants
Khaosan Road Thai Cuisine,-122.3222788,47.547843,,Restaurants
Herfy's Hamburgers,-122.3220334,47.5479109,,Restaurants
Yard House,-122.337244,47.610557,1501 4th Avenue Seattle 98101,Restaurants
Urban Donburi Kitchen,-122.3371684,47.6138932,,Restaurants
Meesha 127,-122.3564653,47.652518,127 North 36th Street ,Restaurants
Dough Zone Dumpling House,-122.3321463,47.6133133,815 Pine Street Seattle 98101,Restaurants
Kong Tofu House,-122.3122776,47.6584214,1414 Northeast 42nd Street Seattle 98105,Restaurants
The Terrace Lounge,-122.3339235,47.6081306,,Restaurants
Il Bistro,-122.340197,47.6086273,93 Pike Street ,Restaurants
Kokkaku,-122.3320757,47.6614963,2208 North 45th Street Seattle 98103,Restaurants
Tacos Chukis,-122.3420901,47.6270294,832 Dexter Avenue North Seattle ,Restaurants
Eggs and Plants,-122.342911,47.6157487,2229 5th Avenue ,Restaurants
World Fresh Asian Eatery,-122.332665,47.6100576,,Restaurants
Cantina Leña,-122.3407987,47.6144658,2105 5th Avenue Seattle 98121,Restaurants
Penny Royal,-122.3417441,47.6119157,,Restaurants
Atlantic Street Pizza,-122.3345978,47.605074,,Restaurants
TJ's Deli,-122.3305248,47.6054516,,Restaurants
Buffalo Wild Wings,-122.3380554,47.6119867, 4th Avenue ,Restaurants
Tavern 12,-122.315691,47.6614746,,Restaurants
The Grill King,-122.3449591,47.7446447,15740 Aurora Avenue North Shoreline 98133,Restaurants
Jade Restaurant and Lounge,-122.3443025,47.6936762,,Restaurants
Bar Harbor,-122.3340789,47.6224823,400 Fairview Avenue North Seattle 98109,Restaurants
Kalia Indian Cuisine,-122.3551223,47.690934,8518 Greenwood Avenue North 98103,Restaurants
Abuelita's Kitchen,-122.355109,47.6914777,8552 Greenwood Avenue North Seattle 98103,Restaurants
La Conasupo,-122.3550997,47.6911757,8532 Greenwood Avenue North Seattle 98103,Restaurants
Gainsbourg,-122.3551052,47.6913907,8550 Greenwood Avenue North Seattle 98103,Restaurants
Laem Buri,-122.355096,47.691134,8530 Greenwood Avenue North Seattle 98103,Restaurants
Green Tree,-122.3551025,47.6921308,8576 Greenwood Avenue North Seattle 98103,Restaurants
Thud Suan Kitchen & Bar,-122.307612,47.6168326,1818 East Madison Street Seattle 98122,Restaurants
Taqueria Cantina,-122.3502686,47.6157536,2630 1st Avenue Seattle 98121,Restaurants
Jerk Shack,-122.3490261,47.6150567,2510 1st Avenue ,Restaurants
Sunny Teriyaki,-122.344635,47.7302026,13754 Aurora Avenue North Seattle 98133,Restaurants
Safari Njema,-122.2844734,47.5560381,5041 Rainier Avenue South Seattle 98118,Restaurants
Din Tai Fung,-122.335194,47.6125289,600 Pine Street Seattle 98101,Restaurants
Nikko Teriyaki,-122.3852038,47.5606454,4710 42nd Avenue Southwest Seattle 98116,Restaurants
India Bistro,-122.317917,47.6756903,6417 Roosevelt Way Northeast Seattle 98115,Restaurants
The Pink Door,-122.3425312,47.6103875,1919 Post Alley 98101,Restaurants
Tulio,-122.3324164,47.6074385,,Restaurants
The Georgian,-122.3337829,47.6084603,,Restaurants
Pablo y Pablo,-122.3384069,47.6478988,1605 North 34th Street Seattle 98103,Restaurants
Meet The Moon,-122.2848591,47.6022917,120 Lakeside Avenue Seattle 98122,Restaurants
Hokkaido Ramen Santouka,-122.298902,47.6624128,2626 Northeast Village Lane Seattle 98105,Restaurants
Othello Wok and Teriyaki,-122.2804718,47.5364105,4219 South Othello Street Seattle 98118,Restaurants
Phở Mỹ Châu,-122.282145,47.5384453,7101 Martin Luther King Junior Way South Seattle 98118,Restaurants
Wasabi,-122.3462577,47.6140837,,Restaurants
Maria Sabina,-122.3391062,47.6260615,711 Westlake Avenue North Seattle 98109,Restaurants
The White Swan Public House,-122.3317974,47.629117,1001 Fairview Avenue North ,Restaurants
Ahadu Ethiopian Restaurant,-122.3120345,47.7141183,,Restaurants
Pogacha,-122.2340642,47.586207,2707 78th Avenue Southeast ,Restaurants
Sushi Joa,-122.234064,47.5861481,2717 78th Avenue Southeast ,Restaurants
Tiger Garden,-122.2340294,47.5847236,,Restaurants
13 Coins,-122.3312068,47.5981122,255 South King Street Seattle ,Restaurants
Betsutenjin,-122.3196328,47.6133961,954 East Union Street Seattle 98122,Restaurants
Señor Carbon,-122.3344476,47.6024335,625 1st Avenue ,Restaurants
Urban Sushi Kitchen,-122.3371636,47.6159163,2001 8th Avenue Seattle 98121,Restaurants
Morfire,-122.316731,47.6179302,1806 12th Avenue Seattle 98122,Restaurants
Razzi's Pizzeria,-122.3294145,47.6180097,1314 Howell Street Seattle 98101,Restaurants
Kedai Makan,-122.312985,47.6151546,1449 East Pine Street Seattle 98122,Restaurants
Indo Cafe,-122.3445505,47.7301777,,Restaurants
Kamonegi,-122.3443541,47.6540795,1054 North 39th Street Seattle 98103,Restaurants
GH Pasta Co.,-122.3426255,47.6167439,2305 6th Avenue Seattle 98121,Restaurants
A-Pizza Mart,-122.3128098,47.6678482,5240 University Way Northeast Seattle 98105,Restaurants
Daimonji,-122.3225881,47.5476353,,Restaurants
,-122.340354,47.6088825,94 Pike Street Seattle 98101,Restaurants
The Market Hall,-122.3335958,47.6138293,809 Olive Way ,Restaurants
Tidal Seafood,-122.3341419,47.6138537,1639,Restaurants
Foo Lam Chinese Restaurant,-122.28307,47.5384769,7101 Martin Luther King Junior Way South Seattle 98118,Restaurants
Ba Bar,-122.3368824,47.623384,500 Terry Avenue North ,Restaurants
Deli Cut Subs,-122.3274293,47.6020348,,Restaurants
Gokan,-122.3196583,47.6130786,954 East Union Street Seattle 98122,Restaurants
I Love Wasabi,-122.3166262,47.5989017,1207 South Jackson Street 98144,Restaurants
Korean Tofu House,-122.3140237,47.658217,4142 Brooklyn Avenue Northeast Seattle 98105,Restaurants
Jae's Asian Bistro and Sushi,-122.2959789,47.6234821,2801 East Madison Street ,Restaurants
Jewel of India,-122.3132488,47.6641324,4735 University Way Northeast Seattle 98105,Restaurants
Nue,-122.314441,47.6147224,1519 14th Avenue Seattle 98122,Restaurants
Rider,-122.334295,47.6124201,,Restaurants
Tacos Chukis,-122.3115269,47.5795632,1608 South Lander Street ,Restaurants
iSandwiches & Teriyaki,-122.3457088,47.7353264,14705 Aurora Avenue North Shoreline 98133,Restaurants
Kami Teriyaki,-122.2433589,47.729674,,Restaurants
Little Maria's Pizza,-122.3310804,47.6169872,,Restaurants
Monsoon,-122.3075106,47.6248499,615 19th Avenue East Seattle 98112,Restaurants
Araya's Place,-122.312813,47.6676581,5240 University Way Northeast ,Restaurants
Amante Pizza & Pasta,-122.2372718,47.7097866,,Restaurants
Tian Fu Old Town,-122.3181692,47.6616761,4500 9th Avenue Northeast Seattle 98105,Restaurants
Mantra Restaurant & Bar,-122.3483498,47.618457,2720 4th Avenue ,Restaurants
Anthony's Bell Street Diner,-122.3480274,47.6107619,,Restaurants
Morsel,-122.3128674,47.6653712,5000 University Way Northeast Seattle 98105,Restaurants
Old Village,-122.3448939,47.7392017,15200 Aurora Avenue North Shoreline 98133,Restaurants
Vinason Pho,-122.334501,47.5891938,,Restaurants
The Pizza Gallery,-122.3491892,47.4877779,1117 Southwest 128th Street Burien 98146-3128,Restaurants
Anju Bar and Eatery,-122.3553924,47.516041,,Restaurants
Bok a Bok - White Center,-122.3549391,47.515372,1521 Southwest 98th Street Seattle ,Restaurants
Fogrose,-122.2918311,47.6759359,3338 Northeast 65th Street ,Restaurants
Tribeca Kitchen and Bar,-122.3335426,47.6140712,,Restaurants
Maíz,-122.3430926,47.6169996,2325 6th Avenue ,Restaurants
The Fig and the Judge,-122.330801,47.6067805,,Restaurants
Taneda Sushi,-122.321342,47.6205327,219 Broadway East ,Restaurants
Jack’s BBQ,-122.339603,47.6206442,228 9th Avenue North ,Restaurants
Pasta Casalinga,-122.3402323,47.6085368,,Restaurants
Red Sea,-122.2958751,47.5778744,,Restaurants
Spice Room,-122.2850905,47.5575069,4909 Rainier Avenue South Seattle 98118,Restaurants
Wabi Sabi,-122.2851258,47.5575964,4909 Rainier Avenue South Seattle 98118,Restaurants
Olympic Express,-122.2827956,47.5384524,,Restaurants
Taco Street,-122.2810611,47.5377896,7136 Martin Luther King Junior Way South Seattle 98118,Restaurants
olmst(e)ad,-122.3206762,47.6216408,314 Broadway East Seattle 98102,Restaurants
Sunlight Cafe,-122.3185587,47.6751757,6404 9th Avenue Northeast Seattle 98115,Restaurants
Miri’s Snack Shack,-122.4060492,47.674561,,Restaurants
Meaty Johnson’s,-122.3166349,47.6151745,1201 East Pine Street ,Restaurants
Sazon Kitchen,-122.3771007,47.6814828,7301 15th Avenue Northwest ,Restaurants
Man'oushe Express,-122.2926861,47.7291934,13721 Lake City Way Northeast Seattle 98125,Restaurants
Mawadda Cafe,-122.2767013,47.545749,,Restaurants
King Philly Cheesesteaks,-122.2695412,47.5322628,,Restaurants
Rizzo Steaks,-122.3291846,47.5440712,,Restaurants
Kin Dee,-122.302419,47.6191297,2301 East Madison Street Seattle 98112,Restaurants
Anise Thai Cuisine,-122.2353734,47.5864244,,Restaurants
Gourmet Teriyaki,-122.2357946,47.5864256,,Restaurants
Mo's,-122.234456,47.5868964,,Restaurants
Birch,-122.3316845,47.6290892,,Restaurants
Homer,-122.3100822,47.5765768,3013 Beacon Avenue South ,Restaurants
Frolik Kitchen + Cocktails,-122.3354477,47.6101217,,Restaurants
Bistro Shirlee,-122.2887461,47.6613099,,Restaurants
The 100 Pound Clam,-122.3316779,47.6289239,1001 Fairview Avenue North ,Restaurants
Elemental Pizza - Columbia Center,-122.3306196,47.6043863,,Restaurants
Magnuson Cafe and Brewery,-122.2649134,47.6881653,7801 62nd Avenue Northeast ,Restaurants
Le Messe,-122.3262636,47.6362365,1903 Yale Place East ,Restaurants
Wild Ginger - McKenzie,-122.33925,47.6175001,2208 8th Avenue Seattle 98121,Restaurants
Omega Ouzeri,-122.314424,47.6149618,1529 14th Avenue Seattle 98122,Restaurants
Anju Bar and Eatery,-122.3542063,47.5161858,9641 15th Avenue Southwest Seattle ,Restaurants
Patagon,-122.3400605,47.6110621,1610,Restaurants
Jack's BBQ,-122.330759,47.6043145,,Restaurants
Teriyaki & Wok,-122.386664,47.5438937,,Restaurants
Pizza Hut,-122.2159643,47.4844759,,Restaurants
Coltiva,-122.3578701,47.6219704,350 1st Avenue West ,Restaurants
YGF MalaTang,-122.3129525,47.6636997,4730 University Way Northeast Seattle 98105,Restaurants
Cedars,-122.3135109,47.6596914,,Restaurants
Mark Thai Food Box,-122.3136629,47.659694,1313 Northeast 43rd Street ,Restaurants
Nasai Teriyaki,-122.3133583,47.660069,,Restaurants
Taki's Mad Greek,-122.3756517,47.6904829,1471 Northwest 85th Street ,Restaurants
Le's Deli & Bakery,-122.2804721,47.5368796,4219 South Othello Street Seattle 98118,Restaurants
Essential Baking Cafe,-122.334534,47.5521924,5601 1st Avenue South Seattle 98108,Restaurants
Tacos Chukis,-122.302989,47.6127817,2215 East Union Street ,Restaurants
addo:206,-122.3742131,47.6305804,,Restaurants
Joyce’s Deli,-122.2967538,47.6127988,2717 East Union Street ,Restaurants
Vendemmia,-122.2891364,47.6124437,1126 34th Avenue ,Restaurants
Raccolto,-122.3869972,47.5652076,4147 California Avenue Southwest Seattle 98116,Restaurants
Bounty Kitchen,-122.3376528,47.6164977,801 Lenora Street ,Restaurants
Menya Musashi Niten Ichiryu,-122.3242658,47.614465,1510 Belmont Avenue Seattle 98122,Restaurants
Petoskey’s,-122.3565691,47.6525414,,Restaurants
Supreme,-122.3133037,47.6621685,4529 University Way Northeast ,Restaurants
Botecco Brasil,-122.3571183,47.649351,15 Nickerson Street Seattle 98109,Restaurants
Zeeks Pizza - North Queen Anne Fremont,-122.3558707,47.648538,41 Dravus Street Seattle 98109,Restaurants
Jarochita's Taqueria,-122.3544321,47.5160003,9641 15th Avenue Southwest Seattle 98106,Restaurants
Daniel's Broiler,-122.3341547,47.614524,,Restaurants
Andare,-122.3343062,47.614631,,Restaurants
Huong Duong Restaurant,-122.2811395,47.5377779,7136 Martin Luther King Junior Way South Seattle 98118,Restaurants
Pizzeria Pulcinella,-122.2481511,47.5111983,,Restaurants
Lake Thai,-122.2214793,47.500401,,Restaurants
Oma Bap,-122.3179969,47.6162678,1640 11th Avenue ,Restaurants
Genghis Cohen,-122.3146389,47.6614307,,Restaurants
Zeeks Pizza - Capitol Hill,-122.307473,47.6244954,1830 East Mercer Street ,Restaurants
Sizzle & Crunch,-122.3389197,47.6239703,500 9th Avenue North ,Restaurants
Limena,-122.285017,47.5574137,,Restaurants
The Athenian Seafood Restaurant and Bar,-122.3412989,47.6088145,1517 Pike Place ,Restaurants
Six Seven,-122.35309,47.612731,2411 Alaskan Way ,Restaurants
Bang Bang Kitchen,-122.2796621,47.5369227,4219 South Othello Street Seattle 98118,Restaurants
Currant Bistro,-122.3417951,47.6143308,2120 4th Avenue Seattle ,Restaurants
Little Duck,-122.317545,47.6571135,,Restaurants
Portage Bay Cafe,-122.3857071,47.5601597,4725 42nd Avenue Southwest Seattle 98116,Restaurants
Bonchon Chicken,-122.320357,47.6070923,554 East James Street ,Restaurants
Thai Thai,-122.3449141,47.6985701,9525 Aurora Avenue North Seattle 98103,Restaurants
Ben Paris,-122.3391713,47.6093266,130 Pike Street ,Restaurants
Mercato Stellina,-122.344227,47.6105889,,Restaurants
Salmon Creek Cafe,-122.354283,47.4986463,11620 Ambaum Boulevard Southwest Burien 98146,Restaurants
Mediterranean Oasis,-122.3439409,47.7401798,15238 Aurora Avenue North Shoreline 98133,Restaurants
Le’s Pho Tái,-122.3440574,47.7395007,15210 Aurora Avenue North Shoreline 98133,Restaurants
45th Stop N Shop,-122.3373643,47.6181445,,Restaurants
Pagliacci Pizza,-122.304489,47.6596297,4294 Little Canoe Channel Northeast Seattle 98195,Restaurants
Kimchi Bistro,-122.3213415,47.6205781,219 Broadway East ,Restaurants
Il Nido,-122.4110022,47.5785646,,Restaurants
Kigo Kitchen - Columbia Center,-122.330775,47.6047406,,Restaurants
Kigo Kitchen - Met Park,-122.329866,47.6169803,,Restaurants
Kigo Kitchen - Pioneer Square,-122.3343712,47.6014685,105 1st Avenue South Seattle 98104,Restaurants
Salina Specialties,-122.247474,47.4968049,11805 Renton Avenue South Seattle 98178,Restaurants
Galos Flame Grilled Chicken,-122.3692337,47.6627903,907 Northwest Ballard Way ,Restaurants
Matcha Cafe Maiko,-122.3378009,47.6118397,,Restaurants
Casco Antiguo,-122.3389244,47.6162071,2102 7th Avenue Seattle 98121,Restaurants
Taqueria El Ranchero,-122.3174323,47.5984822,,Restaurants
Bar Taglio,-122.3352181,47.6038918,,Restaurants
Tavolàta,-122.3429128,47.6514721,3627 Stone Way North Seattle 98103,Restaurants
Uminori,-122.3040976,47.6183476,2106 East Madison Street Seattle 98112,Restaurants
Fuji Sushi,-122.3266888,47.6001364,,Restaurants
New Star Restaurant,-122.3269182,47.5993364,,Restaurants
Youngstown Kitchen,-122.386959,47.547533,,Restaurants
The Block,-122.3130501,47.6586984,,Restaurants
Momosan Seattle,-122.32718,47.5976303,504 5th Avenue South Seattle 98104,Restaurants
Wonder Ethiopian Restaurant & Sport Bar,-122.3080024,47.5993658,1800 South Jackson Street Seattle 98144,Restaurants
Phoenecia,-122.3857085,47.560345,4717 42nd Avenue Southwest Seattle 98116,Restaurants
Xi'an Noodles,-122.3374111,47.6117016,,Restaurants
Johnny Mo’s,-122.3209399,47.6514669,3272 Fuhrman Avenue East ,Restaurants
Nirmal’s,-122.3326533,47.6014622,106 Occidental Avenue South Seattle 98104,Restaurants
Thai Recipe,-122.2988175,47.5780234,2609 South McClellan Street ,Restaurants
Luciano's Pizza & Pasta,-122.3868088,47.5818328,2341 California Avenue Southwest ,Restaurants
L'oursin,-122.3146829,47.6060679,,Restaurants
Chelan Cafe,-122.3615305,47.5718694,,Restaurants
Li'l Woody's,-122.3554158,47.5152361,9807 16th Avenue Southwest Seattle 98106,Restaurants
The Corson Building,-122.3203934,47.5519579,,Restaurants
Mi Ranchito,-122.2695829,47.5320405,,Restaurants
Revel,-122.3542158,47.652021,491 North 36th Street ,Restaurants
Olympia Pizza & Pasta,-122.363215,47.5516834,,Restaurants
Toshio's Teriyaki,-122.3054558,47.5881984,1706 Rainier Avenue South Seattle 98144,Restaurants
The Comfort Zone,-122.2840286,47.5566574,,Restaurants
Simply Soulful Cafe,-122.2949727,47.6241119,2915-B East Madison Street Seattle ,Restaurants
Osteria la Spiga,-122.3170987,47.6137667,1429 12th Avenue Seattle 98122,Restaurants
Birrieria Tijuana,-122.34914,47.4879015,,Restaurants
Gyro House,-122.3204594,47.641282,2355 10th Avenue East Seattle 98102,Restaurants
Katsu Bar,-122.3166502,47.6151356,1542 East Pike Street ,Restaurants
Seattle Aquarium Cafe,-122.3425574,47.6073238,1483 Alaskan Way Seattle 98101,Restaurants
Grumpy's Taco Truck,-122.344762,47.7303347,13760 Aurora Avenue North Seattle 98133,Restaurants
Lorena's Kitchen,-122.3172302,47.5479584,6124 12th Avenue South ,Restaurants
Prayathai Cuisine,-122.3058238,47.6935146,,Restaurants
,-122.3205372,47.6061217,412 Broadway Seattle 98122,Restaurants
Phnom Penh Noodle House,-122.320654,47.5990197,913 South Jackson Street Seattle 98104,Restaurants
My’s Vietnamese Sandwiches and Deli,-122.2398596,47.4907514,12619 Renton Avenue South Seattle 98178,Restaurants
Taqueria El Torito,-122.2179597,47.4854794,257 Rainier Avenue North Renton 98057,Restaurants
Harry's Fine Foods,-122.3267763,47.6244359,601 Bellevue Avenue East Seattle 98012,Restaurants
Snack Shack,-122.232892,47.6249959,,Restaurants
Overlake Restaurant,-122.2327058,47.6252409,,Restaurants
The No Name Diner Alki,-122.4108294,47.5789225,2738 Alki Avenue Southwest Seattle 98116,Restaurants
,-122.3455474,47.7394431,,Restaurants
Koo Hoo Thai Street,-122.376346,47.679633,1480 Northwest 70th Street Seattle 98117,Restaurants
Friendship Food BBQ,-122.3446479,47.7274715,13520 Aurora Avenue North Shoreline 98133,Restaurants
PhilHouse - Sarap ng Lutong Bahay,-122.2847932,47.5469994,,Restaurants
Communion,-122.3016354,47.6131269,2350 East Union Street Seattle 98122,Restaurants
Finch & Pine,-122.3268231,47.625731,711 Bellevue Avenue East ,Restaurants
Autumn,-122.3551012,47.6785959,6727 Greenwood Avenue North Seattle 98103,Restaurants
Beni,-122.3448897,47.7041183,,Restaurants
Chef Café Restaurant,-122.303085,47.5993997,2200 South Jackson Street ,Restaurants
Catfish Corner,-122.302407,47.5993934,,Restaurants
El Gallito,-122.3058853,47.6175236,1700 East Madison Street ,Restaurants
Karachi Cowboys,-122.3170807,47.6146324,1517 12th Avenue ,Restaurants
Tasty’s Bar & Grill,-122.3150997,47.5261477,,Restaurants
Poke Fresh,-122.3165119,47.6759726,1026 Northeast 65th Street Seattle 98115,Restaurants
Milk Drunk,-122.3116668,47.5784372,2805 Beacon Avenue South Seattle 98144,Restaurants
Ten Leaves Bistro,-122.3189595,47.5996544,,Restaurants
Song Phang Kong,-122.318851,47.599043,,Restaurants
Cedar + Elm,-122.2573034,47.733258,14477 Juanita Drive Northeast Kenmore 98028,Restaurants
The Barbeque Pit,-122.308236,47.6018596,1816 East Yesler Way Seattle 98122,Restaurants
Niku Niku,-122.3435146,47.7246855,,Restaurants
Araya's Place,-122.296215,47.6240079,,Restaurants
Bar Cantinetta,-122.2956056,47.6237409,,Restaurants
Shodai’s Teriyaki,-122.2963726,47.6122183,,Restaurants
Mr. Bian Dumpling,-122.3133323,47.6601888,,Restaurants
Skylark Cafe,-122.3623818,47.569977,,Restaurants
Rock Salt Steaks & Seafood,-122.3403406,47.6307524,,Restaurants
Haidilao Hot Pot,-122.335356,47.6125443,,Restaurants
Just Poke,-122.3133195,47.6609428,,Restaurants
Tapas Lab,-122.3243476,47.6794643,7012 Woodlawn Avenue Northeast ,Restaurants
Carnitas Michoacan Carniceria & Taqueria,-122.3132408,47.5807702,,Restaurants
Xiao Long Bao House,-122.3455105,47.7358025,14725 Aurora Avenue North Shoreline 98133,Restaurants
La Palmera,-122.3395327,47.6241812,,Restaurants
BOL,-122.3180522,47.6759615,900 Northeast 65th Street Seattle 98115,Restaurants
Oak,-122.309914,47.5764343,3019 Beacon Avenue South ,Restaurants
Aliberto's Mexican Food,-122.3295451,47.5810264,,Restaurants
FaveKitchens,-122.333967,47.5890332,,Restaurants
Ursah & Sabah,-122.2703327,47.532846,,Restaurants
Shewa-Ber Bar & Restaurant,-122.3085974,47.5990718,1801 South Jackson Street Seattle 98144,Restaurants
Huê Ký Mì Gia,-122.3162138,47.5990257,1207 South Jackson Street Seattle 98144,Restaurants
Thanh Tâm,-122.3167497,47.5999044,1200 South Jackson Street Seattle 98144,Restaurants
Pon Proem Thai,-122.2346883,47.5824438,3039 78th Avenue Southeast ,Restaurants
Island’s Pho & Teriyaki,-122.2346907,47.5825696,3033 78th Avenue Southeast ,Restaurants
Mioposto,-122.3866147,47.5841826,2139 California Avenue Southwest Seattle 98116,Restaurants
Ba Bar Green,-122.3368101,47.6233321,,Restaurants
Round Table Pizza,-122.3466885,47.7439009,,Restaurants
Di Fiora,-122.3240874,47.6128824,1320 University Street ,Restaurants
Bai Tong Thai Street Cafe,-122.3171112,47.6139854,1121 East Pike Street ,Restaurants
Ox Burger,-122.3116334,47.6147958,1523 East Madison Street ,Restaurants
Dough Zone,-122.3019174,47.6632404,4701 24th Avenue Northeast Seattle 98105,Restaurants
Dough Zone,-122.327436,47.5977966,504 5th Avenue South Seattle 98104,Restaurants
Bellweather BBQ & Grill,-122.3262078,47.5974034,,Restaurants
Sushi Suzuki,-122.2791656,47.6354004,4116.5 East Madison Street Seattle 98112,Restaurants
Ông Lắm Bistro,-122.3167627,47.6766979,1010 Northeast 66th Street Seattle 98115,Restaurants
Glo's,-122.319941,47.6188881,928 East Barbara Bailey Way ,Restaurants
Chan Seattle,-122.3334864,47.6131589,724 Pine Street ,Restaurants
Bro's Teriyaki,-122.3881763,47.6688383,5505 24th Avenue Northwest Seattle 98107,Restaurants
Wooden City Tavern,-122.325542,47.6801946,,Restaurants
Mala & Satay,-122.3339777,47.6203311,,Restaurants
Momiji SLU,-122.3405139,47.6177362,731 Bell Street Seattle 98121,Restaurants
Jerk Shack,-122.3018794,47.6124849,,Restaurants
El Gaucho,-122.3461816,47.6121851,,Restaurants
LoxSmith Bagels,-122.3111623,47.5792673,,Restaurants
Cork & Kale,-122.3345991,47.6241125,527 Fairview Avenue North Seattle 98109,Restaurants
Sakana,-122.3125824,47.6147422,1520 15th Avenue ,Restaurants
Hatch Cantina,-122.3469171,47.615002,200 Bell Street Seattle 98121,Restaurants
Adulis Eritrean and Ethiopian,-122.355731,47.705633,10515 Greenwood Avenue North ,Restaurants
Café Lago,-122.3023474,47.6396934,2305 24th Avenue East Seattle 98112,Restaurants
Stanford's Restaurant & Bar,-122.3281889,47.7083294,401 Northeast Northgate Way Seattle 98125,Restaurants
Shari's,-122.3448854,47.7403943,15252 Aurora Avenue North Shoreline 98133-6124,Restaurants
Daniel's Broiler,-122.3348934,47.6267196,809 Fairview Place North Seattle 98109,Restaurants
North Star Diner,-122.355009,47.6922669,8580 Greenwood Avenue North Seattle 98103,Restaurants
Patty's Eggnest Northgate,-122.3175569,47.7088085,1000 Northeast Northgate Way Seattle 98125,Restaurants
Jalisco,-122.2948859,47.718505,12336 31st Avenue Northeast Seattle 98125,Restaurants
125th Street Grill,-122.3453664,47.7192744,12255 Aurora Avenue North Seattle 98133,Restaurants
Fushen Seafood Chinese Restaurant,-122.3449002,47.6947778,9019 Aurora Avenue North Seattle 98103,Restaurants
Tutta Bella Neapolitan Pizzeria,-122.342576,47.6604557,4411 Stone Way North Seattle 98103,Restaurants
Duke's Seafood,-122.338188,47.6861076,7850 Green Lake Drive North Seattle 98103,Restaurants
Aliberto's Jr,-122.3295429,47.5810199,2425 4th Avenue South Seattle 98134,Restaurants
Denny's,-122.3286992,47.5779757,2762 4th Avenue South Seattle 98134,Restaurants
Agua Verde Café,-122.3143407,47.6515836,1303 Northeast Boat Street Seattle 98105,Restaurants
Roanoke Inn,-122.2434267,47.5939707,1825 72nd Avenue Southeast Mercer Island 98040,Restaurants
Salmon Bay Cafe,-122.3824748,47.6641801,5109 Shilshole Avenue Northwest Seattle 98107,Restaurants
Mischief On Canal,-122.3563942,47.6514569,134 North Canal Street ,Restaurants
Veraci Pizza - Ballard,-122.3634177,47.6688693,500 Northwest Market Street Seattle 98107,Restaurants
Mike's Chili Parlor,-122.3757613,47.6627795,1447 Northwest Ballard Way Seattle 98107,Restaurants
Bent Burger,-122.2695726,47.5550595,5100 South Dawson Street ,Restaurants
Saffron Grill,-122.3328011,47.7088682,2132 North Northgate Way Seattle 98133,Restaurants
Main Street Gyros,-122.3308471,47.6001649,301 2nd Avenue Extension South Seattle 98104,Restaurants
Queen Càphê,-122.3572123,47.639293,2231 Queen Anne Avenue North Seattle 98109,Restaurants
Ivar's Salmon House,-122.3240269,47.6535704,401 Northeast Northlake Way Seattle 98105,Restaurants
Pecos Pit,-122.3338669,47.5821493,2260 1st Avenue South Seattle 98134,Restaurants
Queen Sheba,-122.3201263,47.6200764,916 East John Street Seattle 98102,Restaurants
Momiji,-122.3165268,47.6148043,1522 12th Avenue Seattle 98122,Restaurants
Hamdi,-122.3619826,47.6564635,4012 Leary Way Northwest Seattle 98107,Restaurants
Seattle Biscuit Company,-122.3624109,47.6562378,4001 Leary Way Northwest Seattle 98107,Restaurants
Frēlard Pizza,-122.3617812,47.6563594,4010 Leary Way Northwest Seattle 98107,Restaurants
Chile Pepper,-122.3394672,47.6611733,1427 North 45th Street Seattle 98103,Restaurants
Varsity Inn Restaurant,-122.3360168,47.6479023,1801 North 34th Street Seattle 98103,Restaurants
Un Bien,-122.4061345,47.6748074,6226 Seaview Avenue Northwest Seattle 98107,Restaurants
Lockspot Cafe,-122.3958683,47.667773,3005 Northwest Locks Place Seattle 98107,Restaurants
Fuel Sports Grill,-122.3772565,47.6879096,8037 15th Avenue Northwest Seattle 98117,Restaurants
Thai Siam,-122.3771802,47.6888726,8305 15th Avenue Northwest Seattle 98117,Restaurants
Duke’s Seafood & Chowder,-122.3303973,47.6298512,1111 Fairview Avenue North Seattle 98109,Restaurants
Alebrijes Kitchen,-122.3674364,47.6908804,850 Northwest 85th Street Seattle 98117,Restaurants
The Rickshaw Restaurant,-122.3544821,47.7052779,322 North 105th Street Seattle 98133,Restaurants
Valhalla Sandwiches,-122.355042,47.68858,8202 Greenwood Avenue North Seattle 98103,Restaurants
El Camion,-122.3438852,47.7149799,11728 Aurora Avenue North Seattle 98133,Restaurants
Mekong Village,-122.3443796,47.7167002,12020 Aurora Avenue North Seattle 98133,Restaurants
Aliberto's,-122.3446328,47.7325122,14300 Aurora Avenue North Seattle 98133,Restaurants
JaK's Grill,-122.2879765,47.6609646,3701 Northeast 45th Street Seattle 98105,Restaurants
Veraci Pizza - Wedgwood,-122.2901485,47.6819067,7320 35th Avenue Northeast Seattle 98115,Restaurants
Krua,-122.2997677,47.6683714,2515 Northeast 55th Street Seattle 98105,Restaurants
Zouave,-122.2987567,47.6756571,2615 Northeast 65th Street Seattle 98115,Restaurants
Thai of Wedgwood,-122.2902077,47.6837422,7520 35th Avenue Northeast Seattle 98115,Restaurants
Wong's Kitchen,-122.2901017,47.6969637,9400 35th Avenue Northeast Seattle 98115,Restaurants
Aceituno's,-122.2930612,47.7245369,13055 Lake City Way Northeast Seattle 98125,Restaurants
Tuk Tuk Thai,-122.3785398,47.6482593,1625 West Dravus Street Seattle 98119,Restaurants
Bongos Caribbean Cafe,-122.3468774,47.6767415,6501 Aurora Avenue North Seattle 98103,Restaurants
Mai Thaiku,-122.3556742,47.6780459,6705 Greenwood Avenue North Seattle 98103,Restaurants
Zeeks Pizza - Phinney Ridge,-122.3540795,47.6726234,6000 Phinney Avenue North Seattle 98103,Restaurants
Modern,-122.3541407,47.6734974,6108 Phinney Avenue North Seattle 98103,Restaurants
Pagliacci Pizza,-122.3674721,47.6904934,851 Northwest 85th Street Seattle 98117,Restaurants
Phở Viet Nam,-122.376503,47.6807355,7040 15th Avenue Northwest Seattle 98117,Restaurants
Un Bien,-122.376524,47.6816817,7302 1/2 15th Avenue Northwest Seattle 98117,Restaurants
Itadakimasu,-122.3144604,47.6643402,4743 Brooklyn Avenue Northeast Seattle 98105,Restaurants
Calluna,-122.3128588,47.6703483,5628 University Way Northeast ,Restaurants
Koibito Sushi & Teriyaki,-122.3426028,47.6298453,1201 Dexter Avenue North Seattle 98109,Restaurants
Mother India Cuisine,-122.3409244,47.6329023,1515 Westlake Avenue North Seattle 98109,Restaurants
Citrus Thai Restaurant,-122.3332233,47.6145848,800 Olive Way Seattle 98101,Restaurants
Bizzarro,-122.3416761,47.6619716,1307 North 46th Street Seattle 98103,Restaurants
Musashi's,-122.3404816,47.6615926,1400 North 45th Street Seattle 98103,Restaurants
Kozue,-122.338686,47.6616095,1608 North 45th Street Seattle 98103,Restaurants
Sisi Kay Thai,-122.338549,47.6616331,1612 North 45th Street Seattle 98103,Restaurants
Ramen Man,-122.338398,47.661579,1616 North 45th Street Seattle 98103,Restaurants
Blue Star Cafe & Pub,-122.3418568,47.6618823,4512 Stone Way North Seattle 98103,Restaurants
The Wing Dome,-122.3550206,47.6860911,7818 Greenwood Avenue North Seattle 98103,Restaurants
China Dragon,-122.3449526,47.702686,,Restaurants
La Palma,-122.3757007,47.6520146,3456 15th Avenue West Seattle 98119,Restaurants
Canlis,-122.3467332,47.6430531,2576 Aurora Avenue North Seattle 98109,Restaurants
Olympia Pizza,-122.3566618,47.6324587,1500 Queen Anne Avenue North Seattle 98109,Restaurants
5 Spot,-122.356661,47.6325551,1502 Queen Anne Avenue North Seattle 98109,Restaurants
Raney's Bar and Grill,-122.322976,47.5682159,3923 Airport Way South Seattle 98108,Restaurants
Jack's BBQ,-122.3223272,47.5682712,3924 Airport Way South Seattle 98108,Restaurants
Paseo,-122.333784,47.5864264,1760 1st Avenue South Seattle 98134,Restaurants
McCoy's Firehouse BBQ,-122.3318195,47.6007056,173 South Washington Street Seattle 98104,Restaurants
Mama Sambusa Kitchen,-122.2694719,47.5293974,8300 Wabash Avenue South Seattle 98118,Restaurants
Mama Sambusa Kitchen,-122.2695194,47.5284982,8334 Rainier Avenue South Seattle 98118,Restaurants
Mama Sambusa Kitchen,-122.2697047,47.5288704,,Restaurants
Mama Sambusa Kitchen,-122.269458,47.5294722,8300 South Rose Street Seattle 98118,Restaurants
Phat Loi,-122.2696916,47.5220165,9050 Rainier Avenue South Seattle 98118,Restaurants
Zest Fast Food,-122.2710084,47.5387767,7111 Rainier Avenue South Seattle 98118,Restaurants
Wicked Chopstix,-122.2865533,47.5472937,6021 Martin Luther King Junior Way South Seattle 98118,Restaurants
Musang,-122.3127557,47.5803691,2524 Beacon Avenue South Seattle 98144,Restaurants
Cloud Cafe,-122.3123455,47.5797631,2552 Beacon Avenue South Seattle 98144,Restaurants
The Coupe & Flute,-122.3100728,47.5765014,3015 Beacon Avenue South Seattle 98144,Restaurants
Phở Bắc Súp Shop,-122.3153831,47.5994792,1240 South Jackson Street Seattle 98144,Restaurants
Meskel,-122.2985585,47.6077969,2605 East Cherry Street Seattle 98122,Restaurants
Cora,-122.3164747,47.6111764,926 12th Avenue Seattle 98122,Restaurants
Migoto,-122.3165151,47.6067257,514 12th Avenue Seattle 98122,Restaurants
Ba Bar,-122.3165029,47.6070111,550 12th Avenue Seattle 98122,Restaurants
HoneyHole,-122.3150936,47.6059969,1305 East Jefferson Street Seattle 98122,Restaurants
The Spot West Seattle,-122.3709228,47.5704296,2920 Southwest Avalon Way Seattle 98126,Restaurants
Pig Iron BBQ,-122.3339178,47.5526,5602 1st Avenue South Seattle 98108,Restaurants
Sirenito Marisqueria,-122.3179602,47.5499894,5901 Airport Way South Seattle 98108,Restaurants
Buddha Ruksa,-122.3772252,47.5648618,3520 Southwest Genesee Street Seattle 98126,Restaurants
Basilic,-122.3499259,47.6255872,352 Roy Street Seattle 98109,Restaurants
Bahn Thai,-122.348371,47.6252461,409 Roy Street Seattle 98109,Restaurants
Uptown China,-122.3564836,47.6199475,200 Queen Anne Avenue North Seattle 98109,Restaurants
Phó Bò,-122.285691,47.5596174,4732 Rainier Avenue South Seattle 98118,Restaurants
Super Six,-122.2854026,47.5572462,3714 South Hudson Street Seattle 98118,Restaurants
Bahati,-122.2829198,47.5557338,5212 Rainier Avenue South Seattle 98118,Restaurants
Sam Choy's Poke to the Max,-122.2803007,47.553995,5300 Rainier Avenue South Seattle 98118,Restaurants
,-122.2777702,47.5522535,5520 Rainier Avenue South Seattle 98118,Restaurants
Pecado Bueno,-122.3503686,47.6592481,4307 Fremont Avenue North Seattle 98103,Restaurants
Chaiyo Thai,-122.3128347,47.7154355,11749 15th Avenue Northeast Seattle 98125,Restaurants
Chiang's Gourmet,-122.3143458,47.6863506,7845 Lake City Way Northeast Seattle 98115,Restaurants
Brunello Ristorante,-122.3176709,47.6806399,7115 Roosevelt Way Northeast Seattle 98115,Restaurants
House of Hong,-122.3228467,47.5988794,409 8th Avenue South Seattle 98104,Restaurants
Spring House Thai Kitchen & Pho,-122.3868672,47.5833591,2223 California Avenue Southwest Seattle 98116,Restaurants
IHOP,-122.3197223,47.6118717,950 East Madison Street Seattle 98122,Restaurants
Burger Boss,-122.3589848,47.5211747,9061 Delridge Way Southwest Seattle 98106,Restaurants
Bamboo Village,-122.3402653,47.6645562,4900 Stone Way North Seattle 98103,Restaurants
RoRo BBQ,-122.3424383,47.6512058,3620 Stone Way North Seattle 98103,Restaurants
Mamnoon,-122.3276016,47.6143913,1508 Melrose Avenue Seattle ,Restaurants
Pho Tic-Tac,-122.3454478,47.7346493,,Restaurants
Taqueria El Sabor,-122.3456908,47.7397141,15221 Aurora Avenue North ,Restaurants
Plaza Garcia Mexican Restaurant,-122.2371849,47.7087346,12108 Juanita Drive Northeast Kirkland 98034,Restaurants
Westward,-122.3288156,47.651748,2501 North Northlake Way Seattle 98103,Restaurants
Patty's Eggnest,-122.3266023,47.6611617,,Restaurants
El Grito Taqueria,-122.333986,47.6206954,234 Fairview Avenue North Seattle 98109,Restaurants
Tung Kee Mí Gia,-122.3554601,47.502543,11205 16th Avenue Southwest Seattle 98146,Restaurants
Bizzarro Italian Cafe,-122.3555257,47.5162014,9635 16th Avenue Southwest Seattle 98106,Restaurants
Viva Mexico,-122.3554482,47.5083874,10601 16th Avenue Southwest Seattle 98146,Restaurants
Pizza Hut,-122.3545143,47.5098794,1517 Southwest 104th Street Seattle 98146,Restaurants
White Center Pizza and Spaghetti House,-122.3554734,47.5108967,10231 16th Avenue Southwest Seattle 98146,Restaurants
Pho White Center,-122.354922,47.5160863,9642 16th Avenue Southwest Seattle 98106,Restaurants
Yummy Grill,-122.3525006,47.5159559,9650 14th Avenue Southwest Seattle 98106,Restaurants
Aloha Plates,-122.3271903,47.5974013,511 South Weller Street Seattle 98104,Restaurants
Boiling Point,-122.3274522,47.5967926,610 5th Avenue South ,Restaurants
Beard Papa's,-122.3273109,47.5973954,503 South Weller Street Seattle 98104,Restaurants
Saigon Streets,-122.3272502,47.5973953,507 South Weller Street Seattle 98104,Restaurants
Samurai Noodle,-122.3275121,47.5971808,606 5th Avenue South Seattle 98104,Restaurants
BeanFish,-122.3270512,47.5973944,517 South Weller Street Seattle 98104,Restaurants
Thai Place,-122.3273947,47.5973958,503 South Weller Street Seattle 98104,Restaurants
The Crab Pot,-122.3410818,47.6060103,1301 Alaskan Way Seattle ,Restaurants
The Fisherman's Restaurant & Bar,-122.342166,47.6060389,1301 Alaskan Way ,Restaurants
The Salmon Cooker,-122.3407528,47.6060073,1301 Alaskan Way Seattle 98121,Restaurants
Flo-Anna's Diner,-122.2927667,47.7356944,14707 Bothell Way Northeast Shoreline 98155,Restaurants
Botteco Brazil Restaurant,-122.2928996,47.7354473,14561 Bothell Way Northeast Shoreline ,Restaurants
The Patio,-122.3123408,47.6240448,524 15th Avenue East Seattle 98112,Restaurants
Noren Sushi Kitchen and Bar,-122.3270471,47.614323,320 East Pike Street Seattle 98122,Restaurants
Donburi Station,-122.3211321,47.5531663,5503 Airport Way South Seattle 98108,Restaurants
Yu Shan Chinese Restaurant,-122.2928184,47.7352112,14553 Bothell Way Northeast Shoreline ,Restaurants
No. 9 Alley Hot Pot,-122.3470871,47.7235735,930 North 130th Street Seattle 98133,Restaurants
Primo Pizza Parlor,-122.3290726,47.6089928,1106 8th Avenue Seattle 98101,Restaurants
The Guest House,-122.2499777,47.738497,6810 Northeast 153rd Place Kenmore 98028,Restaurants
Phở Bắc Red Boat,-122.3147699,47.5993869,1314 South Jackson Street Seattle 98144,Restaurants
Pagliacci Pizza,-122.2927943,47.6255321,3015 East Madison Street Seattle 98112,Restaurants
Kizuki Ramen,-122.2184319,47.4901505,505 Rainier Avenue North Renton 98057,Restaurants
Best Cafe & Teriyaki,-122.2893255,47.5042643,10990 East Marginal Way South Tukwila 98168,Restaurants
Tommy's Cafe,-122.2168607,47.48359,105 South Tobin Street Renton 98057,Restaurants
El Muchado Alegre,-122.2153534,47.4847214,111 Airport Way Renton 98057,Restaurants
Royal Orchid Thai,-122.2168497,47.4827736,104 Rainier Avenue South Renton 98057,Restaurants
Fisherman's Bistro,-122.3421896,47.6060827,,Restaurants
Shucky Muckers,-122.3419373,47.6061728,,Restaurants
Sourdough Pizza,-122.3420155,47.605975,,Restaurants
Yukon Jack's BBQ,-122.3419277,47.605975,,Restaurants
Taqueria El Burro,-122.3418439,47.6059747,,Restaurants
Aerlume,-122.3447491,47.6106372,2003 Western Avenue ,Restaurants
Dash of Soy,-122.3230437,47.541785,6726 Corson Avenue South Seattle 98108,Restaurants
Old 76,-122.2381622,47.5885721,2411 76th Avenue Southeast Mercer Island ,Restaurants
Briley's BBQ and Grill,-122.2899359,47.7385832,15030 Bothell Way Northeast Lake Forest Park 98155,Restaurants
El Camion,-122.390151,47.5204431,,Restaurants
Bowriders Grill,-122.3284972,47.6516262,101 North Northlake Way Seattle 98103,Restaurants
Pho & Bao,-122.3124329,47.7350463,14602 15th Avenue Northeast ,Restaurants
Starbucks,-122.3210607,47.6188627,101 Broadway East Seattle 98102,Coffee shops
Lula Coffee,-122.3869867,47.5632158,4453 California Avenue Southwest Seattle 98116,Coffee shops
Cupcake Royale,-122.3865559,47.5612196,4556 California Avenue Southwest Seattle 98116,Coffee shops
Uptown Espresso,-122.3875646,47.5591717,4301 Southwest Edmunds Street Seattle 98116,Coffee shops
Wildflour,-122.3869938,47.5608253,4709 California Avenue Southwest Seattle 98116,Coffee shops
Starbucks,-122.41116,47.5788477,,Coffee shops
Cowen Park Grocery,-122.3144575,47.671152,1217 Northeast Ravenna Boulevard Seattle 98105,Coffee shops
Starbucks,-122.399808,47.6397122,3300 West McGraw Street Seattle 98199,Coffee shops
Uptown Espresso,-122.3994577,47.639422,3223 West McGraw Street Seattle 98199,Coffee shops
Serendipity Cafe,-122.399429,47.6397036,3222 West McGraw Street Seattle 98199,Coffee shops
Nutty Squirrel Gelato - Magnolia,-122.3997907,47.6403282,2425 33rd Avenue West Seattle 98199,Coffee shops
Cafe Javasti,-122.3228343,47.6900727,8410 5th Avenue Northeast Seattle 98115,Coffee shops
Starbucks,-122.22588,47.5417388,,Coffee shops
Mighty-O Donuts,-122.33323,47.6687913,2110 North 55th Street Seattle 98103,Coffee shops
Zeitgeist Coffee,-122.331856,47.599091,171 South Jackson Street Seattle 98104,Coffee shops
Mosaic Coffeehouse,-122.3274988,47.660387,,Coffee shops
Herkimer Coffee - Phinney Ridge,-122.3551067,47.6824348,7320 Greenwood Avenue North Seattle 98103,Coffee shops
Fiore Sunset Hill,-122.3980417,47.6904588,3125 Northwest 85th Street ,Coffee shops
Turtle Coffee,-122.3748929,47.694443,,Coffee shops
The Fat Hen,-122.3745013,47.6796262,1418 Northwest 70th Street Seattle 98117,Coffee shops
Cupcake Royale,-122.3843499,47.6688461,2052 Northwest Market Street Seattle 98107,Coffee shops
The Dish,-122.3657841,47.6603199,4358 Leary Way Northwest Seattle 98107,Coffee shops
Starbucks,-122.3339641,47.6015625,102 1st Avenue South Seattle 98104,Coffee shops
Café Urban Bakery,-122.336541,47.6857444,7850 East Green Lake Drive North Seattle 98103,Coffee shops
Café On The Ave,-122.3133866,47.6584393,4201 University Way Northeast Seattle 98105,Coffee shops
Bobalust,-122.3132723,47.6628191,,Coffee shops
Oasis Tea Zone,-122.3129464,47.6620812,4524 University Way Northeast 98105,Coffee shops
Seattle Best Tea Co.,-122.313301,47.6614794,4505 University Way Northeast Seattle 98105,Coffee shops
Heartland Cafe,-122.385724,47.5813387,,Coffee shops
Herkimer Coffee - Ravenna,-122.3132234,47.669801,5611 University Way Northeast Seattle 98105,Coffee shops
Starbucks,-122.3353602,47.580644,,Coffee shops
Caffe Vita,-122.3501761,47.659062,4301 Fremont Avenue North Seattle 98103,Coffee shops
Eltana Bagels,-122.316641,47.615021,1538 12th Avenue Seattle 98122,Coffee shops
Caffe Ladro,-122.3532394,47.6521307,452 North 36th Street Seattle 98103,Coffee shops
Mas Café,-122.3345878,47.6481547,1906 North 34th Street 98103,Coffee shops
Chocolati Café,-122.336844,47.6614926,1716 North 45th Street Seattle 98103,Coffee shops
YoYo & CoCo,-122.3364392,47.6612786,1719 North 45th Street Seattle 98103,Coffee shops
Fuel,-122.336944,47.6612827,1705 North 45th Street Seattle 98103,Coffee shops
Starbucks,-122.3400728,47.6299509,1200 Westlake Avenue North ,Coffee shops
Boathouse Deli,-122.3398693,47.6353957,1818 Westlake Avenue North Seattle 98109,Coffee shops
Starbucks,-122.308621,47.6556026,,Coffee shops
E.T.G. Coffee,-122.3504187,47.6509602,3512 Fremont Place North Seattle 98103,Coffee shops
Lighthouse Roasters,-122.3542449,47.6590626,400 North 43rd Street Seattle 98103,Coffee shops
Starbucks,-122.3165764,47.6093696,800 12th Avenue Seattle 98122,Coffee shops
By George,-122.310505,47.6562507,,Coffee shops
Caffe Vita,-122.3190238,47.6138902,1005 East Pike Street Seattle 98122,Coffee shops
Cafe Lulu,-122.3255978,47.6756476,6417 Latona Avenue Northeast 98115,Coffee shops
Mediterranean Mix,-122.334398,47.6006761,205 1st Avenue South Seattle 98104,Coffee shops
Bulldog News,-122.3130437,47.6585573,4208 University Way Northeast Seattle 98105,Coffee shops
Starbucks,-122.3134196,47.658195,4147 University Way Northeast Seattle 98105,Coffee shops
Cafe Solstice,-122.3130573,47.6574105,4116 University Way Northeast Seattle 98105,Coffee shops
Diva Espresso,-122.3419463,47.6627178,4615 Stone Way North Seattle 98103,Coffee shops
Top Pot Doughnuts,-122.325475,47.6246357,609 Summit Avenue East Seattle 98102,Coffee shops
Victrola Coffee Roasters,-122.312829,47.6223517,411 15th Avenue East Seattle 98112,Coffee shops
Van Gogh Coffeehouse,-122.290173,47.6889314,,Coffee shops
Stone Way Cafe,-122.3430069,47.6503315,3525 Stone Way North Seattle 98103,Coffee shops
Starbucks,-122.2352494,47.5864226,,Coffee shops
Caffé Fiore,-122.3862776,47.5836323,2206 California Avenue Southwest ,Coffee shops
Starbucks,-122.3369538,47.6228655,442 Terry Avenue North 98109,Coffee shops
Uptown Espresso,-122.3462858,47.6169346,2504 4th Avenue Seattle 98121,Coffee shops
Top Pot Doughnuts,-122.341243,47.61515,2124 5th Avenue ,Coffee shops
Starbucks,-122.363926,47.7015346,9999 Holman Road Northwest Seattle 98117,Coffee shops
Cafe Javasti,-122.290881,47.6914198,8617 35th Avenue Northeast 98115,Coffee shops
Caffe Vita,-122.347723,47.6267583,813 5th Avenue North Seattle 98109,Coffee shops
Starbucks,-122.2997452,47.662684,4634 26th Avenue Northeast Seattle ,Coffee shops
Zoka Coffee - University,-122.2972079,47.6658287,,Coffee shops
Starbucks,-122.280812,47.6341044,,Coffee shops
Caffe Ladro,-122.3128173,47.6229877,435 15th Avenue East ,Coffee shops
Starbucks,-122.2369048,47.5870799,,Coffee shops
Caffé Vita,-122.2701248,47.5560767,5028 Wilson Avenue South ,Coffee shops
QED Coffee,-122.2922255,47.5896845,1418 31st Avenue South Seattle 98144,Coffee shops
Starbucks,-122.285358,47.6020673,,Coffee shops
Starbucks,-122.3320965,47.7082314,2137 North Northgate Way Seattle 98133,Coffee shops
Diva Espresso,-122.355787,47.7067227,10555 Greenwood Avenue North Seattle 98133,Coffee shops
Jebena Cafe,-122.3119049,47.7141249,1510 Northeast 117th Street 98125,Coffee shops
Starbucks,-122.313121,47.7335331,,Coffee shops
Grateful Bread Baking Co,-122.2906625,47.6797002,7001 35th Avenue Northeast ,Coffee shops
Starbucks,-122.290647,47.6814027,,Coffee shops
Vios Cafe,-122.3064262,47.6758876,6504 20th Avenue Northeast ,Coffee shops
Eastlake Coffee & Cafe,-122.326075,47.6396282,2245 Eastlake Avenue East Seattle 98102,Coffee shops
Cafe Osita,-122.3768542,47.5358005,7349 35th Avenue Southwest ,Coffee shops
Starbucks,-122.3655602,47.5227467,9023 25th Avenue Southwest Seattle 98106,Coffee shops
Bird on a Wire,-122.3772028,47.5227493,,Coffee shops
Katy's Corner Cafe,-122.3060798,47.6130546,2000 East Union Street ,Coffee shops
Cafe Noir,-122.3051008,47.6132472,1411 21st Avenue ,Coffee shops
Dubsea Coffee,-122.345077,47.5145496,9910 8th Avenue Southwest Seattle 98106,Coffee shops
Starbucks,-122.3570985,47.6382428,2135 Queen Anne Avenue North 98109,Coffee shops
Caffè Appassionato,-122.3837069,47.6560771,4001 21st Avenue West Seattle 98199,Coffee shops
Bay Cafe,-122.3803558,47.6557257,1900 West Nickerson Street 98119,Coffee shops
Zoka Coffee - South Lake Union,-122.336121,47.6217104,,Coffee shops
Porchlight Coffee,-122.3144417,47.6146738,1517 14th Avenue Seattle 98122,Coffee shops
Wet Clay Cafe,-122.343591,47.6494094,1109 North 35th Street Seattle 98103,Coffee shops
Greenwood Chocolati Cafe,-122.3554992,47.6897312,8319 Greenwood Avenue North 98103,Coffee shops
The Ugly Mug,-122.3138263,47.6597146,1309 Northeast 43rd Street Seattle 98105,Coffee shops
Cafe Allegro,-122.312716,47.6586927,,Coffee shops
Simply Desserts,-122.3500314,47.6502718,3421 Fremont Avenue North Seattle 98103,Coffee shops
Top Pot Doughnuts,-122.373877,47.6627763,1416 Northwest 46th Street Seattle 98107,Coffee shops
Coffee Mind,-122.370557,47.6362491,1907 10th Avenue West Seattle 98119,Coffee shops
Cafe Besalu,-122.3878282,47.6719658,5909 24th Avenue Northwest Seattle 98107,Coffee shops
S & L Cafe,-122.3647719,47.6394797,535 West McGraw Street Seattle 98119,Coffee shops
Caffè Fiore,-122.360822,47.6324599,224 West Galer Street Seattle 98119,Coffee shops
Top Pot Doughnuts,-122.361613,47.6322072,325 West Galer Street Seattle 98119,Coffee shops
Natalie's on Alki,-122.4063283,47.5805845,2532 Alki Avenue Southwest ,Coffee shops
Ampersand,-122.4066648,47.5804548,2536 Alki Avenue Southwest ,Coffee shops
Heuk Hwa Dang,-122.3424975,47.6615362,1218 North 45th Street Seattle 98103,Coffee shops
All City Coffee,-122.3171131,47.54902,1205 South Vale Street 98108,Coffee shops
A Muddy Cup,-122.3253013,47.6614916,266 Northeast 45th Street ,Coffee shops
Moore Coffee,-122.341267,47.6116348,1930 2nd Avenue ,Coffee shops
Broadcast Coffee,-122.306579,47.6017892,1918 East Yesler Way Seattle 98122,Coffee shops
Caffe Ladro,-122.3571017,47.6386532,2205 Queen Anne Avenue North Seattle 98109,Coffee shops
Detour Espresso,-122.3031828,47.5852165,,Coffee shops
Cafe Hitchcock Express,-122.3345882,47.6042553,821 2nd Avenue ,Coffee shops
Starbucks,-122.3356617,47.603795,823 1st Avenue Seattle 98104,Coffee shops
Young Tea,-122.333122,47.661502,2110 North 45th Street 98103,Coffee shops
Fainting Goat Gelato,-122.3347126,47.6612662,1903 North 45th Street 98103,Coffee shops
Honor Coffee,-122.3210701,47.6197011,131 Broadway East Seattle 98102,Coffee shops
Itto's Tapas Bar,-122.3865627,47.5648061,4160 California Avenue Southwest 98116,Coffee shops
Starbucks,-122.3875239,47.5446321,,Coffee shops
Starbucks,-122.336014,47.581054,2401 Utah Avenue South Seattle ,Coffee shops
Kathmandu MoMocha,-122.3369023,47.6237702,520 Terry Avenue North Seattle 98109,Coffee shops
Eltana,-122.3422243,47.6542642,3920 Stone Way North Seattle 98103,Coffee shops
Hi-Spot Cafe,-122.2891431,47.6132884,1410 34th Avenue Seattle 98122,Coffee shops
Makeda & Mingus,-122.3556782,47.6853627,153 North 78th Street Seattle 98103,Coffee shops
Rubinstein Bagels,-122.312829,47.622121,403 15th Avenue East Seattle 98112,Coffee shops
Ada's Technical Books and Cafe,-122.312892,47.6226867,425 15th Avenue East Seattle 98112,Coffee shops
Espresso Vivace - Brix,-122.3206383,47.6237662,532 Broadway East Seattle 98102,Coffee shops
Caffe Zingaro,-122.3542783,47.624468,127 Mercer Street Seattle 98109,Coffee shops
Juisala,-122.3363845,47.6605063,4405 Wallingford Avenue North Seattle 98103,Coffee shops
Cafe Bambino,-122.3621375,47.6758453,405 Northwest 65th Street Seattle 98117,Coffee shops
Chocolat Vitale,-122.3609677,47.6757846,6257 3rd Avenue Northwest Seattle 98107,Coffee shops
Slate Coffee Roasters,-122.3634371,47.6683336,5413 6th Avenue Northwest Seattle 98107,Coffee shops
Java Jahn,-122.374939,47.663833,1428 Northwest Leary Way Seattle 98107,Coffee shops
Mighty-O Donuts,-122.3787179,47.6685132,1555 Northwest Market Street Seattle 98107,Coffee shops
Assembly,-122.3790716,47.6690126,5507 17th Avenue Northwest Seattle 98107,Coffee shops
Poke Square,-122.3790841,47.6685058,1701 Northwest Market Street Seattle 98107,Coffee shops
Root,-122.3819747,47.6656029,5000 20th Avenue Northwest Seattle 98107,Coffee shops
Anchored Ship,-122.3833153,47.6667214,5308 Ballard Avenue Northwest Seattle 98107,Coffee shops
Sabine,-122.3836103,47.66655,5307 Ballard Avenue Northwest Seattle 98107,Coffee shops
Wildflour,-122.3825173,47.6672738,5404 Leary Avenue Northwest Seattle 98107,Coffee shops
Ballard Coffee Works,-122.3845238,47.6688437,2060 Northwest Market Street Seattle 98107,Coffee shops
Starbucks,-122.3849094,47.6688438, Northwest Market Street Seattle 98107,Coffee shops
Starbucks,-122.3298052,47.5666765,4115 4th Avenue South Seattle 98134,Coffee shops
Venture Coffee,-122.3878342,47.6715284,5819 24th Avenue Northwest Seattle 98107,Coffee shops
Seattle Meowtropolitan,-122.3429114,47.661252,1225 North 45th Street Seattle 98103,Coffee shops
Aroom,-122.3427951,47.6531504,3801 Stone Way North Seattle 98103,Coffee shops
La Copa Café,-122.3880911,47.6869168,2410 Northwest 80th Street Seattle 98117,Coffee shops
Mabel,-122.3877497,47.6796112,7001 24th Avenue Northwest Seattle 98117,Coffee shops
Cafe Con Todo,-122.356002,47.6524099,213 North 36th Street Seattle 98103,Coffee shops
Hot Cakes,-122.3238328,47.6198759,1650 East Olive Way Seattle 98102,Coffee shops
Analog Coffee,-122.325462,47.6207259,235 Summit Avenue East Seattle 98102,Coffee shops
General Porpoise Doughnuts - Capitol Hill,-122.3187217,47.6130776,1020 East Union Street Seattle 98122,Coffee shops
Dingfelder’s Delicatessen,-122.3144924,47.615431,1318 East Pine Street Seattle 98122,Coffee shops
Drip Tea,-122.3192083,47.6133604,1416 10th Avenue Seattle 98122,Coffee shops
Bobabucha Cafe,-122.3129642,47.6154471,1424 East Pine Street Seattle 98122,Coffee shops
Hi Tea Cafe,-122.3206398,47.6200664,202 Broadway East Seattle 98102,Coffee shops
Café Racer,-122.317972,47.6144779,1510 11th Avenue Seattle 98122,Coffee shops
Pho 4 You,-122.3285088,47.6148431,1201 Pine Street Seattle 98101,Coffee shops
Half and Half Doughnut Co.,-122.324812,47.6142364,516 East Pike Street Seattle 98122,Coffee shops
NEKO Cat Cafe,-122.324833,47.6151081,519 East Pine Street Seattle 98122,Coffee shops
El Lugar,-122.3239879,47.6153627,606 East Pine Street Seattle 98122,Coffee shops
Realfine Coffee,-122.3236427,47.6153631,616 East Pine Street Seattle 98122,Coffee shops
Sugar Bakery & Cafe,-122.3258494,47.609175,1014 Madison Street Seattle 98104,Coffee shops
MariPili,-122.3169927,47.6120944,1117 12th Avenue Seattle 98122,Coffee shops
Top Pot Doughnuts,-122.323827,47.6100591,1206 Madison Street Seattle 98104,Coffee shops
Coffee Tree and Poke,-122.3253983,47.6059309,613 9th Avenue Seattle 98104,Coffee shops
La Dive,-122.3224625,47.6139497,721 East Pike Street Seattle 98122,Coffee shops
Coffee Tree,-122.3281984,47.6073387,905 8th Avenue Seattle 98104,Coffee shops
B. Fuller's Mortar & Pestle,-122.3505377,47.6513068,617 North 36th Street Seattle 98103,Coffee shops
Milstead & Co.,-122.3476154,47.649393,754 North 34th Street Seattle 98103,Coffee shops
Starbucks,-122.3398869,47.6090525,,Coffee shops
Fuel,-122.301911,47.6396555,2300 24th Avenue East Seattle 98112,Coffee shops
Copper Tree Coffee House,-122.3199005,47.6415551,2406 10th Avenue East Seattle 98102,Coffee shops
Starbucks,-122.3454817,47.7243097,13025 Aurora Avenue North Seattle 98133,Coffee shops
Fainting Goat Gelato,-122.3500078,47.6501499,3415 Fremont Avenue North 98103,Coffee shops
Cloud City Coffee,-122.3180005,47.6922672,8801 Roosevelt Way Northeast Seattle 98115,Coffee shops
Top Pot Doughnuts,-122.336616,47.6240592,590 Terry Avenue North Seattle 98109,Coffee shops
Leon Coffee House,-122.3138179,47.6611648,1309 Northeast 45th Street Seattle 98105,Coffee shops
Möge Tee,-122.3129706,47.6607738,4334 University Way Northeast Seattle 98105,Coffee shops
O Dessert,-122.3133443,47.663792,4727 University Way Northeast Seattle 98105,Coffee shops
Koa,-122.3129388,47.6646779,4754 University Way Northeast Seattle 98105,Coffee shops
Jake's Coffee,-122.3156568,47.6632259,1116 Northeast 47th Street Seattle 98105,Coffee shops
Broadfork Cafe,-122.3154104,47.6648079,4757 12th Avenue Northeast Seattle 98105,Coffee shops
Timeless Tea,-122.3171865,47.6652711,1000 Northeast 50th Street Seattle 98105,Coffee shops
Mei Mei Cafe,-122.3170658,47.6652711,1004 Northeast 50th Street Seattle 98105,Coffee shops
Herkimer Coffee,-122.342541,47.6272667,901 Dexter Avenue North Seattle 98109,Coffee shops
World Class Coffee & Deli,-122.3515147,47.617283,2819 2nd Avenue Seattle 98121,Coffee shops
Street Bean Espresso,-122.3494842,47.6172661,2711 3rd Avenue Seattle 98121,Coffee shops
Cherry Street Coffee House,-122.3514425,47.6160838,2719 1st Avenue Seattle 98121,Coffee shops
Tilikum Place Cafe,-122.3475939,47.6179341,407 Cedar Street Seattle 98121,Coffee shops
Macrina Bakery - Belltown,-122.3479803,47.6144699,2408 1st Avenue Seattle 98121,Coffee shops
Bang Bang Cafe,-122.349302,47.6140207,2460 Western Avenue Seattle 98121,Coffee shops
Pluto Organic Cafe,-122.3454407,47.6176475,2502 5th Avenue Seattle 98121,Coffee shops
La Parisienne,-122.3466978,47.6167902,2507 4th Avenue Seattle 98121,Coffee shops
Artisan Cafe,-122.3462629,47.6177081,2523 5th Avenue Seattle 98121,Coffee shops
Biscuit Bitch - Belltown,-122.3452052,47.6147074,2303 3rd Avenue Seattle 98121,Coffee shops
The Yellow Leaf Cupcake Co.,-122.343103,47.6146717,2209 4th Avenue Seattle 98121,Coffee shops
Deli Shez Cafe,-122.3431513,47.6143716,318 Blanchard Street Seattle 98121,Coffee shops
Monorail Espresso,-122.3380418,47.6172956,2120 Westlake Avenue Seattle 98121,Coffee shops
Starbucks,-122.3372805,47.61813,2121;2119 Terry Avenue Seattle 98121,Coffee shops
3rd Ave Cafe,-122.3399314,47.6120244,1908 3rd Avenue Seattle 98101,Coffee shops
Freshy's,-122.3868516,47.5784064,2735 California Avenue Southwest Seattle 98116,Coffee shops
Bánh Town,-122.355837,47.7044236,10414 Holman Road North Seattle 98133,Coffee shops
Verite Coffee,-122.2895311,47.6117568,1101 34th Avenue Seattle 98122,Coffee shops
Mr. West Cafe Bar,-122.289146,47.6127084,1136 34th Avenue Seattle 98122,Coffee shops
Olympia Coffee,-122.285298,47.5587714,4824 Rainier Avenue South Seattle 98118,Coffee shops
Fulcrum Coffee Roasters,-122.3377893,47.5611547,4660 Ohio Avenue South Seattle 98134,Coffee shops
Café Hagen,-122.356749,47.6382407,2128 Queen Anne Avenue North Seattle 98109,Coffee shops
Jujubeet - Pioneer Square,-122.3343862,47.6014189,107 1st Avenue South Seattle 98104,Coffee shops
Che Sarà Sarà,-122.3339812,47.6001752,222 1st Avenue South Seattle 98104,Coffee shops
Pioneer Square Juice & Java,-122.3351892,47.6016142,79 Yesler Way Seattle 98104,Coffee shops
Café Paloma,-122.3346682,47.6016165,93 Yesler Way Seattle 98104,Coffee shops
Diva Espresso,-122.3319091,47.6018794,502 2nd Avenue Seattle 98104,Coffee shops
Flame Catering Cafe,-122.3310847,47.6021233,503 3rd Avenue Seattle 98104,Coffee shops
La Bodega,-122.3295727,47.6015509,100 Prefontaine Place South Seattle 98104,Coffee shops
Caffe Vita,-122.329437,47.6010326,125 Prefontaine Place South Seattle 98104,Coffee shops
D and E,-122.331365,47.5995086,314 2nd Avenue South Seattle 98104,Coffee shops
Caffè Umbria,-122.332689,47.5993857,320 Occidental Avenue South Seattle 98104,Coffee shops
Uptown Espresso,-122.3550746,47.6147937,2801 Alaskan Way Seattle 98121,Coffee shops
Cherry Street Coffee House,-122.334204,47.6027182,700 1st Avenue Seattle 98104,Coffee shops
Caffe Ladro,-122.356509,47.6253524,600 Queen Anne Avenue North Seattle 98109,Coffee shops
Mecca Cafe & Bar,-122.356588,47.6241005,526 Queen Anne Avenue North Seattle 98109,Coffee shops
Kaffa Coffee & Wine Bar,-122.2697126,47.5298764,8136 Rainier Avenue South Seattle 98118,Coffee shops
Cafe Hương Quê,-122.281982,47.5381809,7127 Martin Luther King Junior Way South Seattle 98118,Coffee shops
Victrola Coffee Roasters,-122.3093005,47.5745978,3215 Beacon Avenue South Seattle 98144,Coffee shops
Byrek + Baguette,-122.316552,47.6089415,732 12th Avenue Seattle 98122,Coffee shops
Batch Baking Company,-122.3165667,47.6095403,808 12th Avenue Seattle 98122,Coffee shops
Peloton Cafe,-122.3156535,47.6063134,1224 East Jefferson Street Seattle 98122,Coffee shops
Q.E.D. Coffee,-122.3205397,47.6067273,512 Broadway Seattle 98122,Coffee shops
URL,-122.3205283,47.6069484,524 Broadway Seattle 98122,Coffee shops
Uptown Espresso,-122.3636703,47.5687185,3845 Delridge Way Southwest Seattle 98106,Coffee shops
Intrigue Chocolate Co.,-122.3122353,47.6328954,1520 15th Avenue East Seattle 98112,Coffee shops
Fuel,-122.307136,47.624752,610 19th Avenue East Seattle 98112,Coffee shops
Overcast Coffee Company,-122.31249,47.621029,312 15th Avenue East Seattle 98112,Coffee shops
Moli Bento,-122.3125209,47.6211399,316 15th Avenue East Seattle 98112,Coffee shops
The Shop Agora,-122.312493,47.6219057,346 15th Avenue East Seattle 98112,Coffee shops
Youngstown Coffee Co.,-122.3869478,47.5474894,6032 California Avenue Southwest Seattle 98136,Coffee shops
Brother Joe,-122.3192206,47.5513964,5629 Airport Way South Seattle 98108,Coffee shops
Square Knot,-122.3167201,47.5489004,6015 Airport Way South Seattle 98108,Coffee shops
Harried & Hungry Cafe,-122.327849,47.5456105,515 South Michigan Street Seattle 98108,Coffee shops
Sharetea,-122.3846068,47.5601093,4740 42nd Avenue Southwest Seattle 98116,Coffee shops
Fiddlehead,-122.3873095,47.5630579,4310 Southwest Oregon Street Seattle 98116,Coffee shops
Cobb's Popcorn,-122.3410359,47.6084177,1500 Western Avenue Seattle 98101,Coffee shops
Perennial Tea Room,-122.3421051,47.6102361,1910 Post Alley Seattle 98101,Coffee shops
Starbucks,-122.3425796,47.6100077,1912 Pike Place Seattle 98101,Coffee shops
Seattle Coffee Works,-122.3406212,47.6100865,106 Pine Street Seattle 98101,Coffee shops
Cupcake Royale,-122.3405426,47.610122,108 Pine Street Seattle 98101,Coffee shops
Caffe Ladro,-122.3388758,47.6080742,108 Union Street Seattle 98101,Coffee shops
Freya Bakery and Cafe,-122.340713,47.6081274,1426 Western Avenue Seattle 98101,Coffee shops
Ellenos Real Greek Yogurt,-122.340581,47.6088194,1500 Pike Place Seattle 98101,Coffee shops
Copacabana Cafe,-122.3412642,47.6092405,1520 Pike Place Seattle 98101,Coffee shops
Truffle Queen,-122.341335,47.6092872,1524 Pike Place Seattle 98101,Coffee shops
The Juice Emporium,-122.3413987,47.6093252,1528 Pike Place Seattle 98101,Coffee shops
Pike Place Chowder,-122.34123,47.6094025,1530 Post Alley Seattle 98101,Coffee shops
Seeking Kombucha,-122.3361264,47.6206528,1091 Thomas Street Seattle 98109,Coffee shops
Koku Cafe + Market,-122.3569891,47.6321786,1417 Queen Anne Avenue North Seattle 98109,Coffee shops
Café GoldInBlack,-122.356884,47.6251992,621 Queen Anne Avenue North Seattle 98109,Coffee shops
Starbucks,-122.3569216,47.622926,421 Queen Anne Avenue North Seattle 98109,Coffee shops
Seattle Grind,-122.3470197,47.622335,516 Harrison Street Seattle 98109,Coffee shops
Sugar Bakery,-122.3548432,47.6233879,110 Republican Street Seattle 98109,Coffee shops
Rabbit Rabbit,-122.3552071,47.623898,518 1st Avenue North Seattle 98109,Coffee shops
Zoka Coffee - Greenlake,-122.332867,47.6688114,2200 North 56th Street Seattle 98103,Coffee shops
Hiroki,-122.3321999,47.6690054,2224 North 56th Street Seattle 98103,Coffee shops
Olé Café,-122.3338444,47.6685683,5421 Meridian Avenue North Seattle 98103,Coffee shops
NYC Deli Market,-122.3336528,47.612244,1520 7th Avenue Seattle 98101,Coffee shops
Starbucks,-122.3337235,47.6123184,1524 7th Avenue Seattle 98101,Coffee shops
Cherry Street Coffee House,-122.3368796,47.6127431,509 Olive Way Seattle 98101,Coffee shops
Wild Rye,-122.3320454,47.6123653,806 Pike Street Seattle 98101,Coffee shops
The Grilled Cheese Experience,-122.3309519,47.6123727,909 Pike Street Seattle 98101,Coffee shops
Victrola Coffee Roasters,-122.3386025,47.6109956,300 Pine Street Seattle 98101,Coffee shops
Monorail Espresso,-122.3353021,47.610966,510 Pike Street Seattle 98101,Coffee shops
Starbucks,-122.3357539,47.611808,515 Pine Street Seattle 98101,Coffee shops
4th Avenue Bites & Delights,-122.3342728,47.6078793,1206 4th Avenue Seattle 98101,Coffee shops
Gelatiamo,-122.336808,47.6089474,1400 3rd Avenue Seattle 98101,Coffee shops
Pane Pane Gourmet Sandwiches,-122.3367248,47.6089721,304 Union Street Seattle 98101,Coffee shops
Cherry Street Coffee,-122.3327412,47.6045162,808 3rd Avenue Seattle 98104,Coffee shops
Sen Noodle Bar,-122.3865657,47.6685293,2307 Northwest Market Street Seattle 98107,Coffee shops
Caffè Umbria,-122.3850091,47.6675718,5407 Ballard Avenue Northwest Seattle 98107,Coffee shops
Taproot Cafe & Bar,-122.2847237,47.5576176,4908 Rainier Avenue South Seattle 98118,Coffee shops
Bua 9 Thai Cuisine,-122.2837808,47.5564107,5020 Rainier Avenue South Seattle 98118,Coffee shops
Amy's Merkato,-122.27731,47.5509062,5710 Rainier Avenue South Seattle 98118,Coffee shops
Chatime,-122.285651,47.5475727,6014 Martin Luther King Junior Way South Seattle 98118,Coffee shops
Plume,-122.3008404,47.6667379,5101 25th Avenue Northeast 98105,Coffee shops
Bark Espresso,-122.3181297,47.7113739,11335 Roosevelt Way Northeast Seattle 98125,Coffee shops
Honore Patisserie & Espresso,-122.311858,47.687579,8056 Lake City Way Northeast Seattle 98115,Coffee shops
One Bite Cafe,-122.3162646,47.6759659,1026 Northeast 65th Street Seattle 98115,Coffee shops
Caffe Ladro,-122.314622,47.6760006,1222 Northeast 65th Street Seattle 98115,Coffee shops
Armistice Coffee,-122.3175895,47.6778492,6717 Roosevelt Way Northeast Seattle 98115,Coffee shops
Gyro House,-122.3274807,47.6004881,212 5th Avenue South Seattle 98104,Coffee shops
Eastern Cafe,-122.3248556,47.5979538,510 Maynard Avenue South Seattle 98104,Coffee shops
Oasis Tea House,-122.3265439,47.5977153,519 6th Avenue South Seattle 98104,Coffee shops
Ambrosia,-122.3254928,47.5982488,619 South King Street Seattle 98104,Coffee shops
TikTak,-122.3248828,47.5982368,651 South King Street Seattle 98104,Coffee shops
Young Tea,-122.325959,47.5974085,609 South Weller Street Seattle 98104,Coffee shops
Miro Tea,-122.3849363,47.6675124,5405 Ballard Avenue Northwest Seattle 98107,Coffee shops
Café 815 Mercer,-122.3400822,47.6236224,,Coffee shops
Bean & Bagel,-122.3128296,47.6554482,1410 Northeast 40th Street Seattle 98105,Coffee shops
Cafe Happy,-122.3128958,47.6554493,1408 Northeast 40th Street Seattle 98105,Coffee shops
Redwing Cafe,-122.2614222,47.5195304,9272 57th Avenue South Seattle 98118,Coffee shops
The Missing Piece,-122.3764,47.5176238,9456 35th Avenue Southwest Seattle 98126,Coffee shops
Realfine Coffee,-122.37643,47.5318213,7900 35th Avenue Southwest Seattle 98126,Coffee shops
Culture Kitchen Seattle,-122.347827,47.6218793,325 5th Avenue North Seattle ,Coffee shops
Jewel Box Cafe,-122.3245444,47.7024574,321 Northeast Thornton Place Seattle 98125,Coffee shops
Crepe Cafe,-122.304299,47.675906,2118 Northeast 65th Street Seattle 98115,Coffee shops
Juice Press,-122.2989951,47.6639486,2620 Northeast University Village Street Seattle 98105,Coffee shops
Starbucks,-122.2988382,47.6644178,2650 Northeast 49th Street Seattle 98105,Coffee shops
Homegrown,-122.2986167,47.6624126,2650 Northeast Village Lane Seattle 98105,Coffee shops
Mr. West,-122.2982294,47.6620948,2685 Northeast Village Lane Seattle 98105,Coffee shops
General Porpoise Doughnuts - Laurelhurst,-122.2933778,47.6621395,4520 Union Bay Place Northeast Seattle 98105,Coffee shops
Pasta & Co.,-122.2996882,47.6624108,4622 26th Avenue Northeast Seattle 98105,Coffee shops
Jose's Taqueria,-122.295501,47.7184023,12334 Lake City Way Northeast Seattle 98125,Coffee shops
A Cuisine of India,-122.295471,47.7184376,12336 Lake City Way Northeast Seattle 98125,Coffee shops
Gyro on Lake City,-122.2954251,47.7185232,12340 Lake City Way Northeast Seattle 98125,Coffee shops
Seatango,-122.29326,47.722113,12728 Lake City Way Northeast Seattle 98125,Coffee shops
Starbucks,-122.2919209,47.7329136,14330 Lake City Way Northeast Seattle 98125,Coffee shops
Mainstay Provisions,-122.3642553,47.6760988,612 Northwest 65th Street Seattle 98117,Coffee shops
Teasome,-122.3541436,47.6758576,6412 Phinney Avenue North Seattle 98103,Coffee shops
Revolutions Coffee,-122.3258459,47.680628,7208 East Green Lake Drive North Seattle 98115,Coffee shops
Luu’s,-122.3248217,47.6809727,7214 Woodlawn Avenue Northeast Seattle 98115,Coffee shops
Blue Heron,-122.3870862,47.6559581,4001 Gilman Avenue West Seattle 98199,Coffee shops
Blue Saucer Cafe,-122.3178803,47.6957309,9127 Roosevelt Way Northeast Seattle 98115,Coffee shops
Toshi's Teriyaki,-122.2875438,47.6611079,3715 Northeast 45th Street Seattle 98105,Coffee shops
Gretchen’s Place,-122.2758416,47.6679433,5432 Sand Point Way Northeast Seattle 98105,Coffee shops
Samir's Mediterranean Grill,-122.3135074,47.6599101,1316 Northeast 43rd Street Seattle 98105,Coffee shops
Dont Yell At Me,-122.313289,47.6616878,4511 University Way Northeast Seattle 98105,Coffee shops
Tea Republik,-122.3132998,47.6621119,4527 University Way Northeast Seattle 98105,Coffee shops
Ding Tea,-122.3133253,47.6638406,4725 University Way Northeast Seattle 98105,Coffee shops
Sharetea,-122.312946,47.6641042,4730 University Way Northeast Seattle 98105,Coffee shops
Rotunda Espresso,-122.3107853,47.6509554,1705 Northeast Pacific Street Seattle 98195,Coffee shops
Starbucks,-122.336968,47.613889,,Coffee shops
Starbucks,-122.335886,47.6143,1700 7th Avenue Seattle 98101,Coffee shops
Starbucks,-122.34278,47.612543,211 Lenora Street ,Coffee shops
Starbucks,-122.344409,47.617064,,Coffee shops
Zoka Coffee,-122.3555156,47.6813732,,Coffee shops
Home Espresso Repair and Cafe,-122.3545597,47.676041,6501 Phinney Avenue North ,Coffee shops
Starbucks,-122.335624,47.612661,600 Pine Street Seattle 98101,Coffee shops
Cafe Senso Unico,-122.3355284,47.6135839,622 Olive Way Seattle 98101,Coffee shops
Nordstrom eBar,-122.3360824,47.6120798,,Coffee shops
Starbucks,-122.3423034,47.6141153,,Coffee shops
Starbucks,-122.3576651,47.6234781,,Coffee shops
The Crumpet Shop,-122.3403898,47.6089676,1503 1st Avenue Seattle 98101,Coffee shops
Caffe Ladro,-122.3327191,47.6130444,801 Pine Street Seattle 98101,Coffee shops
Love + Flour,-122.296617,47.6230313,2719 East Madison Street Seattle 98112,Coffee shops
Ceres,-122.3512046,47.6213807,,Coffee shops
Premier Meat Pies,-122.3505545,47.6215503,,Coffee shops
Starbucks,-122.3507674,47.6211028,,Coffee shops
Pacific Science Center Cafe,-122.3511732,47.6197156,,Coffee shops
City Grind at the Henry,-122.3117406,47.6563901,4100 15th Avenue Northeast Seattle 98195,Coffee shops
Starbucks,-122.3397062,47.6048458,,Coffee shops
Cafe 56,-122.3403055,47.6053957,,Coffee shops
Ivar's Fish Bar,-122.338895,47.6039565,,Coffee shops
Starbucks,-122.2993853,47.6616704,2617 Northeast 46th Street Seattle 98105,Coffee shops
Starbucks,-122.3472235,47.6139839,2326 1st Avenue ,Coffee shops
Broadfork Cafe,-122.3570047,47.6187714,111 Queen Anne Avenue North Seattle 98109,Coffee shops
Storyville Coffee,-122.3365398,47.6047433,1001 1st Avenue Seattle 98104,Coffee shops
Bagel Oasis,-122.3045813,47.6758993,,Coffee shops
Muddy Waters Coffee Company,-122.3029051,47.6758758,,Coffee shops
Compadre Coffee,-122.2973684,47.5769191,2931 Rainier Avenue South Seattle 98144,Coffee shops
Friendz Espresso Cafe,-122.2833665,47.487437,,Coffee shops
Starbucks,-122.2726155,47.4856291,,Coffee shops
The Buffalo Deli,-122.344959,47.6122511,2123 1st Avenue Seattle ,Coffee shops
Hit It Here Café,-122.331399,47.5912862,,Coffee shops
Brown Study Coffee Space,-122.291251,47.7086234,11003 35th Avenue Northeast Seattle 98125,Coffee shops
Coffeeholic House,-122.355524,47.6912893,8525 Greenwood Avenue North Seattle 98103,Coffee shops
Taylor Shellfish Oyster Bar,-122.3326622,47.5988248,410 Occidental Avenue South ,Coffee shops
Piroshki on 3rd,-122.3321847,47.6039453,710 3rd Avenue Seattle 98104,Coffee shops
Pegasus Coffee,-122.3325604,47.6037311,711 3rd Avenue Seattle 98104,Coffee shops
The Egg & Us,-122.3745292,47.6623463,4609 14th Avenue Northwest Seattle 98107,Coffee shops
Allegro Coffee,-122.3765165,47.6369613,,Coffee shops
Discovery Espresso,-122.397941,47.6598834,3103 West Jameson Street Seattle 98199,Coffee shops
Top Pot Doughnuts,-122.3363006,47.6035183,888 Western Avenue Seattle 98104,Coffee shops
Java Jane,-122.3122864,47.7341122,,Coffee shops
Moondrop Coffee & Tea,-122.381367,47.5891674,1619 Harbor Avenue Southwest Seattle 98126,Coffee shops
Both Ways Cafe,-122.270926,47.5642708,4922 South Genesee Street Seattle 98118,Coffee shops
Mae Ploy Thai,-122.37662,47.6758131,6421 15th Avenue Northwest ,Coffee shops
Vietnam Cafe & Sandwich,-122.3764466,47.6703089,,Coffee shops
Seattle Bagel Bakery,-122.2769663,47.4840727,4445 South 134th Place tukwila 98168,Coffee shops
Broadcast Coffee,-122.3175366,47.6762475,6515 Roosevelt Way Northeast Seattle 98115,Coffee shops
Starbucks,-122.335989,47.6617288,1801 North 45th Street Seattle 98103,Coffee shops
Retreat,-122.3265376,47.6784958,6900 East Green Lake Way North Seattle 98115,Coffee shops
Diva Espresso,-122.3560722,47.7339586,14419 Greenwood Avenue North Seattle 98133,Coffee shops
Gourmet Latte,-122.3453209,47.7267876,,Coffee shops
Starbucks,-122.3342718,47.6073521,1125 4th Avenue Seattle ,Coffee shops
Bequest Coffee Co,-122.303454,47.6187802,2200 East Madison Street Seattle ,Coffee shops
Starbucks,-122.343851,47.7410708,,Coffee shops
Fonté Coffee,-122.3390223,47.6074407,1321 1st Avenue Seattle 98101,Coffee shops
Starbucks,-122.3356256,47.6104569,425 Pike Street Seattle 98101,Coffee shops
Fresh Flours,-122.3112517,47.578765,1624 South McClellan Street ,Coffee shops
Salt & Sugar,-122.3878606,47.6699614,5615 24th Avenue Northwest Seattle 98107,Coffee shops
Pico Cafe & Bakery,-122.3985607,47.6756533,,Coffee shops
Chocolati Café,-122.3322194,47.6065451,,Coffee shops
RedBean Coffee,-122.3129785,47.661916,,Coffee shops
Zen Noodle,-122.3133199,47.6623405,4537 University Way Northeast ,Coffee shops
Elm Coffee Roasters,-122.331048,47.6001629,240 2nd Avenue South Seattle 98104,Coffee shops
Top Pot Doughnuts,-122.3323,47.6040466,720 3rd Avenue ,Coffee shops
Anchorhead Coffee,-122.316993,47.6120238,1115 12th Avenue Seattle 98122,Coffee shops
Café Amazon,-122.3360093,47.615623,,Coffee shops
Port & Anchor,-122.352191,47.6648689,,Coffee shops
Davids & Co,-122.336662,47.6081521,,Coffee shops
Espresso Caffe Dior,-122.3319548,47.6117819,,Coffee shops
Honor Coffee & Tea,-122.3365768,47.6080632,,Coffee shops
Husky Grind,-122.3171022,47.6547117,,Coffee shops
Caffe Ladro,-122.3335082,47.6152597,1800 9th Avenue Seattle 98101,Coffee shops
Tam Thanh Café,-122.3559674,47.5178962,,Coffee shops
Deli & Pho,-122.3530635,47.5141459,,Coffee shops
Pho Thu Thuy,-122.3542271,47.5165759,9627 15th Avenue Southwest Seattle ,Coffee shops
Good Day Donuts,-122.3553727,47.5148638,9823 16th Avenue Southwest Seattle 98106,Coffee shops
Repast,-122.2921385,47.5906124,1368 31st Avenue South Seattle 98144,Coffee shops
Midtown Espresso,-122.341786,47.615051,2133 5th Avenue Seattle 98121,Coffee shops
Cafe Suisse,-122.3376595,47.6155051,,Coffee shops
Starbucks,-122.3340266,47.6053444,,Coffee shops
Phoenix Cafe,-122.3346204,47.6059926,1019 3rd Avenue ,Coffee shops
Peet's Coffee,-122.3347082,47.60607,,Coffee shops
Starbucks,-122.3350154,47.6053884,,Coffee shops
Market Fresh,-122.3336405,47.605556,,Coffee shops
Joelle's Espresso Shop,-122.3336691,47.6059612,,Coffee shops
TASTE Café,-122.3542465,47.6163632,,Coffee shops
Sound Soups,-122.3347297,47.6052028,,Coffee shops
Pabla Punjabi Cuisine,-122.3348005,47.6051548,,Coffee shops
Piroshki on Madison,-122.323131,47.6099745,1219 Madison Street Seattle 98104,Coffee shops
Zoo Java,-122.3528831,47.6683511,,Coffee shops
Cafe Bee,-122.348385,47.619883,407 Broad Street Seattle 98109,Coffee shops
Rain Cafe,-122.3437757,47.7249071,13200 Aurora Avenue North Seattle 98133,Coffee shops
Starbucks,-122.3381174,47.6152375,2011 7th Avenue Seattle 98121,Coffee shops
Olympia Coffee Roasting Company,-122.338128,47.6148853,,Coffee shops
Dorothea Coffee,-122.2955808,47.5993769,2812 South Jackson Street Seattle 98144,Coffee shops
Boon Boona,-122.316576,47.6075434,1223 East Cherry Street Seattle 98122,Coffee shops
Starbucks,-122.3356883,47.6071949,,Coffee shops
Taste Café,-122.3384058,47.6073513,1300 1st Avenue Seattle 98101,Coffee shops
Cafe Cosmos,-122.353385,47.6172467,2929 1st Avenue Seattle 98121,Coffee shops
Starbucks,-122.3324456,47.6100229,,Coffee shops
Walla Walla Farms,-122.3325277,47.6099437,601 Union Street ,Coffee shops
Peet's Coffee,-122.3345583,47.6099073,,Coffee shops
Mr West Cafe Bar,-122.3344939,47.6141114,720 Olive Way Seattle 98101,Coffee shops
Starbucks,-122.3865574,47.5609289,,Coffee shops
The Bottom Line,-122.3185304,47.610593,,Coffee shops
Juicvana,-122.3172187,47.601582,110 Boren Avenue South Seattle 98144,Coffee shops
Voxx Coffee,-122.3322553,47.6090835,1200 6th Avenue ,Coffee shops
Starbucks,-122.3303319,47.6053973,,Coffee shops
Core Bistro,-122.3295135,47.6048538,,Coffee shops
Café an' Clair,-122.3399863,47.6211378,826 Thomas Street Seattle 98109,Coffee shops
Kitanda,-122.3237247,47.6802358,428 Northeast 71st Street ,Coffee shops
Cherry Street Coffee House,-122.3271891,47.6153836,320 East Pine Street ,Coffee shops
Ghost Note Coffee,-122.3270324,47.6159256,1623 Bellevue Avenue ,Coffee shops
Mustardseed Cafe & Catering,-122.3333217,47.6085001,1200 5th Avenue ,Coffee shops
Diana's Market Kitchen,-122.3376171,47.605224,,Coffee shops
Rub with Love Shack,-122.3437339,47.6107395,2014 Western Avenue ,Coffee shops
Meetea Cafe,-122.317971,47.6135867,1424 11th Avenue Seattle 98122,Coffee shops
Cherry Street Market,-122.318281,47.6083936,,Coffee shops
Hello Robin,-122.3071746,47.6239997,522 19th Avenue East Seattle 98112,Coffee shops
Westman's Bagel and Coffee,-122.3123155,47.6146197,1509 East Madison Street Seattle 98122,Coffee shops
Storyville Coffee,-122.3406021,47.6089737,94 Pike Street Seattle 98101,Coffee shops
Overcast Coffee Company,-122.318617,47.6127803,1017 East Union Street Seattle 98122,Coffee shops
Il Fornaio Cafe,-122.3352348,47.6127801,,Coffee shops
Starbucks,-122.3308208,47.6041365,,Coffee shops
Espresso Vivace - Alley 24,-122.330607,47.62011,227 Yale Avenue North Seattle 98109,Coffee shops
Greenlake Boathouse Cafe,-122.3288084,47.6814429,,Coffee shops
Kaladi Brothers Coffee,-122.3249471,47.6139747,517 East Pike Street Seattle 98122,Coffee shops
The Cookie Counter,-122.3246191,47.6139749,517 East Pike Street Seattle 98122,Coffee shops
Starbucks,-122.3519201,47.6140488,,Coffee shops
Union Deli,-122.3359595,47.6086762,,Coffee shops
LadyBug Espresso,-122.3371316,47.5540801,,Coffee shops
Holgate Deli,-122.3219516,47.5869487,,Coffee shops
Pegasus Coffee,-122.3354016,47.6074009,,Coffee shops
Pokeworks,-122.3352447,47.6072277,,Coffee shops
Starbucks,-122.3223501,47.5476359,,Coffee shops
Woodland Coffee,-122.3751274,47.667743,1417 Northwest 54th Street Seattle 98107,Coffee shops
Country Dough,-122.3424868,47.6102414,,Coffee shops
Zig Zag Cafe,-122.3415334,47.6083206,1501 Western Avenue ,Coffee shops
South Lake Cafe,-122.336745,47.6277197,,Coffee shops
Wings Cafe,-122.296739,47.5189004,,Coffee shops
Starbucks,-122.3387148,47.6243838,,Coffee shops
Ellenos Real Greek Yogurt,-122.3267473,47.5972222,,Coffee shops
Nagomi Tea House,-122.3268004,47.5978494,,Coffee shops
Café Weekend,-122.309515,47.594645,851 Hiawatha Place South Seattle 98144,Coffee shops
R&B Tea,-122.316175,47.6614131,1100 Northeast 45th Street 98105,Coffee shops
Vita at KEXP,-122.355153,47.6229594,472 1st Avenue North Seattle 98109,Coffee shops
"Tukwila Soups, Salads & Sandwiches",-122.2738653,47.4863967,,Coffee shops
Cherry Street Coffee House,-122.3340524,47.6232737,500 Fairview Avenue North Seattle 98109,Coffee shops
Toast To Toast,-122.3426505,47.6201384,211 Dexter Avenue North Seattle 98109,Coffee shops
The Conservatory,-122.318256,47.5503841,,Coffee shops
Chip & Drew's Filling Station,-122.3377599,47.60772,1301 2nd Avenue Seattle 98101,Coffee shops
DelinoMore,-122.3327627,47.6078481,1118 5th Avenue ,Coffee shops
Homegrown,-122.3341792,47.6047515,999 3rd Avenue ,Coffee shops
Starbucks Reserve,-122.338517,47.6068659,1305 1st Avenue Seattle 98101,Coffee shops
Anchorhead Coffee Co,-122.344591,47.6109176,2003 Western Avenue Seattle 98121,Coffee shops
Vital Tea Leaf,-122.3447741,47.6110349,,Coffee shops
Walla Walla Farms Cafe & Catering,-122.3361452,47.6059842,1191 2nd Avenue Seattle 98101,Coffee shops
Lassi & Spice,-122.3377854,47.647908,1651 North 34th Street Seattle 98103,Coffee shops
Starbucks,-122.3347195,47.6103933,,Coffee shops
Family Donut,-122.3333471,47.7089826,2100 North Northgate Way Seattle 98133,Coffee shops
Kiki Bakery & Cafe,-122.3161723,47.6634934,4708 11th Avenue Northeast Seattle 98105,Coffee shops
Moonshot Coffee,-122.3549759,47.5166255,9622 16th Avenue Southwest Seattle 98106,Coffee shops
Caffe Ladro,-122.3340781,47.6223595,400 Fairview Avenue North Seattle 98109,Coffee shops
Juicy Cafe,-122.3340802,47.6226804,400 Fairview Avenue North Seattle 98109,Coffee shops
Honor Society Coffee,-122.3282037,47.6148164,1531 Melrose Avenue Seattle 98122,Coffee shops
Stage Door Cafe,-122.3561643,47.6908575,208 North 85th Street Seattle 98103,Coffee shops
Monkey Grind Espresso Bar,-122.3514432,47.6907123,,Coffee shops
Metropolitan Deli & Cafe,-122.3282074,47.6078918,805 Madison Street Seattle 98104,Coffee shops
Starbucks,-122.324146,47.6095674,,Coffee shops
Squirrel Chops,-122.303374,47.6127835,2201 East Union Street Seattle 98122,Coffee shops
Starbucks,-122.2883797,47.5691264,3820 Rainier Avenue South Seattle 98118,Coffee shops
Caffé D'Arte,-122.3344095,47.6016211,99 Yesler Way Seattle 98104,Coffee shops
Metropolitan Deli + Cafe,-122.3455063,47.6153221,,Coffee shops
New China Express,-122.3831284,47.6451897,2809 Thorndyke Avenue West Seattle 98199,Coffee shops
World Class Coffee,-122.3514846,47.617257,,Coffee shops
Clipper Cafe,-122.3534337,47.6136808,,Coffee shops
Grecian Corner,-122.3487456,47.6191881,,Coffee shops
Electric Boat Cafe,-122.3401765,47.6378441,,Coffee shops
Sprout,-122.3345835,47.6235412,501 Fairview Avenue North Seattle 98109,Coffee shops
Farvahar Cafe,-122.3411986,47.6095087,,Coffee shops
The Bubble Tea Shop,-122.3508887,47.6217563,,Coffee shops
Starbucks,-122.305396,47.6549308,,Coffee shops
Metropolitan Deli & Cafe,-122.3552601,47.6196483,,Coffee shops
Mi Plus,-122.3387199,47.6210974,,Coffee shops
Amazing Thai Cuisine,-122.3171951,47.6668189,5210 Roosevelt Way Northeast Seattle 98105,Coffee shops
Anchorhead Coffee Co,-122.3346773,47.6133741,1600 7th Avenue ,Coffee shops
Cafe Hitchcock,-122.3351568,47.6038318,818 1st Avenue Seattle 98104,Coffee shops
The Bridge Coffee House,-122.3322568,47.7174468,,Coffee shops
Via Vadi Caffé,-122.3145127,47.5263085,,Coffee shops
The Station,-122.311882,47.5795449,1600 South Roberto Maestas Festival Street Seattle 98144,Coffee shops
Starbucks,-122.3298229,47.6171347,,Coffee shops
Corner Stone Cafe & Deli,-122.3435168,47.6171966,591 Battery Street ,Coffee shops
Konvene Coffee & Cafe,-122.3471762,47.6247794,,Coffee shops
Fonte Micro Coffee Roaster,-122.3464157,47.6170153,,Coffee shops
Swansons Café,-122.3782232,47.6999464,,Coffee shops
Top Pot Doughnuts,-122.341033,47.610312,,Coffee shops
Starbucks,-122.3172501,47.6821479,,Coffee shops
Urban Luxe Cafe,-122.3175409,47.6730696,6105 Roosevelt Way Northeast ,Coffee shops
20 Oz Tea,-122.3257894,47.6357623,1823 Eastlake Avenue East ,Coffee shops
Freya Café,-122.3924134,47.6684764,2655 Northwest Market Street Seattle 98107,Coffee shops
General Porpoise Doughnuts - Pioneer Square,-122.3344279,47.5990726,401 1st Avenue South ,Coffee shops
Dona Queen,-122.3296934,47.5805575,2445 4th Avenue South ,Coffee shops
Umbria,-122.2845381,47.5572441,,Coffee shops
Chè Dessert,-122.2823622,47.5384603,,Coffee shops
Donut Factory,-122.317271,47.6610617,4336 Roosevelt Way Northeast Seattle 98105,Coffee shops
Ikor Cafe,-122.3542948,47.7049367,323 North 105th Street ,Coffee shops
Eastern Cafe,-122.3245156,47.5978453,510 Maynard Avenue South ,Coffee shops
Raised Doughnuts,-122.3016849,47.6127679,2301 East Union Street Seattle 98122,Coffee shops
Seattle Freeze,-122.3171352,47.5487782,,Coffee shops
Realfine Coffee,-122.3782481,47.5634117,4480 Fauntleroy Way Southwest ,Coffee shops
Starbucks,-122.267607,47.520867,,Coffee shops
Frankie & Jo's - Capitol Hill,-122.3188989,47.6130833,1010 East Union Street ,Coffee shops
Sound and Fog,-122.3830747,47.5599043,4735 40th Avenue Southwest ,Coffee shops
Caffè Umbria,-122.3412,47.6299284,1201 Westlake Avenue North Seattle 98109,Coffee shops
Belle Epicurean,-122.333238,47.6057382,925 4th Avenue ,Coffee shops
General Porpoise Doughnuts - Amazon Spheres,-122.3395343,47.6155767,2101 7th Avenue Seattle 98121,Coffee shops
Piroshky Piroshky at Century Square,-122.3377999,47.6100836,1501 4th Avenue Seattle 98101,Coffee shops
Caffe Migliore,-122.33475,47.607779,,Coffee shops
The Original Deli,-122.3348689,47.6074818,1215 4th Avenue ,Coffee shops
Café Frieda,-122.3244487,47.6072541,,Coffee shops
Dilettante Mocha Café,-122.3375307,47.6123814,1601 5th Avenue ,Coffee shops
Macrina Bakery - Aloha,-122.306994,47.6265669,,Coffee shops
CANUC,-122.3129509,47.6638017,4730 University Way Northeast Seattle 98105,Coffee shops
Capsule Cafe,-122.3133017,47.6615202,4507 University Way Northeast Seattle ,Coffee shops
Unity Museum,-122.3135432,47.6610104,,Coffee shops
Kitanda,-122.3158201,47.6611687,,Coffee shops
Iki Tea,-122.3198006,47.6142138,916 East Pike Street ,Coffee shops
Cascade Coffee Works,-122.3347662,47.6210613,1130 Thomas Street ,Coffee shops
Basecamp Cafe,-122.32172,47.6212133,800 East Thomas Street Seattle 98102,Coffee shops
Shug’s Mini,-122.3865122,47.5700511,,Coffee shops
Ugly Mug Cafe,-122.3780297,47.6482738,1609 West Dravus Street ,Coffee shops
Nana’s Green Tea,-122.3330473,47.6161711,,Coffee shops
Mount&Bao,-122.2944056,47.7202265,12534 Lake City Way Northeast Seattle 98125,Coffee shops
Hood Famous Cafe and Bar,-122.3275224,47.598199,,Coffee shops
L’Experience Paris,-122.2327738,47.5832528,3020 78th Avenue Southeast ,Coffee shops
Moore Coffee Seattle,-122.3409566,47.6107718,112 Stewart Street Seattle 98101,Coffee shops
Atulea,-122.3171665,47.616908,,Coffee shops
R&M Dessert Bar,-122.3240318,47.6139539,,Coffee shops
Sharetea,-122.3205264,47.6070922,530,Coffee shops
Starbucks,-122.2829914,47.5376032,3900 South Othello Street Seattle 98118,Coffee shops
Poindexter,-122.3144657,47.6614305,4507 Brooklyn Avenue Northeast 98105,Coffee shops
Fulcrum Coffee,-122.342594,47.616642,590 Bell Street Seattle 98121,Coffee shops
Just Poké,-122.3483268,47.6494892,734 North 34th Street ,Coffee shops
Cafe Limoncello,-122.3589117,47.6222408,150 West Harrison Street ,Coffee shops
Lassi and Spice,-122.3346342,47.6228585,423 Fairview Avenue North ,Coffee shops
Jujubeet - University Village,-122.3019399,47.66499,,Coffee shops
Starbucks,-122.3852753,47.5612673,,Coffee shops
Beehive Espresso,-122.362787,47.7011236,,Coffee shops
Microsoft Café,-122.3050129,47.6530733,3800 East Stevens Way Northeast Seattle 98195,Coffee shops
,-122.3064995,47.4991938,2015 South 116th Street Burien 98168,Coffee shops
Little Oddfellows,-122.3199576,47.6147526,,Coffee shops
Byrek & Bagguette,-122.3133898,47.6587021,4209 University Way Northeast Seattle ,Coffee shops
Sweet Alchemy Ice Creamery,-122.3786209,47.6685143,1555 Northwest Market Street ,Coffee shops
Tougo Coffee Co.,-122.321159,47.6019366,860 Yesler Way ,Coffee shops
Bauhaus,-122.3221771,47.6237821,515 Harvard Avenue East Seattle 98102,Coffee shops
Mighty O Donuts,-122.332396,47.6169526,,Coffee shops
Dont Yell At Me,-122.321059,47.619578,125 Broadway East Seattle 98102,Coffee shops
Jenny Smoothie Bar,-122.3626186,47.7007452,9776 Holman Road Northwest Seattle 98117,Coffee shops
Cortina Café,-122.3318286,47.6106143,,Coffee shops
Yi Fang Tea,-122.312876,47.6652906,,Coffee shops
Gourmondo Cafe,-122.3601274,47.6196139,,Coffee shops
Santo Coffee Co.,-122.3133457,47.6756861,,Coffee shops
Panama Hotel Tea & Coffee,-122.3260058,47.5999252,,Coffee shops
Diva,-122.3286689,47.6027991,,Coffee shops
Homegrown,-122.2327611,47.583434,3016 78th Avenue Southeast Mercer Island 98040,Coffee shops
Union Coffee,-122.3011069,47.6128058,2407 East Union Street Seattle 98122,Coffee shops
Off the Rez Cafe,-122.311331,47.66019,4300 15th Avenue Northeast Seattle 98105,Coffee shops
Two Kick Coffee,-122.3574865,47.6490125,3208 Queen Anne Avenue North Seattle 98109,Coffee shops
Starbucks,-122.3131775,47.6206617,,Coffee shops
Musashi Newsroom,-122.375872,47.6689701,1448 Northwest Market Street Seattle 98107,Coffee shops
Tea House Gallery,-122.3828828,47.6904176,,Coffee shops
Nos Nos Coffee House,-122.3760996,47.5466765,,Coffee shops
Starbucks,-122.3037961,47.6180642,,Coffee shops
Nielsen's Pastries,-122.359162,47.6240792,520 2nd Avenue West Seattle 98119,Coffee shops
Urban Gyro,-122.3340599,47.6205014,,Coffee shops
Preserve and Gather,-122.3631151,47.6907772,358 Northwest 85th Street 98117,Coffee shops
Café Hagen,-122.3314322,47.6209994,1252 East Thomas Street ,Coffee shops
Cedar and Spoke,-122.346074,47.6116692, Seattle ,Coffee shops
Olympia Coffee,-122.3865954,47.5693867,3840 California Avenue Southwest Seattle 98116,Coffee shops
Luu's,-122.291147,47.6903134,8507 35th Avenue Northeast Seattle ,Coffee shops
Firehouse Coffee,-122.3914382,47.668849,2622 Northwest Market Street Seattle 98107,Coffee shops
Le Fournil,-122.321595,47.6508914,3230 Eastlake Avenue East ,Coffee shops
Jibe Espresso Bar,-122.4047438,47.6806003,7001 Seaview Avenue Northwest ,Coffee shops
Starbucks,-122.3685179,47.6597396,,Coffee shops
The Salty Shack,-122.332846,47.6612596,,Coffee shops
Red Arrow Coffee,-122.3629857,47.6685232,,Coffee shops
trübistro,-122.3236856,47.6062433,610 Terry Avenue Seattle 98104,Coffee shops
Sip House,-122.314412,47.665029,,Coffee shops
Phin vietnamese coffee & etc,-122.3198523,47.598778,,Coffee shops
La Rue Creperie + Espresso,-122.325611,47.6183101,1525 East Olive Way Seattle 98122,Coffee shops
Resistencia Coffee,-122.3154114,47.5263373,1249 South Cloverdale Street Seattle 98108,Coffee shops
Cafe Argento,-122.31718,47.6163091,1125 East Olive Street Seattle 98122,Coffee shops
Cemitas La Po,-122.3562875,47.5156966,,Coffee shops
Pilgrim Coffeehouse,-122.343832,47.7023319,10002 Aurora Avenue North Seattle 98133,Coffee shops
Retro Coffee,-122.3314315,47.606352,,Coffee shops
Seattle Sunshine Coffee,-122.2900138,47.6688607,5508 35th Avenue Northeast ,Coffee shops
Tropical Berry,-122.2909395,47.6904083,8505 35th Avenue Northeast Seattle 98115,Coffee shops
Cheeky Cafe,-122.310108,47.5993477,1700 South Jackson Street 98144,Coffee shops
Hello Em Việt Coffee & Roastery,-122.3154424,47.5973809,98144,Coffee shops
Casa Caffè,-122.3335495,47.4859266,,Coffee shops
Good Weather Bicycle & Café,-122.317359,47.6137519,1424 11th Avenue 98122,Coffee shops
Armistice,-122.3261181,47.6384288,2201 Eastlake Avenue East ,Coffee shops
Starbucks,-122.3249263,47.706062,10601 5th Avenue Northeast Seattle 98125,Coffee shops
Fresh Flours Café,-122.3562226,47.5188065,,Coffee shops
Riveted Coffee,-122.3668377,47.690515,,Coffee shops
Starbucks,-122.3386109,47.6082644,,Coffee shops
Husky Grind,-122.313651,47.6558508,1315 Northeast Campus Parkway Seattle 98105,Coffee shops
Caffè Torino,-122.3301699,47.6223223,422 Yale Avenue North ,Coffee shops
Flora Bakehouse,-122.312794,47.5533843,,Coffee shops
Starbucks,-122.3248342,47.709453,302 Northeast Northgate Way Seattle 98125,Coffee shops
Umami Kushi,-122.263325,47.5204149,9099 Seward Park Avenue South Seattle 98118,Coffee shops
,-122.3365765,47.6142873,,Coffee shops
Starbucks,-122.3169544,47.7094477,11100 Roosevelt Way Northeast Seattle 98125,Coffee shops
Tous Les Jours,-122.3374072,47.618732,,Coffee shops
Coffeeholic House,-122.286002,47.5572208,98118,Coffee shops
Lado a Lado,-122.3258283,47.6153459,,Coffee shops
Grumpy Bean,-122.3344228,47.6158477,,Coffee shops
Kitanda,-122.3396428,47.617685,2202 8th Avenue Seattle 98121,Coffee shops
Mammoth,-122.3832739,47.6662192,5239 Ballard Avenue Northwest ,Coffee shops
Epic Cafe,-122.3011828,47.7041807,10336 Lake City Way Northeast Seattle 98125,Coffee shops
Old Salt Fish and Bagels,-122.3432323,47.6510361,,Coffee shops
Orin's Place,-122.308351,47.6589005,4295 East Stevens Way Northeast Seattle 98195,Coffee shops
Denny Café,-122.305912,47.6593412,4295 Little Canoe Channel Northeast Seattle 98195,Coffee shops
Onda Origins,-122.2776821,47.551657,5600 Rainier Avenue South Seattle 98118,Coffee shops
Sunright Tea Studio,-122.3176421,47.6624814,545 Roosevelt Way Northeast Seattle 98105,Coffee shops
The Buzz,-122.3125056,47.6549498,,Coffee shops
Evolutionary Grounds,-122.310093,47.6523247,3747 West Stevens Way Northeast Seattle 98126,Coffee shops
West Seattle Grounds,-122.3866194,47.5841214,2141 California Avenue Southwest Seattle 98116,Coffee shops
Public Grounds,-122.3104146,47.6573767,4105 Memorial Way Northeast Seattle 98105,Coffee shops
Starbucks,-122.311775,47.6548932,3980 15th Avenue Northeast Seattle 98195,Coffee shops
Willy's Cafe,-122.2605972,47.6811675,,Coffee shops
Light Sleeper,-122.3175329,47.6137313,,Coffee shops
Wunderground,-122.3175684,47.6139795,,Coffee shops
Boba Up,-122.3133758,47.6580382,,Coffee shops
HeartBeet,-122.3572054,47.6346035,1635 Queen Anne Avenue North Seattle 98109,Coffee shops
Tea King,-122.3420933,47.6333279,1600 Dexter Avenue North ,Coffee shops
203ºF Coffee Company,-122.3368499,47.6251297,610 Terry Avenue North ,Coffee shops
Happy Lemon,-122.3403413,47.6174577,2245,Coffee shops
West Bay,-122.3745596,47.583443,,Coffee shops
Hagen,-122.3473932,47.6263851,800 5th Avenue North ,Coffee shops
Tea Addicts,-122.3126994,47.6759555,1410 Northeast 65th Street Seattle 98115,Coffee shops
The Shop by Porter,-122.3375333,47.6064246,1201 2nd Avenue Seattle 98101,Coffee shops
The Burnt Coffee Co.,-122.3759634,47.6494597,3232 15th Avenue West ,Coffee shops
Starbucks,-122.2968156,47.5769813,2921 Martin Luther King Junior Way South Seattle 98144,Coffee shops
Kelly Cannoli,-122.3000651,47.7106669,,Coffee shops
Starbucks,-122.3254943,47.6799917,7100 East Green Lake Drive North Seattle 98115,Coffee shops
Oxbow,-122.3023469,47.6398305,2307 24th Avenue East Seattle 98112,Coffee shops
Fremont Coffee Company,-122.3530759,47.6517074,459 North 36th Street Seattle 98103,Coffee shops
Gather + Graze Café,-122.3496076,47.669294,,Coffee shops
Queen Anne Coffee Co.,-122.3573363,47.6352114,1811 Queen Anne Avenue North Seattle 98109,Coffee shops
Starbucks,-122.2850787,47.5457169,6310 Martin Luther King Junior Way South Seattle 98118,Coffee shops
Victrola Coffee Roasters,-122.3272995,47.6143299,310 East Pike Street Seattle 98122,Coffee shops
Starbucks Reserve,-122.328356,47.6140366,1124 Pike Street Seattle 98101,Coffee shops
Pim Bikes & Coffee,-122.3626227,47.6562349,4013 Leary Way Northwest Seattle 98107,Coffee shops
Irwin's Bakery And Coffee House,-122.3328118,47.6554359,2123 North 40th Street Seattle 98103,Coffee shops
Ballard Coffee Co.,-122.3764898,47.6718217,5905 15th Avenue Northwest Seattle 98107,Coffee shops
Ballard Pho & Teriyaki,-122.3764958,47.6751527,6315 15th Avenue Northwest Seattle 98107,Coffee shops
Starbucks,-122.3255544,47.6410308,2344 Eastlake Avenue East Seattle 98102,Coffee shops
Wild Mountain Cafe,-122.3745663,47.6908669,1408 Northwest 85th Street Seattle 98117,Coffee shops
Red Rock Cafe,-122.3456315,47.7327732,14313 Aurora Avenue North Seattle 98133,Coffee shops
Top Pot Doughnuts,-122.2906162,47.6791466,6855 35th Avenue Northeast Seattle 98115,Coffee shops
Stumbletown Ballard,-122.3604924,47.6757841,6256 3rd Avenue Northwest Seattle 98107,Coffee shops
The Wild Cup,-122.3504889,47.6664918,,Coffee shops
Chocolati Café,-122.3359459,47.6854732,7810 East Green Lake Drive North Seattle 98103,Coffee shops
Meraki Tea Bar,-122.3145645,47.6632874,4701 Brooklyn Avenue Northeast Seattle 98105,Coffee shops
Seven Market & Cafe,-122.3060537,47.6691018,2007 Northeast Ravenna Boulevard Seattle 98105,Coffee shops
Belle Epicurean,-122.2920326,47.6260548,3109 East Madison Street Seattle 98112,Coffee shops
Grillbird Teriyaki,-122.3767541,47.5445134,6501 35th Avenue Southwest Seattle 98126,Coffee shops
Caffe Ladro,-122.3875687,47.5403173,7011 California Avenue Southwest Seattle 98136,Coffee shops
Starbucks,-122.3720561,47.6298439,1144 Elliott Avenue West Seattle 98119,Coffee shops
Conduit Coffee,-122.3437724,47.6424267,2501 Westlake Avenue North Seattle 98109,Coffee shops
Lula Coffee Co.,-122.321051,47.5766701,3100 Airport Way South Seattle 98134,Coffee shops
Starbucks,-122.3338829,47.5841925,1962 1st Avenue South Seattle 98134,Coffee shops
Á-Châu Cafe & Deli,-122.2711928,47.5405603,6902 Rainier Avenue South Seattle 98118,Coffee shops
Ambrosia,-122.2824346,47.5390263,6951 Martin Luther King Junior Way South Seattle 98118,Coffee shops
,-122.3127176,47.5801508,2532 Beacon Avenue South Seattle 98144,Coffee shops
Central Cafe,-122.2994614,47.6078353,2509 East Cherry Street Seattle 98122,Coffee shops
Cafe Selam,-122.2972534,47.6077889,2715 East Cherry Street ,Coffee shops
Cafe de Monde,-122.303061,47.6116892,1101 23rd Avenue Seattle 98122,Coffee shops
Pearls Tea & Coffee,-122.3626632,47.5591637,,Coffee shops
Volunteer Park Cafe & Pantry,-122.3101429,47.6324463,1501 17th Avenue East Seattle 98112,Coffee shops
Starbucks,-122.3770318,47.5642639,4408 Fauntleroy Way Southwest Seattle 98126,Coffee shops
C&P Coffee Company,-122.3866497,47.5516797,5612 California Avenue Southwest Seattle 98136,Coffee shops
,-122.3171899,47.5459953,1132 South Albro Place Seattle 98108,Coffee shops
The Hangar Cafe,-122.3164138,47.5467198,6261 13th Avenue South Seattle 98108,Coffee shops
Coastline Burgers,-122.3864782,47.5633285,4444 California Avenue Southwest Seattle 98116,Coffee shops
Pressed,-122.3551875,47.6250823,604 1st Avenue North Seattle 98109,Coffee shops
BB's Teriyaki Grill,-122.3352637,47.6062623,1111 3rd Avenue Seattle 98101,Coffee shops
Roosters Espresso,-122.3148023,47.6858079,7809 Lake City Way Northeast Seattle 98115,Coffee shops
Bus Stop Espresso,-122.3197738,47.6760621,800 Northeast 65th Street Seattle 98115,Coffee shops
Starbucks,-122.3840719,47.5809801,4101 Southwest Admiral Way Seattle 98116,Coffee shops
Diva Espresso,-122.3550806,47.6868161,7916 Greenwood Avenue North Seattle 98103,Coffee shops
Jumpin' Jimmy's Java,-122.3769809,47.6761176,,Coffee shops
Kickstart Coffee,-122.2440696,47.7285301,,Coffee shops
Queen Bee,-122.2221892,47.6357492,8805 Points Drive Northeast Clyde Hill 98004,Coffee shops
Citizen Cafe,-122.3459519,47.6256982,706 Taylor Avenue North Seattle 98109,Coffee shops
My Choice Espresso,-122.3553592,47.5086771,,Coffee shops
Jardin Tea,-122.327513,47.5973127,604 5th Avenue South Seattle 98104,Coffee shops
Dochi,-122.3271287,47.5974012,515;604 South Weller Street Seattle 98104,Coffee shops
Gourmet Latté,-122.3756827,47.6941292,,Coffee shops
Seattle Bay Creamery,-122.34164,47.6061323,,Coffee shops
Caffe Migliore,-122.3357715,47.6088311,1325 4th Avenue Seattle ,Coffee shops
,-122.3454359,47.7343991,,Coffee shops
Gourmet Latte Espresso Bars,-122.36479,47.6241792,540 Elliott Avenue West Seattle 98119,Coffee shops
Starbucks,-122.3449954,47.6894536,,Coffee shops
Starbucks,-122.376656,47.6668837,5221 15th Avenue Northwest Seattle 98107,Coffee shops
Lucca Espresso,-122.3665815,47.6602161,4351 8th Avenue Northwest Seattle 98107,Coffee shops
Cafe Red,-122.2809757,47.5375434,7148 Martin Luther King Junior Way South Seattle 98118,Coffee shops
LadyBug Bikini Espresso,-122.3157098,47.5177314,9525 14th Avenue South Seattle 98108,Coffee shops
,-122.345889,47.7467029,,Coffee shops
Family Friendly Espresso,-122.2711458,47.4845004,,Coffee shops
Empire,-122.2842452,47.5585112,3829 South Edmunds Street Seattle 98118,Coffee shops
Divine Decedence,-122.3269649,47.5457065,551 South Michigan Street Seattle 98108,Coffee shops
Chicka Latte,-122.3450403,47.7075897,10733 Aurora Avenue North Seattle 98133,Coffee shops
Ladybug Bikini Espresso,-122.329345,47.5775873,,Coffee shops
Cream Cafe,-122.3503028,47.4875941,12825 Ambaum Boulevard Southwest Burien 98146,Coffee shops
BigFoot Java,-122.3492258,47.4881903,1023 Southwest 128th Street Burien 98146-3127,Coffee shops
Patrick’s Café and Bakery,-122.3542112,47.5135502,10003 15th Avenue Southwest Seattle 98146,Coffee shops
,-122.3112207,47.4888579,12666 Des Moines Memorial Drive South Burien 98168,Coffee shops
,-122.3343129,47.4882523,12805 1st Avenue South Burien 98168,Coffee shops
Starbucks,-122.3447178,47.7397904, Aurora Avenue North Shoreline 98133,Coffee shops
Fit Bar Cafe,-122.3862317,47.583551,2222 California Avenue Southwest Seattle 98116,Coffee shops
Starbucks,-122.2168656,47.4840831,68 Rainier Avenue South Renton 98057,Coffee shops
Starbucks,-122.3548283,47.5141069,9862 16th Avenue Southwest Seattle 98106,Coffee shops
Starbucks,-122.3255923,47.5460437,651;601 South Michigan Street Seattle 98108,Coffee shops
LadyBug Bikini Espresso,-122.2181385,47.4906412,,Coffee shops
Rooster’s Espresso,-122.2901102,47.73867,15032 Bothell Way Northeast ,Coffee shops
,-122.3122579,47.4877737,,Coffee shops
Cowgirls Espresso,-122.3147955,47.5237709,,Coffee shops
Mean Sandwich,-122.3768879,47.6638734,1510 Northwest Leary Way Seattle 98107,Coffee shops
Coffee Shack,-122.3130743,47.7351861,14615 15th Avenue Northeast Shoreline 98155,Coffee shops
Mocha Mojo,-122.3712079,47.5173026,,Coffee shops
BedHead Coffee,-122.3548336,47.5334168,,Coffee shops
